{
  "type": "FeatureCollection",
  "name": "Accesos_y_puente",
  "crs": {
    "type": "name",
    "properties": {
      "name": "urn:ogc:def:crs:OGC:1.3:CRS84"
    }
  },
  "features": [
    {
      "type": "Feature",
      "properties": {
        "name": "Acceso 1",
        "source_crs": "EPSG:3116",
        "source_area_m2": 368.213
      },
      "geometry": {
        "type": "Polygon",
        "coordinates": [
          [
            [-75.75010343, 5.96155277],
            [-75.74989248, 5.96155300],
            [-75.74983850, 5.96155279],
            [-75.74976910, 5.96155708],
            [-75.74974246, 5.96156266],
            [-75.74966404, 5.96160425],
            [-75.74965204, 5.96161061],
            [-75.74968413, 5.96165558],
            [-75.74972134, 5.96163722],
            [-75.74974682, 5.96162869],
            [-75.74978693, 5.96162101],
            [-75.74981354, 5.96161953],
            [-75.74985050, 5.96161955],
            [-75.75014277, 5.96161967],
            [-75.75010343, 5.96155277]
          ]
        ]
      }
    },
    {
      "type": "Feature",
      "properties": {
        "name": "Puente",
        "source_crs": "EPSG:3116",
        "source_area_m2": 174.808
      },
      "geometry": {
        "type": "Polygon",
        "coordinates": [
          [
            [-75.75031671, 5.96155287],
            [-75.75010343, 5.96155277],
            [-75.75014277, 5.96161967],
            [-75.75035603, 5.96161977],
            [-75.75031671, 5.96155287]
          ]
        ]
      }
    },
    {
      "type": "Feature",
      "properties": {
        "name": "Acceso 2",
        "source_crs": "EPSG:3116",
        "source_area_m2": 441.436
      },
      "geometry": {
        "type": "Polygon",
        "coordinates": [
          [
            [-75.75089999, 5.96146837],
            [-75.75086649, 5.96149915],
            [-75.75083249, 5.96152184],
            [-75.75076638, 5.96154698],
            [-75.75071169, 5.96155304],
            [-75.75056052, 5.96155298],
            [-75.75038477, 5.96155290],
            [-75.75031671, 5.96155287],
            [-75.75035603, 5.96161977],
            [-75.75044890, 5.96161982],
            [-75.75058910, 5.96161988],
            [-75.75063128, 5.96161988],
            [-75.75064697, 5.96162421],
            [-75.75065148, 5.96163013],
            [-75.75065383, 5.96164110],
            [-75.75065457, 5.96164669],
            [-75.75068609, 5.96164443],
            [-75.75068796, 5.96163397],
            [-75.75068901, 5.96162801],
            [-75.75069405, 5.96161836],
            [-75.75070370, 5.96161336],
            [-75.75072966, 5.96160804],
            [-75.75075504, 5.96160125],
            [-75.75078148, 5.96159241],
            [-75.75083274, 5.96156733],
            [-75.75088100, 5.96153556],
            [-75.75092278, 5.96149727],
            [-75.75089999, 5.96146837]
          ]
        ]
      }
    }
  ]
}
