{
  "type": "FeatureCollection",
  "name": "afectaciones_heliconia",
  "features": [
    {
      "type": "Feature",
      "properties": {
        "OBJECTID_1": 160446,
        "AVALUO_TER": 0.0,
        "AVALUO_COM": 0.0,
        "TERRENO_CO": "053470100000100140001000000000",
        "DIMENSION": 0,
        "ETIQUETA": "00001",
        "RELACION_S": 0,
        "ESPACIO_DE": "N",
        "LOCAL_ID": "3471001001001400001",
        "CREATED_US": "GISANT",
        "CREATED_DA": "2024-02-22",
        "LAST_EDITE": "GISANT",
        "LAST_EDI_1": "2024-02-22",
        "GLOBALID": "{49F9D5DB-CB3D-4D15-856D-7FC8E2E7AD18}",
        "MUNICIPIO": "347",
        "LLAVE_GLOB": "M347{FF61C6DB-4019-4A1D-E053-E0C8000A11F3}",
        "SHAPE_AREA": 342.28347941,
        "SHAPE_LEN": 209.00972575,
        "archivo_origen": "AFECTACION_1.shp",
        "sistema_origen": "MAGNA-SIRGAS 2018 / Origen-Nacional",
        "sistema_salida": "WGS 84 (EPSG:4326)"
      },
      "geometry": {
        "type": "Polygon",
        "coordinates": [
          [
            [
              -75.73288330509541,
              6.205034747338165
            ],
            [
              -75.73294391998759,
              6.205011375202833
            ],
            [
              -75.73301816398761,
              6.2050067352028595
            ],
            [
              -75.73311417993287,
              6.205011104378238
            ],
            [
              -75.73316308060824,
              6.2050684997128975
            ],
            [
              -75.73296291832175,
              6.205177020647387
            ],
            [
              -75.73293235868874,
              6.205117876089611
            ],
            [
              -75.73288330509541,
              6.205034747338165
            ]
          ]
        ]
      }
    },
    {
      "type": "Feature",
      "properties": {
        "OBJECTID_1": 160445,
        "AVALUO_TER": 0.0,
        "AVALUO_COM": 0.0,
        "TERRENO_CO": "053470100000100140002000000000",
        "DIMENSION": 0,
        "ETIQUETA": "00002",
        "RELACION_S": 0,
        "ESPACIO_DE": "N",
        "LOCAL_ID": "3471001001001400002",
        "CREATED_US": "GISANT",
        "CREATED_DA": "2024-02-22",
        "LAST_EDITE": "GISANT",
        "LAST_EDI_1": "2024-02-22",
        "GLOBALID": "{7FA57096-B70F-4CA7-8012-A9D365AC400E}",
        "MUNICIPIO": "347",
        "LLAVE_GLOB": "M347{FF61C6DB-4018-4A1D-E053-E0C8000A11F3}",
        "SHAPE_AREA": 660.360974449,
        "SHAPE_LEN": 197.506456195,
        "archivo_origen": "AFECTACION_2.shp",
        "sistema_origen": "MAGNA-SIRGAS 2018 / Origen-Nacional",
        "sistema_salida": "WGS 84 (EPSG:4326)"
      },
      "geometry": {
        "type": "Polygon",
        "coordinates": [
          [
            [
              -75.73304936737478,
              6.205130148961482
            ],
            [
              -75.73316308060824,
              6.2050684997128975
            ],
            [
              -75.73319343834184,
              6.205154876351509
            ],
            [
              -75.73319357502432,
              6.205155107063318
            ],
            [
              -75.7332537533998,
              6.205254541810131
            ],
            [
              -75.73333345805591,
              6.205320502744981
            ],
            [
              -75.73349815080455,
              6.205408472218086
            ],
            [
              -75.73360417937992,
              6.2055632916418375
            ],
            [
              -75.73353430304921,
              6.205606710269908
            ],
            [
              -75.73347755198753,
              6.205548102202848
            ],
            [
              -75.73342186898758,
              6.205487778202919
            ],
            [
              -75.73336618598755,
              6.205416627202887
            ],
            [
              -75.73329194098754,
              6.205360943202917
            ],
            [
              -75.73320841598756,
              6.205288246202915
            ],
            [
              -75.73315582598757,
              6.205217094202857
            ],
            [
              -75.73304936737478,
              6.205130148961482
            ]
          ]
        ]
      }
    }
  ]
}