{
"type": "FeatureCollection",
"name": "GABINO_OSCAR_poligonos",
"crs": { "type": "name", "properties": { "name": "urn:ogc:def:crs:OGC:1.3:CRS84" } },
"features": [
{ "type": "Feature", "properties": { "DPTO": null, "MPIO": null, "CORREG": null, "BARRIO": null, "VEREDA": null, "PREDIO": null, "CODCATAS": null, "MATRICULA": null, "PROP": null, "Shape_Leng": 0.0, "SHAPE_AREA": 2779.4274463299998, "fuente": "1_AFECTACION.shp", "Id": null }, "geometry": { "type": "Polygon", "coordinates": [ [ [ -75.200333757459177, 6.572283347998527 ], [ -75.200000721990406, 6.57178364673103 ], [ -75.200354878194403, 6.571635848936229 ], [ -75.200489940368257, 6.571579561679361 ], [ -75.200559075031137, 6.571982706824647 ], [ -75.200737679054953, 6.57207113102715 ], [ -75.200411700789644, 6.572229317074353 ], [ -75.200377845178338, 6.572245874412345 ], [ -75.200333757459177, 6.572283347998527 ] ], [ [ -75.200356180129546, 6.572085780997962 ], [ -75.200297543720353, 6.571982605031613 ], [ -75.200302330355044, 6.571979999813661 ], [ -75.200271308437792, 6.571928716576142 ], [ -75.200199779038698, 6.571970405589725 ], [ -75.200227262156105, 6.572022027237313 ], [ -75.200228054956014, 6.572023495930558 ], [ -75.200237469976415, 6.572041408959952 ], [ -75.200223862212312, 6.572050447797384 ], [ -75.200298413382939, 6.572179772368044 ], [ -75.200331730487534, 6.572160950728294 ], [ -75.200338182335614, 6.57215733130628 ], [ -75.200312824919138, 6.57210859775772 ], [ -75.200356180129546, 6.572085780997962 ] ], [ [ -75.200355842900876, 6.571948644091463 ], [ -75.200419045339203, 6.572058052758783 ], [ -75.200461772829243, 6.572034474887474 ], [ -75.200396679013863, 6.571924594354129 ], [ -75.200355842900876, 6.571948644091463 ] ] ] } },
{ "type": "Feature", "properties": { "DPTO": null, "MPIO": null, "CORREG": null, "BARRIO": null, "VEREDA": null, "PREDIO": null, "CODCATAS": null, "MATRICULA": null, "PROP": null, "Shape_Leng": null, "SHAPE_AREA": null, "fuente": "AFECTACION_2.shp", "Id": 0.0 }, "geometry": { "type": "Polygon", "coordinates": [ [ [ -75.200096289179612, 6.571206099327284 ], [ -75.199951700396966, 6.570579396744749 ], [ -75.200327634041685, 6.570335957340787 ], [ -75.200489592357201, 6.571077827740563 ], [ -75.200406665413198, 6.571101325473466 ], [ -75.200323256830131, 6.571110816453479 ], [ -75.200218367061453, 6.571139592619774 ], [ -75.200161202773373, 6.571181270548882 ], [ -75.200096289179612, 6.571206099327284 ] ] ] } }
]
}
