{
  "type": "FeatureCollection",
  "name": "Afectaciones_unificadas",
  "source_crs": "MAGNA-SIRGAS 2018 / Origen-Nacional",
  "output_crs": "WGS 84 (CRS84)",
  "features": [
    {
      "type": "Feature",
      "properties": {
        "source_layer": "AFECTACION_1_261",
        "source_record": 1,
        "source_crs": "MAGNA-SIRGAS 2018 / Origen-Nacional",
        "codmun": "05861",
        "sector": "R",
        "terreno_co": "058610002000000020261000000000",
        "dimension": 0,
        "etiqueta": "261",
        "relacion_s": 0,
        "espacio_de": null,
        "local_id": "8610002000000020261",
        "created_us": "MANDATO_ACTUALIZACION",
        "created_da": "20260304",
        "last_edite": "MANDATO_ACTUALIZACION",
        "last_edi_1": "20260304",
        "globalid": "{16CB9B53-E851-498C-81DB-2F2F7F05182D}",
        "Shape_Leng": 86.0440612256,
        "Shape_Area": 0.0178068179305,
        "TIPO_AREA": "INTERVENIR"
      },
      "geometry": {
        "type": "Polygon",
        "coordinates": [
          [
            [
              -75.75026835,
              5.9615243
            ],
            [
              -75.7502384,
              5.9615345
            ],
            [
              -75.75025627,
              5.96155203
            ],
            [
              -75.7502853,
              5.96158366
            ],
            [
              -75.75028877,
              5.9615912
            ],
            [
              -75.75035652,
              5.96159123
            ],
            [
              -75.75060528,
              5.96159134
            ],
            [
              -75.75059283,
              5.9615864
            ],
            [
              -75.75047637,
              5.96156424
            ],
            [
              -75.75045479,
              5.96155783
            ],
            [
              -75.75040929,
              5.96154432
            ],
            [
              -75.75038406,
              5.96153274
            ],
            [
              -75.7503787,
              5.96153028
            ],
            [
              -75.75036575,
              5.96152434
            ],
            [
              -75.75036199,
              5.96152262
            ],
            [
              -75.75032687,
              5.9615111
            ],
            [
              -75.75029879,
              5.96151028
            ],
            [
              -75.75026835,
              5.9615243
            ]
          ]
        ]
      }
    },
    {
      "type": "Feature",
      "properties": {
        "source_layer": "AFECTACION_2_094",
        "source_record": 1,
        "source_crs": "MAGNA-SIRGAS 2018 / Origen-Nacional",
        "codmun": "05861",
        "sector": "R",
        "terreno_co": "058610001000000010094000000000",
        "dimension": 0,
        "etiqueta": "94",
        "relacion_s": 0,
        "espacio_de": null,
        "local_id": "8610001000000010094",
        "created_us": "MANDATO_ACTUALIZACION",
        "created_da": "20260304",
        "last_edite": "MANDATO_ACTUALIZACION",
        "last_edi_1": "20260304",
        "globalid": "{95DB5995-6072-458D-BB11-E6556DBA6E31}",
        "Shape_Leng": 76.3656519187,
        "Shape_Area": 48.1098381831,
        "TIPO_AREA": "INTERVENIR"
      },
      "geometry": {
        "type": "Polygon",
        "coordinates": [
          [
            [
              -75.75008458,
              5.96158352
            ],
            [
              -75.75008058,
              5.96158373
            ],
            [
              -75.7500144,
              5.96158726
            ],
            [
              -75.74995111,
              5.9615856
            ],
            [
              -75.74989352,
              5.96158186
            ],
            [
              -75.74990306,
              5.96159102
            ],
            [
              -75.75018092,
              5.96159115
            ],
            [
              -75.75022218,
              5.96159117
            ],
            [
              -75.75021886,
              5.96158619
            ],
            [
              -75.75021856,
              5.96158574
            ],
            [
              -75.75021741,
              5.96158402
            ],
            [
              -75.75021674,
              5.96158303
            ],
            [
              -75.75021608,
              5.96158203
            ],
            [
              -75.75021493,
              5.96158032
            ],
            [
              -75.75021463,
              5.96157986
            ],
            [
              -75.75021391,
              5.96157879
            ],
            [
              -75.75020497,
              5.96156342
            ],
            [
              -75.75019747,
              5.96155054
            ],
            [
              -75.75017843,
              5.96155766
            ],
            [
              -75.75015653,
              5.96156585
            ],
            [
              -75.75011274,
              5.96158091
            ],
            [
              -75.75009667,
              5.96158288
            ],
            [
              -75.75008458,
              5.96158352
            ]
          ]
        ]
      }
    },
    {
      "type": "Feature",
      "properties": {
        "source_layer": "AFECTACION_3_084",
        "source_record": 1,
        "source_crs": "MAGNA-SIRGAS 2018 / Origen-Nacional",
        "codmun": "05861",
        "sector": "R",
        "terreno_co": "058610001000000010084000000000",
        "dimension": 0,
        "etiqueta": "84",
        "relacion_s": 0,
        "espacio_de": null,
        "local_id": "8610001000000010084",
        "created_us": "MANDATO_ACTUALIZACION",
        "created_da": "20260304",
        "last_edite": "MANDATO_ACTUALIZACION",
        "last_edi_1": "20260304",
        "globalid": "{6BB55054-71B1-4179-9881-30BBF6C0827A}",
        "Shape_Leng": 59.9039107248,
        "Shape_Area": 54.555222128,
        "TIPO_AREA": "INTERVENIR"
      },
      "geometry": {
        "type": "Polygon",
        "coordinates": [
          [
            [
              -75.74988032,
              5.96152191
            ],
            [
              -75.74988259,
              5.96154072
            ],
            [
              -75.74993208,
              5.96154529
            ],
            [
              -75.74998832,
              5.96154543
            ],
            [
              -75.75006215,
              5.96154311
            ],
            [
              -75.75012218,
              5.96153075
            ],
            [
              -75.75014092,
              5.96152424
            ],
            [
              -75.74990834,
              5.96152414
            ],
            [
              -75.74990723,
              5.96152414
            ],
            [
              -75.74990527,
              5.96152415
            ],
            [
              -75.74989297,
              5.96152446
            ],
            [
              -75.74988863,
              5.96152429
            ],
            [
              -75.74988438,
              5.96152344
            ],
            [
              -75.74988032,
              5.96152191
            ]
          ]
        ]
      }
    },
    {
      "type": "Feature",
      "properties": {
        "source_layer": "AFECTACION_4_066",
        "source_record": 1,
        "source_crs": "MAGNA-SIRGAS 2018 / Origen-Nacional",
        "codmun": "05861",
        "sector": "R",
        "terreno_co": "058610001000000010066000000000",
        "dimension": 0,
        "etiqueta": "66",
        "relacion_s": 0,
        "espacio_de": null,
        "local_id": "8610001000000010066",
        "created_us": "MANDATO_ACTUALIZACION",
        "created_da": "20260304",
        "last_edite": "MANDATO_ACTUALIZACION",
        "last_edi_1": "20260304",
        "globalid": "{EF21511F-1B70-4C1B-9811-3EF58CD10110}",
        "Shape_Leng": 38.7278000508,
        "Shape_Area": 17.6699079505,
        "TIPO_AREA": "INTERVENIR"
      },
      "geometry": {
        "type": "Polygon",
        "coordinates": [
          [
            [
              -75.74983995,
              5.96157839
            ],
            [
              -75.74979369,
              5.96158195
            ],
            [
              -75.74975369,
              5.96159398
            ],
            [
              -75.74973309,
              5.96160453
            ],
            [
              -75.74977343,
              5.96159438
            ],
            [
              -75.7498149,
              5.96159098
            ],
            [
              -75.74985098,
              5.961591
            ],
            [
              -75.74990306,
              5.96159102
            ],
            [
              -75.74989352,
              5.96158186
            ],
            [
              -75.74983995,
              5.96157839
            ]
          ]
        ]
      }
    }
  ]
}
