{
  "type": "FeatureCollection",
  "features": [
    {
      "type": "Feature",
      "geometry": {
        "type": "Point",
        "coordinates": [
          -75.2006,
          6.5701
        ]
      },
      "properties": {
        "Proyecto": "Puente Gabino",
        "Resolucion": "Resolucion otorgamiento POC Gavino",
        "Uso": "Ocupación de cauce",
        "Documento_permiso": "/data/01 Puente gavino/Resolucion otorgamiento POC Gavino.pdf"
      }
    },
    {
      "type": "Feature",
      "geometry": {
        "type": "Point",
        "coordinates": [
          -75.7495,
          5.9617
        ]
      },
      "properties": {
        "Proyecto": "Mi Casita Venecia",
        "Resolucion": "Res otorgamiento POC Mi Casita",
        "Uso": "Ocupación de cauce",
        "Documento_permiso": "/data/01 Puente gavino/Res otorgamiento POC Mi Casita.pdf"
      }
    }
  ]
}