{
  "type": "FeatureCollection",
  "name": "poligonos_acceso_wgs84",
  "crs": {
    "type": "name",
    "properties": {
      "name": "urn:ogc:def:crs:OGC:1.3:CRS84"
    }
  },
  "features": [
    {
      "type": "Feature",
      "properties": {
        "nombre": "Poligono 1 - acceso",
        "area_origen_m2": 2884.559,
        "perimetro_origen_m": 461.838,
        "crs_origen_asumido": "EPSG:3116"
      },
      "geometry": {
        "type": "Polygon",
        "coordinates": [
          [
            [
              -75.20026525,
              6.57077384
            ],
            [
              -75.20023167,
              6.57059079
            ],
            [
              -75.20023049,
              6.57058366
            ],
            [
              -75.20022953,
              6.57057649
            ],
            [
              -75.20022881,
              6.5705693
            ],
            [
              -75.20022833,
              6.57056209
            ],
            [
              -75.20022808,
              6.57055487
            ],
            [
              -75.20022806,
              6.57054764
            ],
            [
              -75.20022828,
              6.57054042
            ],
            [
              -75.20022874,
              6.57053321
            ],
            [
              -75.20022943,
              6.57052601
            ],
            [
              -75.20023036,
              6.57051885
            ],
            [
              -75.20023152,
              6.57051171
            ],
            [
              -75.20023291,
              6.57050462
            ],
            [
              -75.20023454,
              6.57049758
            ],
            [
              -75.20023639,
              6.57049059
            ],
            [
              -75.20023847,
              6.57048367
            ],
            [
              -75.20023959,
              6.57048203
            ],
            [
              -75.20024077,
              6.57048041
            ],
            [
              -75.20024199,
              6.57047884
            ],
            [
              -75.20024327,
              6.57047731
            ],
            [
              -75.2002446,
              6.57047582
            ],
            [
              -75.20024597,
              6.57047438
            ],
            [
              -75.2002474,
              6.57047298
            ],
            [
              -75.20024886,
              6.57047163
            ],
            [
              -75.20025037,
              6.57047033
            ],
            [
              -75.20025192,
              6.57046907
            ],
            [
              -75.20025351,
              6.57046787
            ],
            [
              -75.20025514,
              6.57046672
            ],
            [
              -75.20037774,
              6.57038311
            ],
            [
              -75.20037162,
              6.57037415
            ],
            [
              -75.20037274,
              6.57037338
            ],
            [
              -75.20038913,
              6.57036188
            ],
            [
              -75.20040519,
              6.57034993
            ],
            [
              -75.20042091,
              6.57033754
            ],
            [
              -75.20043627,
              6.5703247
            ],
            [
              -75.20045127,
              6.57031145
            ],
            [
              -75.20064392,
              6.5701366
            ],
            [
              -75.20065892,
              6.57012334
            ],
            [
              -75.20067429,
              6.57011051
            ],
            [
              -75.20069001,
              6.57009812
            ],
            [
              -75.20070607,
              6.57008616
            ],
            [
              -75.20072246,
              6.57007467
            ],
            [
              -75.20082537,
              6.57000447
            ],
            [
              -75.20078971,
              6.56995219
            ],
            [
              -75.20068485,
              6.57002372
            ],
            [
              -75.20066851,
              6.57003453
            ],
            [
              -75.2006519,
              6.5700449
            ],
            [
              -75.200635,
              6.57005482
            ],
            [
              -75.20061785,
              6.57006428
            ],
            [
              -75.20053974,
              6.57010597
            ],
            [
              -75.20052259,
              6.57011543
            ],
            [
              -75.2005057,
              6.57012535
            ],
            [
              -75.20048908,
              6.57013572
            ],
            [
              -75.20047274,
              6.57014653
            ],
            [
              -75.19947778,
              6.57082512
            ],
            [
              -75.19945759,
              6.57083942
            ],
            [
              -75.1994379,
              6.57085439
            ],
            [
              -75.19941873,
              6.57087002
            ],
            [
              -75.1994001,
              6.5708863
            ],
            [
              -75.19937356,
              6.5709103
            ],
            [
              -75.19935575,
              6.57092585
            ],
            [
              -75.19933742,
              6.5709408
            ],
            [
              -75.1993186,
              6.57095511
            ],
            [
              -75.19929929,
              6.57096877
            ],
            [
              -75.19929916,
              6.57096887
            ],
            [
              -75.19933481,
              6.57102115
            ],
            [
              -75.19952825,
              6.5708892
            ],
            [
              -75.19954411,
              6.57087869
            ],
            [
              -75.19956025,
              6.57086863
            ],
            [
              -75.19957667,
              6.57085903
            ],
            [
              -75.19976571,
              6.57076955
            ],
            [
              -75.19978254,
              6.57076281
            ],
            [
              -75.19979913,
              6.57075552
            ],
            [
              -75.19981547,
              6.57074767
            ],
            [
              -75.19983153,
              6.57073927
            ],
            [
              -75.1998473,
              6.57073034
            ],
            [
              -75.19986276,
              6.57072088
            ],
            [
              -75.19987789,
              6.57071091
            ],
            [
              -75.199884,
              6.57071986
            ],
            [
              -75.19999292,
              6.57064558
            ],
            [
              -75.19999468,
              6.57064442
            ],
            [
              -75.19999648,
              6.57064332
            ],
            [
              -75.19999832,
              6.57064229
            ],
            [
              -75.20000019,
              6.57064132
            ],
            [
              -75.20000209,
              6.57064042
            ],
            [
              -75.20000403,
              6.57063958
            ],
            [
              -75.20000599,
              6.5706388
            ],
            [
              -75.20000797,
              6.5706381
            ],
            [
              -75.20000998,
              6.57063746
            ],
            [
              -75.20001201,
              6.57063689
            ],
            [
              -75.20001406,
              6.5706364
            ],
            [
              -75.20001613,
              6.57063597
            ],
            [
              -75.2000182,
              6.57063561
            ],
            [
              -75.20002029,
              6.57063533
            ],
            [
              -75.20002239,
              6.57063511
            ],
            [
              -75.20002838,
              6.57063629
            ],
            [
              -75.20003433,
              6.57063767
            ],
            [
              -75.20004022,
              6.57063926
            ],
            [
              -75.20004606,
              6.57064105
            ],
            [
              -75.20005183,
              6.57064305
            ],
            [
              -75.20005753,
              6.57064524
            ],
            [
              -75.20006315,
              6.57064763
            ],
            [
              -75.20006868,
              6.57065021
            ],
            [
              -75.20007412,
              6.57065298
            ],
            [
              -75.20007946,
              6.57065594
            ],
            [
              -75.20008469,
              6.57065908
            ],
            [
              -75.20008982,
              6.57066241
            ],
            [
              -75.20009482,
              6.5706659
            ],
            [
              -75.2000997,
              6.57066957
            ],
            [
              -75.20010445,
              6.57067341
            ],
            [
              -75.20010907,
              6.57067741
            ],
            [
              -75.20011354,
              6.57068156
            ],
            [
              -75.20011787,
              6.57068587
            ],
            [
              -75.20012204,
              6.57069033
            ],
            [
              -75.20012606,
              6.57069493
            ],
            [
              -75.20012992,
              6.57069966
            ],
            [
              -75.20013361,
              6.57070453
            ],
            [
              -75.20013712,
              6.57070952
            ],
            [
              -75.20014047,
              6.57071462
            ],
            [
              -75.20014363,
              6.57071985
            ],
            [
              -75.20014661,
              6.57072518
            ],
            [
              -75.20014941,
              6.5707306
            ],
            [
              -75.20015201,
              6.57073613
            ],
            [
              -75.20015443,
              6.57074174
            ],
            [
              -75.20015664,
              6.57074742
            ],
            [
              -75.20015866,
              6.57075319
            ],
            [
              -75.20016048,
              6.57075902
            ],
            [
              -75.20016209,
              6.57076491
            ],
            [
              -75.2001635,
              6.57077085
            ],
            [
              -75.2001647,
              6.57077683
            ],
            [
              -75.20016745,
              6.57079178
            ],
            [
              -75.20017011,
              6.5707913
            ],
            [
              -75.20017452,
              6.5708153
            ],
            [
              -75.200267,
              6.57079834
            ],
            [
              -75.20026259,
              6.57077433
            ],
            [
              -75.20026525,
              6.57077384
            ]
          ]
        ]
      }
    },
    {
      "type": "Feature",
      "properties": {
        "nombre": "Poligono 2 - acceso",
        "area_origen_m2": 2763.399,
        "perimetro_origen_m": 489.567,
        "crs_origen_asumido": "EPSG:3116"
      },
      "geometry": {
        "type": "Polygon",
        "coordinates": [
          [
            [
              -75.20040059,
              6.57206265
            ],
            [
              -75.20040184,
              6.57207018
            ],
            [
              -75.20040283,
              6.57207775
            ],
            [
              -75.20040356,
              6.57208536
            ],
            [
              -75.20040403,
              6.57209298
            ],
            [
              -75.20040423,
              6.57210061
            ],
            [
              -75.20040417,
              6.57210825
            ],
            [
              -75.20040385,
              6.57211588
            ],
            [
              -75.20040326,
              6.57212349
            ],
            [
              -75.20040241,
              6.57213108
            ],
            [
              -75.2004013,
              6.57213864
            ],
            [
              -75.20039994,
              6.57214615
            ],
            [
              -75.20039831,
              6.57215361
            ],
            [
              -75.20039642,
              6.57216101
            ],
            [
              -75.20039428,
              6.57216834
            ],
            [
              -75.20039189,
              6.5721756
            ],
            [
              -75.20038925,
              6.57218276
            ],
            [
              -75.20038637,
              6.57218983
            ],
            [
              -75.20038324,
              6.5721968
            ],
            [
              -75.20037988,
              6.57220366
            ],
            [
              -75.20037628,
              6.57221039
            ],
            [
              -75.20037245,
              6.572217
            ],
            [
              -75.20036839,
              6.57222347
            ],
            [
              -75.20036412,
              6.5722298
            ],
            [
              -75.20035962,
              6.57223597
            ],
            [
              -75.20035492,
              6.57224199
            ],
            [
              -75.20035001,
              6.57224784
            ],
            [
              -75.20034491,
              6.57225352
            ],
            [
              -75.20033961,
              6.57225902
            ],
            [
              -75.20033412,
              6.57226433
            ],
            [
              -75.20032846,
              6.57226945
            ],
            [
              -75.20032262,
              6.57227437
            ],
            [
              -75.20031661,
              6.57227909
            ],
            [
              -75.20031045,
              6.5722836
            ],
            [
              -75.20030413,
              6.57228789
            ],
            [
              -75.20031219,
              6.57230019
            ],
            [
              -75.2002666,
              6.57232543
            ],
            [
              -75.20022188,
              6.57235219
            ],
            [
              -75.20017809,
              6.57238043
            ],
            [
              -75.20013527,
              6.57241012
            ],
            [
              -75.20009346,
              6.57244123
            ],
            [
              -75.20005273,
              6.57247373
            ],
            [
              -75.20001311,
              6.57250757
            ],
            [
              -75.19997464,
              6.57254273
            ],
            [
              -75.19993738,
              6.57257915
            ],
            [
              -75.19990136,
              6.57261681
            ],
            [
              -75.19986662,
              6.57265565
            ],
            [
              -75.19983321,
              6.57269564
            ],
            [
              -75.19972825,
              6.57284181
            ],
            [
              -75.19977806,
              6.57287137
            ],
            [
              -75.19979074,
              6.57285197
            ],
            [
              -75.19980407,
              6.57283301
            ],
            [
              -75.19981802,
              6.57281451
            ],
            [
              -75.19983259,
              6.57279648
            ],
            [
              -75.19984776,
              6.57277895
            ],
            [
              -75.1998635,
              6.57276195
            ],
            [
              -75.19987981,
              6.57274548
            ],
            [
              -75.19989666,
              6.57272956
            ],
            [
              -75.19991403,
              6.57271422
            ],
            [
              -75.19993191,
              6.57269947
            ],
            [
              -75.19995028,
              6.57268533
            ],
            [
              -75.1999691,
              6.57267182
            ],
            [
              -75.19998645,
              6.57265941
            ],
            [
              -75.20000345,
              6.57264652
            ],
            [
              -75.20002008,
              6.57263316
            ],
            [
              -75.20003633,
              6.57261934
            ],
            [
              -75.20005218,
              6.57260507
            ],
            [
              -75.20006516,
              6.57259319
            ],
            [
              -75.20007828,
              6.57258147
            ],
            [
              -75.200112,
              6.5725526
            ],
            [
              -75.2001466,
              6.57252479
            ],
            [
              -75.20018204,
              6.57249806
            ],
            [
              -75.2002183,
              6.57247244
            ],
            [
              -75.20025533,
              6.57244796
            ],
            [
              -75.2002931,
              6.57242464
            ],
            [
              -75.20033157,
              6.57240249
            ],
            [
              -75.20037071,
              6.57238155
            ],
            [
              -75.20082988,
              6.57214461
            ],
            [
              -75.20085229,
              6.57213258
            ],
            [
              -75.20087431,
              6.57211985
            ],
            [
              -75.20089591,
              6.57210642
            ],
            [
              -75.20091707,
              6.57209231
            ],
            [
              -75.20093776,
              6.57207752
            ],
            [
              -75.20095798,
              6.57206208
            ],
            [
              -75.20112056,
              6.57193377
            ],
            [
              -75.20113972,
              6.57191811
            ],
            [
              -75.20115837,
              6.57190183
            ],
            [
              -75.20117647,
              6.57188496
            ],
            [
              -75.20119401,
              6.5718675
            ],
            [
              -75.20121098,
              6.57184949
            ],
            [
              -75.20122735,
              6.57183093
            ],
            [
              -75.20124311,
              6.57181185
            ],
            [
              -75.2012519,
              6.57180083
            ],
            [
              -75.20126634,
              6.57178335
            ],
            [
              -75.20128134,
              6.57176634
            ],
            [
              -75.20129688,
              6.57174984
            ],
            [
              -75.20131296,
              6.57173384
            ],
            [
              -75.20132954,
              6.57171838
            ],
            [
              -75.20134662,
              6.57170347
            ],
            [
              -75.20136418,
              6.57168912
            ],
            [
              -75.20132861,
              6.57164406
            ],
            [
              -75.20089693,
              6.57198473
            ],
            [
              -75.20087922,
              6.57199826
            ],
            [
              -75.20086108,
              6.57201121
            ],
            [
              -75.20084254,
              6.57202358
            ],
            [
              -75.20082362,
              6.57203534
            ],
            [
              -75.20080433,
              6.5720465
            ],
            [
              -75.20078469,
              6.57205703
            ],
            [
              -75.20072906,
              6.57208574
            ],
            [
              -75.20072263,
              6.57207329
            ],
            [
              -75.20071724,
              6.57207596
            ],
            [
              -75.20071175,
              6.57207844
            ],
            [
              -75.20070618,
              6.57208073
            ],
            [
              -75.20070054,
              6.57208284
            ],
            [
              -75.20069483,
              6.57208474
            ],
            [
              -75.20068906,
              6.57208646
            ],
            [
              -75.20068323,
              6.57208797
            ],
            [
              -75.20067736,
              6.57208928
            ],
            [
              -75.20067144,
              6.57209039
            ],
            [
              -75.20066549,
              6.5720913
            ],
            [
              -75.20065951,
              6.57209201
            ],
            [
              -75.20065351,
              6.57209251
            ],
            [
              -75.2006475,
              6.5720928
            ],
            [
              -75.20064148,
              6.57209289
            ],
            [
              -75.20063546,
              6.57209277
            ],
            [
              -75.20062945,
              6.57209245
            ],
            [
              -75.20062345,
              6.57209192
            ],
            [
              -75.20061748,
              6.57209119
            ],
            [
              -75.20061153,
              6.57209025
            ],
            [
              -75.20060562,
              6.57208911
            ],
            [
              -75.20059975,
              6.57208777
            ],
            [
              -75.20059393,
              6.57208623
            ],
            [
              -75.20058817,
              6.57208449
            ],
            [
              -75.20058247,
              6.57208255
            ],
            [
              -75.20057683,
              6.57208042
            ],
            [
              -75.20057128,
              6.5720781
            ],
            [
              -75.20056662,
              6.57207597
            ],
            [
              -75.20056204,
              6.57207367
            ],
            [
              -75.20055754,
              6.57207121
            ],
            [
              -75.20055312,
              6.57206861
            ],
            [
              -75.2005488,
              6.57206585
            ],
            [
              -75.20054458,
              6.57206295
            ],
            [
              -75.20054045,
              6.5720599
            ],
            [
              -75.20053644,
              6.57205672
            ],
            [
              -75.20053253,
              6.57205339
            ],
            [
              -75.20052875,
              6.57204994
            ],
            [
              -75.20052508,
              6.57204636
            ],
            [
              -75.20052154,
              6.57204265
            ],
            [
              -75.20051813,
              6.57203883
            ],
            [
              -75.20051485,
              6.57203489
            ],
            [
              -75.2005117,
              6.57203084
            ],
            [
              -75.2005087,
              6.57202668
            ],
            [
              -75.20050585,
              6.57202242
            ],
            [
              -75.20050314,
              6.57201807
            ],
            [
              -75.20050058,
              6.57201363
            ],
            [
              -75.20049818,
              6.5720091
            ],
            [
              -75.20049593,
              6.57200449
            ],
            [
              -75.20049384,
              6.57199981
            ],
            [
              -75.20049192,
              6.57199506
            ],
            [
              -75.20048939,
              6.57199603
            ],
            [
              -75.20048767,
              6.57199135
            ],
            [
              -75.20048611,
              6.57198661
            ],
            [
              -75.20048471,
              6.57198182
            ],
            [
              -75.20048346,
              6.57197699
            ],
            [
              -75.20048237,
              6.57197212
            ],
            [
              -75.20038985,
              6.5719891
            ],
            [
              -75.20039426,
              6.5720131
            ],
            [
              -75.20039159,
              6.57201359
            ],
            [
              -75.20040059,
              6.57206265
            ]
          ]
        ]
      }
    }
  ]
}