{
  "type": "FeatureCollection",
  "features": [
    {
      "type": "Feature",
      "properties": {
        "Shape_Leng": 0,
        "DPTO": "005 - ANTIOQUIA",
        "MPIO": "686 - SANTA ROSA DE OSOS",
        "CORREG": "004 - SAN PABLO",
        "BARRIO": "000 -",
        "VEREDA": "0002 - LA CLARA",
        "PREDIO": "00028",
        "CODCATAS": "6862004000000200028",
        "MATRICULA": "025-26288",
        "PROP": "MARIA EUGENIA MARTINEZ",
        "SHAPE_AREA": 2779.42744633
      },
      "geometry": {
        "type": "Polygon",
        "coordinates": [
          [
            [
              -75.20033375745918,
              6.572283347998527
            ],
            [
              -75.2000007219904,
              6.571783646731031
            ],
            [
              -75.2003548781944,
              6.571635848936229
            ],
            [
              -75.20048994036826,
              6.571579561679361
            ],
            [
              -75.20055907503114,
              6.571982706824647
            ],
            [
              -75.20073767905495,
              6.57207113102715
            ],
            [
              -75.20041170078964,
              6.572229317074353
            ],
            [
              -75.20037784517834,
              6.572245874412344
            ],
            [
              -75.20033375745918,
              6.572283347998527
            ]
          ]
        ]
      }
    },
    {
      "type": "Feature",
      "properties": {
        "OBJECTID_1": 315502,
        "AVALUO_TER": 0,
        "AVALUO_COM": 0,
        "TERRENO_CO": "058610001000000010094000000000",
        "DIMENSION": 0,
        "ETIQUETA": "00094",
        "RELACION_S": 0,
        "ESPACIO_DE": "N",
        "LOCAL_ID": "8612001000000100094",
        "CREATED_US": "GISANT",
        "CREATED_DA": "2024-02-29",
        "LAST_EDITE": "GISANT",
        "LAST_EDI_1": "2024-02-29",
        "GLOBALID": "{29ED9F71-154C-40C9-893A-B2E650773906}",
        "MUNICIPIO": "861",
        "LLAVE_GLOB": "M861{FF61CB26-7F4A-5A4A-E053-E0C8000A951B}",
        "SHAPE_AREA": 373.680937199,
        "SHAPE_LEN": 104.523073402,
        "DPTO": "005 - ANTIOQUIA",
        "MPIO": "861 - VENECIA",
        "PROP": "MIGUEL ZAPATA",
        "CODCATAS": "8612001000000100094",
        "MAT_INMOBILIARIA": "010-2244"
      },
      "geometry": {
        "type": "MultiPolygon",
        "coordinates": [
          [
            [
              [
                -75.75018157989561,
                5.961782135112669
              ],
              [
                -75.74987285883222,
                5.961594460254766
              ],
              [
                -75.75017017337078,
                5.961574737581986
              ],
              [
                -75.75026762007535,
                5.961732457979959
              ],
              [
                -75.75018157989561,
                5.961782135112669
              ]
            ]
          ]
        ]
      }
    },
    {
      "type": "Feature",
      "properties": {
        "Id": 0,
        "area": 496.463692886,
        "DPTO": "005 - ANTIOQUIA",
        "MPIO": "861 - VENECIA",
        "PROP": "BLANCA PAULINA DIAZ E.",
        "CODCATAS": "8612001000000100066",
        "MAT_INMOBILIARIA": "010-14909",
        "SHAPE_AREA": 496.463692886
      },
      "geometry": {
        "type": "MultiPolygon",
        "coordinates": [
          [
            [
              [
                -75.74951477519521,
                5.96179810674676
              ],
              [
                -75.74952722847176,
                5.961788202175391
              ],
              [
                -75.7495369481348,
                5.961780471752034
              ],
              [
                -75.74961970433806,
                5.961710064098431
              ],
              [
                -75.74968245340878,
                5.961650245121501
              ],
              [
                -75.74972381071001,
                5.961613044528665
              ],
              [
                -75.74975582912882,
                5.961597118485623
              ],
              [
                -75.74981579023299,
                5.961590596983125
              ],
              [
                -75.74987285883223,
                5.961594460254799
              ],
              [
                -75.74995285219285,
                5.961643089115246
              ],
              [
                -75.75006296304403,
                5.961710026695322
              ],
              [
                -75.74985984531071,
                5.961709934690097
              ],
              [
                -75.74985076754345,
                5.961709930576415
              ],
              [
                -75.74981468740812,
                5.96170991422489
              ],
              [
                -75.74978058261551,
                5.961712208285112
              ],
              [
                -75.7497608610164,
                5.961716255190065
              ],
              [
                -75.74974709698883,
                5.961719079591036
              ],
              [
                -75.74971484050465,
                5.961730402974814
              ],
              [
                -75.74969237855677,
                5.961741891715198
              ],
              [
                -75.74968440074966,
                5.96174597216933
              ],
              [
                -75.74951477519521,
                5.96179810674676
              ]
            ]
          ]
        ]
      }
    },
    {
      "type": "Feature",
      "properties": {
        "DPTO": "005 - ANTIOQUIA",
        "MPIO": "642 - SALGAR",
        "PROP": "MARIA CAMILA MESA VELEZ",
        "CODCATAS": "6422004000000800039",
        "MAT_INMOBILIARIA": "005-27111",
        "CORREGIMIENTO": "004 - LA CAMARA",
        "VEREDA": "0008 - EL LEON",
        "PREDIO": "0039",
        "LOCAL_ID": "6422004000000800039",
        "AREA_REQUERIDA": "61713,94 m²"
      },
      "geometry": {
        "type": "Polygon",
        "coordinates": [
          [
            [
              -75.95606461203036,
              6.045113790514328
            ],
            [
              -75.95544024439864,
              6.044855084981293
            ],
            [
              -75.954391601835,
              6.044607724969206
            ],
            [
              -75.95346032566822,
              6.0443597241659806
            ],
            [
              -75.95452408056327,
              6.044064719044023
            ],
            [
              -75.95436024890532,
              6.043821581954398
            ],
            [
              -75.95452275587729,
              6.043820697928405
            ],
            [
              -75.95485341246781,
              6.043195271271615
            ],
            [
              -75.95528534067839,
              6.042930817030508
            ],
            [
              -75.95559028562785,
              6.042558596645386
            ],
            [
              -75.95601490233639,
              6.042610514617814
            ],
            [
              -75.95617058919537,
              6.043016380674189
            ],
            [
              -75.9558853697697,
              6.043695788520481
            ],
            [
              -75.9560047482754,
              6.044065699832385
            ],
            [
              -75.95712860986885,
              6.0448639692456485
            ],
            [
              -75.95741093879037,
              6.0453143347917795
            ],
            [
              -75.95783506597431,
              6.045275872283888
            ],
            [
              -75.9580247556108,
              6.045292915035952
            ],
            [
              -75.95853891836012,
              6.045208771233584
            ],
            [
              -75.9591535699485,
              6.045340992551846
            ],
            [
              -75.95948997109609,
              6.045772985269508
            ],
            [
              -75.95862282545913,
              6.045696368890278
            ],
            [
              -75.95726899330805,
              6.04577604915555
            ],
            [
              -75.95669800813936,
              6.045372445873647
            ],
            [
              -75.95606461203036,
              6.045113790514328
            ]
          ]
        ]
      }
    },
    {
      "type": "Feature",
      "properties": {
        "DPTO": "005 - ANTIOQUIA",
        "MPIO": "364 - JARDIN",
        "PROP": "NORELA ZAPATA GOMEZ",
        "CODCATAS": "36420010000001100112",
        "MAT_INMOBILIARIA": "004-12937",
        "NOMBRE_PROYECTO": "JARDIN PUENTE EL VERDUN",
        "SUBREGION": "SUROESTE",
        "AREA": "44,96 m²"
      },
      "geometry": {
        "type": "Polygon",
        "coordinates": [
          [
            [
              -75.85107078115789,
              5.592742232389682
            ],
            [
              -75.8510879927977,
              5.592570407526147
            ],
            [
              -75.851106167762,
              5.592597436174055
            ],
            [
              -75.85109758383867,
              5.592687868002306
            ],
            [
              -75.85107078115789,
              5.592742232389682
            ]
          ]
        ]
      }
    },
    {
      "type": "Feature",
      "properties": {
        "DPTO": "005 - ANTIOQUIA",
        "MPIO": "364 - JARDIN",
        "PROP": "CRUZ ELISA MARIN AGUDELO",
        "CODCATAS": "36420010000001100142",
        "MAT_INMOBILIARIA": "004-7628",
        "NOMBRE_PROYECTO": "JARDIN PUENTE EL VERDUN",
        "SUBREGION": "SUROESTE",
        "AREA": "301,42 m²"
      },
      "geometry": {
        "type": "Polygon",
        "coordinates": [
          [
            [
              -75.85108010948159,
              5.592805460090431
            ],
            [
              -75.85107078115789,
              5.592742232389682
            ],
            [
              -75.851106167762,
              5.592597436174055
            ],
            [
              -75.85121477968838,
              5.59266922008258
            ],
            [
              -75.85119734914569,
              5.592795850957028
            ],
            [
              -75.85117045889565,
              5.592832137756231
            ],
            [
              -75.8511253498729,
              5.592832357118921
            ],
            [
              -75.85108010948159,
              5.592805460090431
            ]
          ]
        ]
      }
    },
    {
      "type": "Feature",
      "properties": {
        "DPTO": "005 - ANTIOQUIA",
        "MPIO": "364 - JARDIN",
        "PROP": "ARALI PALACIO MACHADO",
        "CODCATAS": "36420010000001000104",
        "MAT_INMOBILIARIA": "004-14015",
        "NOMBRE_PROYECTO": "JARDIN PUENTE EL VERDUN",
        "SUBREGION": "SUROESTE",
        "AREA": "460,15 m²"
      },
      "geometry": {
        "type": "Polygon",
        "coordinates": [
          [
            [
              -75.85110546716996,
              5.592452815441331
            ],
            [
              -75.85111374460777,
              5.592299112044161
            ],
            [
              -75.85119467805652,
              5.592244484456939
            ],
            [
              -75.85127644345245,
              5.592361593962087
            ],
            [
              -75.85125927563514,
              5.59254245759563
            ],
            [
              -75.85110546716996,
              5.592452815441331
            ]
          ]
        ]
      }
    },
    {
      "type": "Feature",
      "properties": {
        "DPTO": "005 - ANTIOQUIA",
        "MPIO": "847 - URRAO",
        "PROP": "PJDC S.A.S Y OTROS",
        "CODCATAS": "84720010000002200011",
        "MAT_INMOBILIARIA": "035-5624",
        "AREA": "4074.65 m²",
        "NOMBRE_PROYECTO": "PUENTE EL VOLCAN URRAO",
        "SUBREGION": "SUROESTE"
      },
      "geometry": {
        "type": "Polygon",
        "coordinates": [
          [
            [
              -76.13009149838382,
              6.284917689491024
            ],
            [
              -76.12951666928672,
              6.284887426085093
            ],
            [
              -76.1294672141045,
              6.284364865439848
            ],
            [
              -76.1302932952579,
              6.284517244601235
            ],
            [
              -76.13009149838382,
              6.284917689491024
            ]
          ]
        ]
      }
    },
    {
      "type": "Feature",
      "properties": {
        "DPTO": "005 - ANTIOQUIA",
        "MPIO": "847 - URRAO",
        "PROP": "GEORGINA COSSIO Y OTROS",
        "CODCATAS": "84720010000002300021",
        "MAT_INMOBILIARIA": "035-4921",
        "AREA": "199.27 m²",
        "NOMBRE_PROYECTO": "PUENTE LA LOMA URRAO",
        "SUBREGION": "SUROESTE"
      },
      "geometry": {
        "type": "Polygon",
        "coordinates": [
          [
            [
              -76.13090903137582,
              6.285361909307315
            ],
            [
              -76.13026832754464,
              6.28506871582758
            ],
            [
              -76.13053052747202,
              6.284771468211909
            ],
            [
              -76.13085464282295,
              6.284935799305479
            ],
            [
              -76.13138783138456,
              6.284904590945381
            ],
            [
              -76.13090903137582,
              6.285361909307315
            ]
          ]
        ]
      }
    },
    {
      "type": "Feature",
      "properties": {
        "DPTO": "005 - ANTIOQUIA",
        "MPIO": "847 - URRAO",
        "PROP": "RECAREDO DE JESUS HERRERA",
        "CODCATAS": "84720010000004700018",
        "MAT_INMOBILIARIA": "035-5037",
        "AREA": "318.35 m²",
        "NOMBRE_PROYECTO": "PUENTE LA LOMA URRAO",
        "SUBREGION": "SUROESTE"
      },
      "geometry": {
        "type": "Polygon",
        "coordinates": [
          [
            [
              -76.20679736636453,
              6.3711528751402335
            ],
            [
              -76.20683797134107,
              6.371132111072748
            ],
            [
              -76.20702810812584,
              6.371308845206095
            ],
            [
              -76.20715830394145,
              6.371490560419696
            ],
            [
              -76.20679736636453,
              6.3711528751402335
            ]
          ]
        ]
      }
    },
    {
      "type": "Feature",
      "properties": {
        "DPTO": "005 - ANTIOQUIA",
        "MPIO": "847 - URRAO",
        "PROP": "EDISON IVAN QUICENO Y OTROS",
        "CODCATAS": "84720010000004700137",
        "MAT_INMOBILIARIA": "035-10278",
        "AREA": "385.77 m²",
        "NOMBRE_PROYECTO": "PUENTE LA LOMA URRAO",
        "SUBREGION": "SUROESTE"
      },
      "geometry": {
        "type": "Polygon",
        "coordinates": [
          [
            [
              -76.20571036746826,
              6.371428272951444
            ],
            [
              -76.20571631472251,
              6.371396971717591
            ],
            [
              -76.20616341109194,
              6.3711377522983454
            ],
            [
              -76.20623305423754,
              6.371255147408983
            ],
            [
              -76.20586886487573,
              6.37133891614264
            ],
            [
              -76.20571036746826,
              6.371428272951444
            ]
          ]
        ]
      }
    },
    {
      "type": "Feature",
      "properties": {
        "DPTO": "005 - ANTIOQUIA",
        "MPIO": "847 - URRAO",
        "PROP": "AVELINO DE JESUS SERNA",
        "CODCATAS": "84720010000004700019",
        "MAT_INMOBILIARIA": "035-11484",
        "AREA": "881.95 m²",
        "NOMBRE_PROYECTO": "PUENTE LA LOMA URRAO",
        "SUBREGION": "SUROESTE"
      },
      "geometry": {
        "type": "Polygon",
        "coordinates": [
          [
            [
              -76.20653641493713,
              6.371295187260636
            ],
            [
              -76.20643638099794,
              6.371127199459741
            ],
            [
              -76.2064324096747,
              6.370982288245889
            ],
            [
              -76.20666461173413,
              6.3710825883250015
            ],
            [
              -76.20683163275176,
              6.371274827382026
            ],
            [
              -76.20653641493713,
              6.371295187260636
            ]
          ]
        ]
      }
    },
    {
      "type": "Feature",
      "properties": {
        "DPTO": "005 - ANTIOQUIA",
        "MPIO": "847 - URRAO",
        "PROP": "JORGE IVAN HIGUITA",
        "CODCATAS": "84720010000004700140",
        "MAT_INMOBILIARIA": "035-3460",
        "AREA": "152.03 m²",
        "NOMBRE_PROYECTO": "PUENTE LA LOMA URRAO",
        "SUBREGION": "SUROESTE"
      },
      "geometry": {
        "type": "Polygon",
        "coordinates": [
          [
            [
              -76.20592710907377,
              6.371206177876054
            ],
            [
              -76.20598050440013,
              6.371107083350477
            ],
            [
              -76.20608470783594,
              6.371030353002647
            ],
            [
              -76.20613575456106,
              6.3710911182913215
            ],
            [
              -76.20592710907377,
              6.371206177876054
            ]
          ]
        ]
      }
    },
    {
      "type": "Feature",
      "properties": {
        "DPTO": "005 - ANTIOQUIA",
        "MPIO": "190 - CISNEROS",
        "PROP": "GLORIA AMPARO GONZALEZ G.",
        "CODCATAS": "19010010170006000008-A",
        "MAT_INMOBILIARIA": "035-12731",
        "AREA": "71.73 m²",
        "NOMBRE_PROYECTO": "PUENTE LA CRISTALINA",
        "SUBREGION": "NORDESTE"
      },
      "geometry": {
        "type": "Polygon",
        "coordinates": [
          [
            [
              -75.07811333489903,
              6.536999063711939
            ],
            [
              -75.07811311076587,
              6.536944801111919
            ],
            [
              -75.07822166164819,
              6.536953396553628
            ],
            [
              -75.07821284299877,
              6.537007696511495
            ],
            [
              -75.07811333489903,
              6.536999063711939
            ]
          ]
        ]
      }
    },
    {
      "type": "Feature",
      "properties": {
        "DPTO": "005 - ANTIOQUIA",
        "MPIO": "190 - CISNEROS",
        "PROP": "BERTA OLIVA ARENAS OSPINA",
        "CODCATAS": "19010010170006000008-B",
        "MAT_INMOBILIARIA": "035-12732",
        "AREA": "71.73 m²",
        "NOMBRE_PROYECTO": "PUENTE LA CRISTALINA",
        "SUBREGION": "NORDESTE"
      },
      "geometry": {
        "type": "Polygon",
        "coordinates": [
          [
            [
              -75.07811333489903,
              6.536999063711939
            ],
            [
              -75.07811311076587,
              6.536944801111919
            ],
            [
              -75.07822166164819,
              6.536953396553628
            ],
            [
              -75.07821284299877,
              6.537007696511495
            ],
            [
              -75.07811333489903,
              6.536999063711939
            ]
          ]
        ]
      }
    },
    {
      "type": "Feature",
      "properties": {
        "DPTO": "005 - ANTIOQUIA",
        "MPIO": "001 - MEDELLIN",
        "PROP": "OLIVIA RESTREPO DE TORO",
        "CODCATAS": "0500100000040000041",
        "MAT_INMOBILIARIA": "001-307922",
        "AREA": "44.56 m²",
        "NOMBRE_PROYECTO": "PAP_SAN_ANTONIO_DE_PRADO",
        "SUBREGION": "VALLE DE ABURRA"
      },
      "geometry": {
        "type": "Polygon",
        "coordinates": [
          [
            [
              -75.66424207011188,
              6.18996679097419
            ],
            [
              -75.66419672443983,
              6.189930857635642
            ],
            [
              -75.66429595010621,
              6.189903238596051
            ],
            [
              -75.66428723449451,
              6.189966564178586
            ],
            [
              -75.66424207011188,
              6.18996679097419
            ]
          ]
        ]
      }
    },
    {
      "type": "Feature",
      "properties": {
        "DPTO": "005 - ANTIOQUIA",
        "MPIO": "001 - MEDELLIN",
        "PROP": "LUIS FERNANDO ESTRADA G.",
        "CODCATAS": "0500100000040000238",
        "MAT_INMOBILIARIA": "00103",
        "AREA": "400.08 m²",
        "NOMBRE_PROYECTO": "PAP_SAN_ANTONIO_DE_PRADO",
        "SUBREGION": "VALLE DE ABURRA"
      },
      "geometry": {
        "type": "Polygon",
        "coordinates": [
          [
            [
              -75.66428723449451,
              6.189966564178586
            ],
            [
              -75.66429595010621,
              6.189903238596051
            ],
            [
              -75.66436807713256,
              6.1898757556236195
            ],
            [
              -75.66443108062438,
              6.189830237943947
            ],
            [
              -75.66452980765553,
              6.189703178541654
            ],
            [
              -75.66456616576816,
              6.189748197243223
            ],
            [
              -75.66461137544779,
              6.189757010457611
            ],
            [
              -75.66465644914243,
              6.189738703579745
            ],
            [
              -75.66462063495759,
              6.189802165241572
            ],
            [
              -75.66446766537565,
              6.189920456804939
            ],
            [
              -75.66439553835518,
              6.189947939791279
            ],
            [
              -75.6643233659994,
              6.189966382739342
            ],
            [
              -75.66428723449451,
              6.189966564178586
            ]
          ]
        ]
      }
    },
    {
      "type": "Feature",
      "properties": {
        "DPTO": "005 - ANTIOQUIA",
        "MPIO": "107 - BRICEÑO",
        "PROP": "GUILLERMO LEÓN MONTOYA",
        "CODCATAS": "1072001000000700012",
        "AREA": "543.5 m²",
        "NOMBRE_PROYECTO": "Puente Briceño",
        "SUBREGION": "NORTE"
      },
      "geometry": {
        "type": "Polygon",
        "coordinates": [
          [
            [
              -75.50487811757456,
              7.099161401353052
            ],
            [
              -75.50483347596163,
              7.09914084789661
            ],
            [
              -75.50467399654761,
              7.099023270613037
            ],
            [
              -75.50467182681649,
              7.098973556226198
            ],
            [
              -75.50475176578625,
              7.098927014883315
            ],
            [
              -75.50488317041673,
              7.098824050311948
            ],
            [
              -75.50488521493247,
              7.098884072230227
            ],
            [
              -75.50489986475081,
              7.098931910987416
            ],
            [
              -75.50490064129896,
              7.099075389181077
            ],
            [
              -75.50487811757456,
              7.099161401353052
            ]
          ]
        ]
      }
    },
    {
      "type": "Feature",
      "properties": {
        "DPTO": "005 - ANTIOQUIA",
        "MPIO": "125 - CAICEDO",
        "PROP": "EDGAR DE JESUS HOLGUIN H",
        "CODCATAS": "1252001000000300059",
        "MAT_INMOBILIARIA": "035-12566",
        "AREA": "610.50 m²",
        "NOMBRE_PROYECTO": "Puente la Soledad",
        "SUBREGION": "OCCIDENTE"
      },
      "geometry": {
        "type": "Polygon",
        "coordinates": [
          [
            [
              -75.95196574791528,
              6.385093831707728
            ],
            [
              -75.95192831670803,
              6.384868095921323
            ],
            [
              -75.95209066966058,
              6.384821974376674
            ],
            [
              -75.95224481755835,
              6.384920508174853
            ],
            [
              -75.95196574791528,
              6.385093831707728
            ]
          ]
        ]
      }
    },
    {
      "type": "Feature",
      "properties": {
        "DPTO": "005 - ANTIOQUIA",
        "MPIO": "125 - CAICEDO",
        "PROP": "NORBERTO GOMEZ RUEDA",
        "CODCATAS": "1252001000000200158",
        "MAT_INMOBILIARIA": "035-22100",
        "AREA": "331.45 m²",
        "NOMBRE_PROYECTO": "Puente la Soledad",
        "SUBREGION": "OCCIDENTE"
      },
      "geometry": {
        "type": "Polygon",
        "coordinates": [
          [
            [
              -75.95183963449854,
              6.385157821393739
            ],
            [
              -75.9518294607495,
              6.384959043270999
            ],
            [
              -75.95192831670803,
              6.384868095921323
            ],
            [
              -75.95196574791528,
              6.385093831707728
            ],
            [
              -75.95183963449854,
              6.385157821393739
            ]
          ]
        ]
      }
    }
  ]
}