{
  "type": "FeatureCollection",
  "name": "PrediosAfectados",
  "crs": {
    "type": "name",
    "properties": {
      "name": "urn:ogc:def:crs:OGC:1.3:CRS84"
    }
  },
  "features": [
    {
      "type": "Feature",
      "properties": {
        "AVALUO_TER": 0,
        "AVALUO_COM": 0,
        "TERRENO_CO": "056900004000000010063000000000",
        "DIMENSION": 0,
        "ETIQUETA": "00063",
        "RELACION_S": 0,
        "ESPACIO_DE": "N",
        "LOCAL_ID": "6902004000000100063",
        "CREATED_US": "GISANT",
        "CREATED_DA": "2024-02-23",
        "LAST_EDITE": "GISANT",
        "LAST_EDI_1": "2025-12-01",
        "GLOBALID": "{E461D8A2-3AF7-4DCD-98A6-8408F1CDE045}",
        "MUNICIPIO": "690",
        "LLAVE_GLOB": "M690{01E50DF7-319A-44BC-E063-E0C8000A758A}",
        "FICHA": 1192133,
        "CIRULO": "026",
        "MATRICULA": "23008",
        "CIRCULO_MA": "026-23008",
        "VEREDA": "69020040000001",
        "LABEL_ID": 1
      },
      "geometry": {
        "type": "MultiPolygon",
        "coordinates": [
          [
            [
              [
                -75.19231192644436,
                6.56688615795686
              ],
              [
                -75.19407057798821,
                6.56449286206099
              ],
              [
                -75.19444416947366,
                6.564746579505059
              ],
              [
                -75.19478591654368,
                6.565000368261375
              ],
              [
                -75.19500911531975,
                6.56513169181942
              ],
              [
                -75.19519123104152,
                6.565199468524042
              ],
              [
                -75.19532778498431,
                6.565235528564947
              ],
              [
                -75.19584829749158,
                6.565340131455279
              ],
              [
                -75.19623143608979,
                6.56544130739699
              ],
              [
                -75.19670655266702,
                6.565577988417814
              ],
              [
                -75.19719707810256,
                6.565755446829228
              ],
              [
                -75.19760079773354,
                6.56592799619289
              ],
              [
                -75.19800615138301,
                6.566135320900178
              ],
              [
                -75.19821485752571,
                6.566231245017898
              ],
              [
                -75.19827647728876,
                6.566259567371449
              ],
              [
                -75.19847471125983,
                6.56637325297812
              ],
              [
                -75.19879108293199,
                6.566337815321714
              ],
              [
                -75.19898844222855,
                6.566315708911518
              ],
              [
                -75.19932194475474,
                6.566406587256902
              ],
              [
                -75.19932363359534,
                6.56640712514522
              ],
              [
                -75.19992314515622,
                6.566598109543816
              ],
              [
                -75.20099155520674,
                6.566928666843075
              ],
              [
                -75.20105044681743,
                6.56694688775425
              ],
              [
                -75.20107880465419,
                6.566955661608419
              ],
              [
                -75.20109473799408,
                6.566960590649163
              ],
              [
                -75.20110011038447,
                6.566962253589723
              ],
              [
                -75.20112590702433,
                6.566969111593335
              ],
              [
                -75.20112601972316,
                6.5669702695319
              ],
              [
                -75.20114466362203,
                6.567042364069051
              ],
              [
                -75.20117988069124,
                6.567178540015954
              ],
              [
                -75.20119285976986,
                6.567293115464758
              ],
              [
                -75.20118455462138,
                6.567423065683387
              ],
              [
                -75.20117826470776,
                6.56746014965672
              ],
              [
                -75.20116223673466,
                6.567554652833896
              ],
              [
                -75.20111864282426,
                6.56781168674982
              ],
              [
                -75.20112305424855,
                6.568009235958439
              ],
              [
                -75.20112163422358,
                6.568288699693845
              ],
              [
                -75.2011213670862,
                6.568341269894791
              ],
              [
                -75.20112094527096,
                6.56842427023965
              ],
              [
                -75.20115230044031,
                6.569150515637745
              ],
              [
                -75.2011567301558,
                6.569315778717308
              ],
              [
                -75.20114749203175,
                6.569507448358894
              ],
              [
                -75.20112201776374,
                6.569601902661683
              ],
              [
                -75.20111090447665,
                6.569643110753344
              ],
              [
                -75.20103710539065,
                6.569756912080164
              ],
              [
                -75.20087578144269,
                6.569886308051235
              ],
              [
                -75.20073791807809,
                6.569978669305553
              ],
              [
                -75.20031024781436,
                6.570265189027579
              ],
              [
                -75.19981061433866,
                6.57059993307142
              ],
              [
                -75.19757060763722,
                6.569166395031167
              ],
              [
                -75.19552122622719,
                6.56832897139401
              ],
              [
                -75.19326005792263,
                6.568019385920363
              ],
              [
                -75.19314786958304,
                6.567991496065773
              ],
              [
                -75.19313867235694,
                6.567990108426801
              ],
              [
                -75.19313568248583,
                6.567989212677948
              ],
              [
                -75.19312801766443,
                6.567986917618383
              ],
              [
                -75.19312178442581,
                6.567985884150813
              ],
              [
                -75.1931209957244,
                6.567984814172306
              ],
              [
                -75.19231192644436,
                6.56688615795686
              ]
            ]
          ],
          [
            [
              [
                -75.20016721550223,
                6.571176887290602
              ],
              [
                -75.19984879166384,
                6.570661700369832
              ],
              [
                -75.19985244290875,
                6.570658966835961
              ],
              [
                -75.20035050123757,
                6.570325276869044
              ],
              [
                -75.2007605032111,
                6.570050594575041
              ],
              [
                -75.20091861172602,
                6.569944669913006
              ],
              [
                -75.20109144639115,
                6.569806042648357
              ],
              [
                -75.20115245071266,
                6.569711970160247
              ],
              [
                -75.20117777073958,
                6.569672923312645
              ],
              [
                -75.20121935436099,
                6.569518736561522
              ],
              [
                -75.20122909963887,
                6.569316551978375
              ],
              [
                -75.20122458213238,
                6.569147986717041
              ],
              [
                -75.20120308349188,
                6.568650029763298
              ],
              [
                -75.20119355825803,
                6.568367335107884
              ],
              [
                -75.20119538213089,
                6.568008611390851
              ],
              [
                -75.20119110246495,
                6.567816973152691
              ],
              [
                -75.20120679901677,
                6.567724426571388
              ],
              [
                -75.20123585805409,
                6.567553087528759
              ],
              [
                -75.2012564897425,
                6.567431442653763
              ],
              [
                -75.20126544381631,
                6.567291338595632
              ],
              [
                -75.20125117116801,
                6.567165349992893
              ],
              [
                -75.20120517171716,
                6.567012566596565
              ],
              [
                -75.20119735311165,
                6.566986596342039
              ],
              [
                -75.20119765557371,
                6.566986077741347
              ],
              [
                -75.20127488070011,
                6.567004339203846
              ],
              [
                -75.20160348771583,
                6.567079548214914
              ],
              [
                -75.20161995309728,
                6.567083316462931
              ],
              [
                -75.2018733127077,
                6.56714130327962
              ],
              [
                -75.20214032094023,
                6.567167084077272
              ],
              [
                -75.20220567913705,
                6.567173394535754
              ],
              [
                -75.20224687651768,
                6.567175313168064
              ],
              [
                -75.20224296135247,
                6.567201096255836
              ],
              [
                -75.20223689114256,
                6.567234864014876
              ],
              [
                -75.20222933803015,
                6.567276882071856
              ],
              [
                -75.20197219929317,
                6.567951939029585
              ],
              [
                -75.20188149400296,
                6.568220536542696
              ],
              [
                -75.2018756585288,
                6.568327421129581
              ],
              [
                -75.2019073733599,
                6.568388059143901
              ],
              [
                -75.2019907098775,
                6.568481579940409
              ],
              [
                -75.20214169053251,
                6.568564895425533
              ],
              [
                -75.20229736971649,
                6.568675105432891
              ],
              [
                -75.20232075145285,
                6.568781119912864
              ],
              [
                -75.20230643262842,
                6.568878041834519
              ],
              [
                -75.20231200714328,
                6.568941061927842
              ],
              [
                -75.20234298788496,
                6.569013228661737
              ],
              [
                -75.20234400133285,
                6.569093951878721
              ],
              [
                -75.20233670716362,
                6.569152889519341
              ],
              [
                -75.20233048712211,
                6.569203158151461
              ],
              [
                -75.20234085698792,
                6.569328440322606
              ],
              [
                -75.20236749335099,
                6.56949057246365
              ],
              [
                -75.202393216516,
                6.569605043758007
              ],
              [
                -75.20242326190443,
                6.569880169130629
              ],
              [
                -75.20240681382373,
                6.570035517636314
              ],
              [
                -75.20236575039095,
                6.570191717815749
              ],
              [
                -75.20234648907321,
                6.570233621913565
              ],
              [
                -75.2023176194761,
                6.570296427320423
              ],
              [
                -75.2022502119323,
                6.570384283752811
              ],
              [
                -75.20218575116027,
                6.570431386727575
              ],
              [
                -75.20208210122962,
                6.570487075925352
              ],
              [
                -75.20184171488107,
                6.570595472715505
              ],
              [
                -75.20163820228166,
                6.570690685903812
              ],
              [
                -75.20147234183108,
                6.570773483483715
              ],
              [
                -75.201380873144,
                6.57079068540668
              ],
              [
                -75.20133678890997,
                6.570795127823974
              ],
              [
                -75.20119175346375,
                6.570809742963951
              ],
              [
                -75.20108880685594,
                6.570844672971848
              ],
              [
                -75.20100043674417,
                6.570868783774445
              ],
              [
                -75.20093596856566,
                6.570912812895088
              ],
              [
                -75.20079088073139,
                6.570998609913923
              ],
              [
                -75.20064945237237,
                6.571022894326604
              ],
              [
                -75.20056800466249,
                6.571046221328599
              ],
              [
                -75.2004888819334,
                6.571077997108111
              ],
              [
                -75.20040666556312,
                6.571101325660604
              ],
              [
                -75.20034057518484,
                6.571115370078646
              ],
              [
                -75.20030593896938,
                6.571106262135119
              ],
              [
                -75.20021836705784,
                6.571139592481309
              ],
              [
                -75.20016721550223,
                6.571176887290602
              ]
            ]
          ]
        ]
      }
    },
    {
      "type": "Feature",
      "properties": {
        "AVALUO_TER": 0,
        "AVALUO_COM": 0,
        "TERRENO_CO": "056860004000000020028000000000",
        "DIMENSION": 0,
        "ETIQUETA": "28",
        "RELACION_S": 0,
        "ESPACIO_DE": null,
        "LOCAL_ID": "6862004000000200028",
        "CREATED_US": "GISANT",
        "CREATED_DA": "2026-04-15",
        "LAST_EDITE": "GISANT",
        "LAST_EDI_1": "2026-04-15",
        "GLOBALID": "{9C3240DA-8714-41CF-A4B9-5ED361D233FB}",
        "MUNICIPIO": "686",
        "LLAVE_GLOB": "M686{35651829-2E00-4C40-9DCF-C272060315D4}",
        "FICHA": 0,
        "CIRULO": null,
        "MATRICULA": null,
        "CIRCULO_MA": null,
        "VEREDA": null,
        "LABEL_ID": 2
      },
      "geometry": {
        "type": "MultiPolygon",
        "coordinates": [
          [
            [
              [
                -75.20000072198773,
                6.571783646730979
              ],
              [
                -75.20035487819175,
                6.571635848936182
              ],
              [
                -75.20048994327266,
                6.571579560555993
              ],
              [
                -75.20078363752889,
                6.57152462690547
              ],
              [
                -75.200924918675,
                6.571474452375791
              ],
              [
                -75.20101025755788,
                6.571447836352872
              ],
              [
                -75.20101442421729,
                6.571446536603739
              ],
              [
                -75.2011873839449,
                6.571392593635688
              ],
              [
                -75.20121074396477,
                6.571385307862478
              ],
              [
                -75.20136378459695,
                6.571331494973382
              ],
              [
                -75.20156294517598,
                6.571272046890588
              ],
              [
                -75.20170015262279,
                6.571219273012088
              ],
              [
                -75.20180334503348,
                6.571154507380565
              ],
              [
                -75.20191806018553,
                6.571056326167647
              ],
              [
                -75.20216588736302,
                6.570862076628377
              ],
              [
                -75.20230651656448,
                6.570756320701381
              ],
              [
                -75.20233593327849,
                6.570708314776067
              ],
              [
                -75.20237643452317,
                6.570665817110807
              ],
              [
                -75.20245928935728,
                6.570600021363481
              ],
              [
                -75.2026325905749,
                6.570478534757284
              ],
              [
                -75.20273364247647,
                6.570398412254447
              ],
              [
                -75.20275963667204,
                6.57027033037796
              ],
              [
                -75.20285762592525,
                6.570042937640276
              ],
              [
                -75.20287657973712,
                6.569960761954004
              ],
              [
                -75.20284696954833,
                6.569816024003713
              ],
              [
                -75.20279742894911,
                6.569531332733233
              ],
              [
                -75.2029108819824,
                6.569526004354597
              ],
              [
                -75.20299311802235,
                6.569559445850455
              ],
              [
                -75.2030948701448,
                6.569638675711232
              ],
              [
                -75.20323531622678,
                6.569732222398253
              ],
              [
                -75.20341459355463,
                6.569871472353066
              ],
              [
                -75.20340590396938,
                6.569971435100523
              ],
              [
                -75.20332940773729,
                6.570135295285461
              ],
              [
                -75.20321859738662,
                6.570275081647558
              ],
              [
                -75.20300793874625,
                6.570461294868734
              ],
              [
                -75.20277210855141,
                6.570650029762715
              ],
              [
                -75.20254985401985,
                6.570778934786508
              ],
              [
                -75.20236937541405,
                6.570867754618319
              ],
              [
                -75.20219708176928,
                6.570952546720894
              ],
              [
                -75.20157907484173,
                6.57142721867004
              ],
              [
                -75.20141930885445,
                6.571552109095048
              ],
              [
                -75.20140496015341,
                6.571563325197852
              ],
              [
                -75.20138301714958,
                6.571580478110846
              ],
              [
                -75.20129501982237,
                6.571649266187286
              ],
              [
                -75.2012263119794,
                6.571707815693616
              ],
              [
                -75.20122468403576,
                6.571709202847445
              ],
              [
                -75.20110146663698,
                6.571814202889921
              ],
              [
                -75.20107695961175,
                6.571833949813404
              ],
              [
                -75.20107311014155,
                6.571837051382632
              ],
              [
                -75.20103307547794,
                6.571869310053803
              ],
              [
                -75.20089513971512,
                6.571980454561021
              ],
              [
                -75.20076720413935,
                6.572049413127757
              ],
              [
                -75.2007376790523,
                6.57207113102709
              ],
              [
                -75.20070961091598,
                6.572084751600875
              ],
              [
                -75.20058407504621,
                6.572145669956203
              ],
              [
                -75.20041170078699,
                6.572229317074287
              ],
              [
                -75.20037784517567,
                6.572245874412326
              ],
              [
                -75.20036956812612,
                6.572252909548505
              ],
              [
                -75.2003337574565,
                6.572283347998469
              ],
              [
                -75.20032737327946,
                6.572273769124573
              ],
              [
                -75.20015607005615,
                6.572016738208863
              ],
              [
                -75.20000072198773,
                6.571783646730979
              ]
            ]
          ]
        ]
      }
    },
    {
      "type": "Feature",
      "properties": {
        "OBJECTID_1": 315503,
        "AVALUO_TER": 0,
        "AVALUO_COM": 0,
        "TERRENO_CO": "058610001000000010066000000000",
        "DIMENSION": 0,
        "ETIQUETA": "00066",
        "RELACION_S": 0,
        "ESPACIO_DE": "N",
        "LOCAL_ID": "8612001000000100066",
        "CREATED_US": "GISANT",
        "CREATED_DA": "2024-02-29",
        "LAST_EDITE": "GISANT",
        "LAST_EDI_1": "2024-02-29",
        "GLOBALID": "{FC4FF465-04C2-4290-B98D-CAF935C6DAB8}",
        "MUNICIPIO": "861",
        "LLAVE_GLOB": "M861{FF61CB26-7F4B-5A4A-E053-E0C8000A951B}",
        "SHAPE_AREA": 105348.039001,
        "SHAPE_LEN": 2091.2771553,
        "LABEL_ID": 3
      },
      "geometry": {
        "type": "MultiPolygon",
        "coordinates": [
          [
            [
              [
                -75.74951477223017,
                5.961798107757841
              ],
              [
                -75.74968440112082,
                5.961745972055758
              ],
              [
                -75.74971484040789,
                5.961730402830208
              ],
              [
                -75.74974709664738,
                5.961719079511316
              ],
              [
                -75.74978058219943,
                5.961712208426658
              ],
              [
                -75.7498146873507,
                5.961709914656779
              ],
              [
                -75.75006296326343,
                5.96171002685629
              ],
              [
                -75.75018157989561,
                5.961782135112669
              ],
              [
                -75.75026762007535,
                5.961732457979959
              ],
              [
                -75.75036215695152,
                5.961741268556019
              ],
              [
                -75.75040190821085,
                5.961791614467127
              ],
              [
                -75.75042504968569,
                5.961847801634603
              ],
              [
                -75.75042846285898,
                5.961904029508802
              ],
              [
                -75.750421179541,
                5.961960207770882
              ],
              [
                -75.75040426064803,
                5.962031926387949
              ],
              [
                -75.75040417187698,
                5.962069004912193
              ],
              [
                -75.75040528913071,
                5.962103687317862
              ],
              [
                -75.75041119001922,
                5.962122840953788
              ],
              [
                -75.75043509370904,
                5.962140838864213
              ],
              [
                -75.75051042890387,
                5.962162048329578
              ],
              [
                -75.75055856929421,
                5.962189318271512
              ],
              [
                -75.7505992100323,
                5.962233161975138
              ],
              [
                -75.7506187358478,
                5.962270926226056
              ],
              [
                -75.75063187933682,
                5.962315398172897
              ],
              [
                -75.75064217865493,
                5.962350240795004
              ],
              [
                -75.75068574666506,
                5.96241313454993
              ],
              [
                -75.75072937700826,
                5.962472229510253
              ],
              [
                -75.75075965925042,
                5.962527493254185
              ],
              [
                -75.75076906023735,
                5.962588417131741
              ],
              [
                -75.75075750717663,
                5.962641667977882
              ],
              [
                -75.75072502360106,
                5.962698669124372
              ],
              [
                -75.75067180166832,
                5.962831837422819
              ],
              [
                -75.75062833948233,
                5.962942138984065
              ],
              [
                -75.75062335477256,
                5.963018934316832
              ],
              [
                -75.75058719576431,
                5.963107662339913
              ],
              [
                -75.7505674239802,
                5.963152418092007
              ],
              [
                -75.75031235057533,
                5.963333761468115
              ],
              [
                -75.75023373512573,
                5.963451123336618
              ],
              [
                -75.75011607155602,
                5.963519411316835
              ],
              [
                -75.74997882449895,
                5.963587652501555
              ],
              [
                -75.74987589478822,
                5.963636381785848
              ],
              [
                -75.74978754688742,
                5.963729230537573
              ],
              [
                -75.74963548382017,
                5.96385131198228
              ],
              [
                -75.74959605760067,
                5.963958971010086
              ],
              [
                -75.74958599579388,
                5.96407159979449
              ],
              [
                -75.74956128013132,
                5.964169498396881
              ],
              [
                -75.7494778878494,
                5.964237869127699
              ],
              [
                -75.74941890152219,
                5.964335685850342
              ],
              [
                -75.7493942335498,
                5.964413992498216
              ],
              [
                -75.74913949956931,
                5.964477050562937
              ],
              [
                -75.74860075059766,
                5.96456391314655
              ],
              [
                -75.7484194999738,
                5.964607557248344
              ],
              [
                -75.74824829448602,
                5.964671466055782
              ],
              [
                -75.74818774433436,
                5.964751027665574
              ],
              [
                -75.74816346209731,
                5.964808937042596
              ],
              [
                -75.74811743391703,
                5.964874041249598
              ],
              [
                -75.74803277496922,
                5.964939050925961
              ],
              [
                -75.74777672321044,
                5.96499398752025
              ],
              [
                -75.74735886188104,
                5.965070269279677
              ],
              [
                -75.74711930375034,
                5.96511437053506
              ],
              [
                -75.74693157792899,
                5.965150724442496
              ],
              [
                -75.74680990254457,
                5.965160946515001
              ],
              [
                -75.74670478345729,
                5.965156184851404
              ],
              [
                -75.74659368855336,
                5.96513788709814
              ],
              [
                -75.74644963782951,
                5.965084950915395
              ],
              [
                -75.7463730754144,
                5.965071242861838
              ],
              [
                -75.74627243551798,
                5.965077009001719
              ],
              [
                -75.74615372437717,
                5.96510376785389
              ],
              [
                -75.7460298561638,
                5.965132192227879
              ],
              [
                -75.7460252082102,
                5.965114972162252
              ],
              [
                -75.74598565543859,
                5.965031796233881
              ],
              [
                -75.74593716268731,
                5.964934163394298
              ],
              [
                -75.74588494842418,
                5.96486539033745
              ],
              [
                -75.74582732938968,
                5.964809276343916
              ],
              [
                -75.74567279298229,
                5.964703960923349
              ],
              [
                -75.74526223893245,
                5.96451705377448
              ],
              [
                -75.74477311112467,
                5.964310276457984
              ],
              [
                -75.74438225189961,
                5.964156599632597
              ],
              [
                -75.7441635024283,
                5.964047083925285
              ],
              [
                -75.74392265793361,
                5.963905264480347
              ],
              [
                -75.7437261984275,
                5.963790240655673
              ],
              [
                -75.74375532062047,
                5.963785703965396
              ],
              [
                -75.74379841572521,
                5.963785170012142
              ],
              [
                -75.7438377067449,
                5.963782764812721
              ],
              [
                -75.7438657917115,
                5.96377535955676
              ],
              [
                -75.74389208839399,
                5.963752949120891
              ],
              [
                -75.74391020536198,
                5.963725519927133
              ],
              [
                -75.74394932655825,
                5.963664101473818
              ],
              [
                -75.74397977016551,
                5.963609204158825
              ],
              [
                -75.74401156127311,
                5.963557840086165
              ],
              [
                -75.74403981960073,
                5.963522665710633
              ],
              [
                -75.74408075253255,
                5.963488233582438
              ],
              [
                -75.74413441521637,
                5.963453832901835
              ],
              [
                -75.74417969655686,
                5.963433234288281
              ],
              [
                -75.74426186624352,
                5.963412210384879
              ],
              [
                -75.74438814050532,
                5.963381783093297
              ],
              [
                -75.74446357481287,
                5.963362408150793
              ],
              [
                -75.744583314928,
                5.963337603574693
              ],
              [
                -75.74467827928969,
                5.963331851719932
              ],
              [
                -75.74481069081891,
                5.963331657848686
              ],
              [
                -75.74484918682874,
                5.963334251007456
              ],
              [
                -75.74488112945384,
                5.963349842526529
              ],
              [
                -75.74491008529216,
                5.963371405214631
              ],
              [
                -75.74501142808096,
                5.96346847910922
              ],
              [
                -75.74508200910945,
                5.9635136466206
              ],
              [
                -75.74517347019442,
                5.963554868088296
              ],
              [
                -75.74526098542475,
                5.963588043070734
              ],
              [
                -75.74547754628462,
                5.963653683198444
              ],
              [
                -75.74562800632197,
                5.963697596969531
              ],
              [
                -75.74576125200579,
                5.963740562428314
              ],
              [
                -75.74589171500344,
                5.963790775312484
              ],
              [
                -75.74605524482331,
                5.963866751786072
              ],
              [
                -75.746148239094,
                5.963921040428129
              ],
              [
                -75.74626096602351,
                5.963992091456315
              ],
              [
                -75.74631282249644,
                5.96403598717392
              ],
              [
                -75.74637918271823,
                5.964101828537851
              ],
              [
                -75.74640372043304,
                5.964137447309043
              ],
              [
                -75.74641459753343,
                5.964170312957555
              ],
              [
                -75.74642810391468,
                5.964237840023208
              ],
              [
                -75.74643891844251,
                5.964296219674011
              ],
              [
                -75.74646068186391,
                5.964336415530837
              ],
              [
                -75.74648157995152,
                5.964367466608659
              ],
              [
                -75.74651976695483,
                5.964411354571913
              ],
              [
                -75.74659676766565,
                5.964477932840593
              ],
              [
                -75.74670504727524,
                5.96455443695567
              ],
              [
                -75.74676210650163,
                5.964582439212712
              ],
              [
                -75.74683828994594,
                5.964598750759434
              ],
              [
                -75.74690715997296,
                5.96459744514848
              ],
              [
                -75.7469936382647,
                5.964584445543532
              ],
              [
                -75.74711537861182,
                5.964552488086254
              ],
              [
                -75.74716377950645,
                5.964536478491175
              ],
              [
                -75.74723714429715,
                5.964488277703507
              ],
              [
                -75.74748677817865,
                5.964295344386557
              ],
              [
                -75.74758534195585,
                5.964225736492165
              ],
              [
                -75.74763198120883,
                5.964183425605139
              ],
              [
                -75.74765068263439,
                5.964151391333712
              ],
              [
                -75.7476724960795,
                5.964105907617656
              ],
              [
                -75.74770064885406,
                5.96402730602357
              ],
              [
                -75.74771114743295,
                5.963956970797387
              ],
              [
                -75.7477044981421,
                5.963793709845533
              ],
              [
                -75.7476988894845,
                5.963717747367717
              ],
              [
                -75.74770947758554,
                5.963675717727573
              ],
              [
                -75.74772944148215,
                5.963639567709742
              ],
              [
                -75.74776806015402,
                5.963591750117755
              ],
              [
                -75.74783362090423,
                5.963533507213315
              ],
              [
                -75.74796503081616,
                5.963429617691054
              ],
              [
                -75.74804819939519,
                5.963361245564115
              ],
              [
                -75.74809845932519,
                5.963309924815565
              ],
              [
                -75.74815794852493,
                5.963238875840054
              ],
              [
                -75.74824254096666,
                5.963142789007244
              ],
              [
                -75.74831654900241,
                5.963065181551761
              ],
              [
                -75.74839319394738,
                5.962976990806538
              ],
              [
                -75.74855334579611,
                5.962786879907333
              ],
              [
                -75.74865178666565,
                5.962681441960748
              ],
              [
                -75.74873536988345,
                5.962592311696106
              ],
              [
                -75.74883830374011,
                5.962483870019267
              ],
              [
                -75.74895022578372,
                5.962347191353691
              ],
              [
                -75.74917267137234,
                5.962113925733242
              ],
              [
                -75.74920965595088,
                5.962072695393845
              ],
              [
                -75.74926582777806,
                5.96201379245056
              ],
              [
                -75.74933312628343,
                5.961949768094658
              ],
              [
                -75.74942033197743,
                5.96187322106648
              ],
              [
                -75.74951477223017,
                5.961798107757841
              ]
            ]
          ]
        ]
      }
    },
    {
      "type": "Feature",
      "properties": {
        "OBJECTID_1": 317396,
        "AVALUO_TER": 0,
        "AVALUO_COM": 0,
        "TERRENO_CO": "058610002000000020261000000000",
        "DIMENSION": 0,
        "ETIQUETA": "00261",
        "RELACION_S": 0,
        "ESPACIO_DE": "N",
        "LOCAL_ID": "8612002000000200261",
        "CREATED_US": "GISANT",
        "CREATED_DA": "2024-02-29",
        "LAST_EDITE": "GISANT",
        "LAST_EDI_1": "2024-02-29",
        "GLOBALID": "{48EA3F20-A725-41C5-B6F0-3504A737A429}",
        "MUNICIPIO": "861",
        "LLAVE_GLOB": "M861{FF61CB26-8783-5A4A-E053-E0C8000A951B}",
        "SHAPE_AREA": 39109.788586,
        "SHAPE_LEN": 1708.12134099,
        "LABEL_ID": 4
      },
      "geometry": {
        "type": "MultiPolygon",
        "coordinates": [
          [
            [
              [
                -75.75032616387276,
                5.961449687955697
              ],
              [
                -75.75030527238742,
                5.961446406955701
              ],
              [
                -75.75028456637399,
                5.961450631584523
              ],
              [
                -75.7502561745959,
                5.961456008295469
              ],
              [
                -75.7501927525403,
                5.961486383878442
              ],
              [
                -75.75019135335006,
                5.961477737174563
              ],
              [
                -75.75018942356357,
                5.961467879995013
              ],
              [
                -75.75018902390185,
                5.961447105172703
              ],
              [
                -75.75018285682278,
                5.961426165710558
              ],
              [
                -75.75016508813245,
                5.961404722835485
              ],
              [
                -75.75015134009857,
                5.961388574308278
              ],
              [
                -75.75014165190547,
                5.961365652853948
              ],
              [
                -75.75014140213533,
                5.96136390582586
              ],
              [
                -75.75014937031544,
                5.961331733548263
              ],
              [
                -75.75015080391915,
                5.961330617217562
              ],
              [
                -75.75016550212827,
                5.961325458070213
              ],
              [
                -75.75018409211141,
                5.961318935281108
              ],
              [
                -75.75023985059342,
                5.961301596155459
              ],
              [
                -75.75029234318471,
                5.961276602261265
              ],
              [
                -75.75034062938849,
                5.961251621240878
              ],
              [
                -75.7503627058257,
                5.961235234101036
              ],
              [
                -75.75037090352741,
                5.961212706025915
              ],
              [
                -75.75036887239044,
                5.961192112918408
              ],
              [
                -75.75035654131989,
                5.961178211816219
              ],
              [
                -75.7503296009992,
                5.961165034548107
              ],
              [
                -75.7502934179933,
                5.961154924510526
              ],
              [
                -75.75026644640495,
                5.961154859460886
              ],
              [
                -75.75022867208932,
                5.961155528154908
              ],
              [
                -75.75021371836299,
                5.961155792683043
              ],
              [
                -75.75020630224083,
                5.961151626271982
              ],
              [
                -75.75017321808052,
                5.961133043214043
              ],
              [
                -75.7501516732353,
                5.961110615790134
              ],
              [
                -75.75013323426097,
                5.961075869835286
              ],
              [
                -75.75012279755134,
                5.961056199172379
              ],
              [
                -75.75012251684339,
                5.96104190069119
              ],
              [
                -75.7501218667756,
                5.961008739128885
              ],
              [
                -75.7501212581428,
                5.960977732421282
              ],
              [
                -75.75013197396483,
                5.960970973257662
              ],
              [
                -75.75015512198057,
                5.960956373346288
              ],
              [
                -75.75012507029335,
                5.960916536384572
              ],
              [
                -75.75018036942173,
                5.960873150811477
              ],
              [
                -75.75006114176544,
                5.960368820917483
              ],
              [
                -75.74993264728398,
                5.960057831052591
              ],
              [
                -75.74964061637007,
                5.959222151371518
              ],
              [
                -75.74931972284841,
                5.958320553077958
              ],
              [
                -75.74909848287737,
                5.957671199538798
              ],
              [
                -75.7489135443557,
                5.957140542004765
              ],
              [
                -75.74891403545979,
                5.957139624736984
              ],
              [
                -75.74893637748544,
                5.957152662409259
              ],
              [
                -75.74897832968699,
                5.957177145025906
              ],
              [
                -75.74925456051851,
                5.957314515185104
              ],
              [
                -75.74952096362573,
                5.957381843114908
              ],
              [
                -75.74961493302878,
                5.95750604145
              ],
              [
                -75.74973471866001,
                5.957576350036463
              ],
              [
                -75.74993108456094,
                5.957670182693948
              ],
              [
                -75.75009086250057,
                5.95773725239277
              ],
              [
                -75.75011162796763,
                5.957743178204094
              ],
              [
                -75.7501073003516,
                5.957748393109298
              ],
              [
                -75.75008157701079,
                5.95777939838845
              ],
              [
                -75.75005068372566,
                5.957891594139309
              ],
              [
                -75.75004632745367,
                5.958010714703939
              ],
              [
                -75.7500816107244,
                5.958221467064064
              ],
              [
                -75.75015930272161,
                5.958477807260004
              ],
              [
                -75.74993655855728,
                5.958439641861442
              ],
              [
                -75.74997223666466,
                5.958621976899143
              ],
              [
                -75.75002827755988,
                5.958922427703602
              ],
              [
                -75.75006569990323,
                5.959154384602591
              ],
              [
                -75.75010325988282,
                5.959329311205429
              ],
              [
                -75.75015999827353,
                5.959447280575964
              ],
              [
                -75.7502432847262,
                5.959569112896652
              ],
              [
                -75.75033412271908,
                5.959717578168134
              ],
              [
                -75.75037182870193,
                5.95983170302998
              ],
              [
                -75.75038306816569,
                5.959973727271566
              ],
              [
                -75.7504188132088,
                5.960057776025859
              ],
              [
                -75.75047264976153,
                5.960102852009757
              ],
              [
                -75.75060146023507,
                5.960131482748753
              ],
              [
                -75.75072178794936,
                5.960158227659412
              ],
              [
                -75.75090684977293,
                5.960175509139486
              ],
              [
                -75.7510448394603,
                5.960175841279689
              ],
              [
                -75.75103194232494,
                5.960600176852178
              ],
              [
                -75.75080933220956,
                5.960637630318879
              ],
              [
                -75.75075987459721,
                5.961268510139714
              ],
              [
                -75.75082154100308,
                5.961273197371923
              ],
              [
                -75.75093108894085,
                5.961291459803907
              ],
              [
                -75.7509428944601,
                5.961312587121451
              ],
              [
                -75.75098862754103,
                5.961343261671122
              ],
              [
                -75.75094421268483,
                5.96137400246432
              ],
              [
                -75.75089079382369,
                5.96140986854621
              ],
              [
                -75.75085014131533,
                5.961456756203122
              ],
              [
                -75.75082909741475,
                5.961474339574837
              ],
              [
                -75.75080856385198,
                5.961492510687804
              ],
              [
                -75.75074268692065,
                5.961512370972264
              ],
              [
                -75.7506642409332,
                5.961531452453682
              ],
              [
                -75.75057456241363,
                5.96153042883495
              ],
              [
                -75.75043294671902,
                5.961490660231484
              ],
              [
                -75.7503697401629,
                5.961462274985108
              ],
              [
                -75.75032616387276,
                5.961449687955697
              ]
            ]
          ],
          [
            [
              [
                -75.75043509370903,
                5.96214083886418
              ],
              [
                -75.75041119001924,
                5.962122840953805
              ],
              [
                -75.75040528913073,
                5.962103687317847
              ],
              [
                -75.75040417187698,
                5.962069004912159
              ],
              [
                -75.75040426064803,
                5.962031926387932
              ],
              [
                -75.750421179541,
                5.961960207770866
              ],
              [
                -75.75042846285898,
                5.961904029508802
              ],
              [
                -75.7504250496857,
                5.961847801634585
              ],
              [
                -75.75040190821085,
                5.961791614467111
              ],
              [
                -75.75036215695152,
                5.961741268556003
              ],
              [
                -75.75032815296854,
                5.961710233433033
              ],
              [
                -75.75062793780866,
                5.96171028240395
              ],
              [
                -75.75063517218598,
                5.961710226371814
              ],
              [
                -75.75063807944946,
                5.961710415239251
              ],
              [
                -75.75064091861599,
                5.961711070894605
              ],
              [
                -75.75064361555786,
                5.961712174724933
              ],
              [
                -75.75064609970924,
                5.961713698155789
              ],
              [
                -75.7506483076729,
                5.961715601729318
              ],
              [
                -75.75065018052081,
                5.96171783692566
              ],
              [
                -75.75065167010047,
                5.961720343419493
              ],
              [
                -75.75065273727425,
                5.961723058128609
              ],
              [
                -75.75065335459647,
                5.961725908872637
              ],
              [
                -75.75065484400581,
                5.961737076288891
              ],
              [
                -75.75068637073822,
                5.961734820659508
              ],
              [
                -75.75068928636989,
                5.961718392737448
              ],
              [
                -75.75068997456941,
                5.961715718976269
              ],
              [
                -75.75069106251458,
                5.961713181524963
              ],
              [
                -75.75069252251015,
                5.961710839279889
              ],
              [
                -75.75069432232412,
                5.961708746640171
              ],
              [
                -75.75069641977069,
                5.96170695353484
              ],
              [
                -75.75069876449341,
                5.961705500894074
              ],
              [
                -75.75070130339131,
                5.961704422430033
              ],
              [
                -75.75070397700293,
                5.961703743750901
              ],
              [
                -75.75074334098883,
                5.961695045249267
              ],
              [
                -75.7507817528507,
                5.961682804330895
              ],
              [
                -75.75081310411844,
                5.961674329366579
              ],
              [
                -75.75086122693466,
                5.961650807212733
              ],
              [
                -75.7508802517647,
                5.961638241910094
              ],
              [
                -75.75091086333452,
                5.961639136653056
              ],
              [
                -75.75097004506819,
                5.961628422702398
              ],
              [
                -75.75101419565665,
                5.96196124746453
              ],
              [
                -75.75106029529903,
                5.96194554206476
              ],
              [
                -75.75106975825683,
                5.961943012479606
              ],
              [
                -75.7510867618685,
                5.961938294671485
              ],
              [
                -75.75110118384309,
                5.961936586418443
              ],
              [
                -75.7511364347556,
                5.961927783690572
              ],
              [
                -75.75115062847108,
                5.961921581143937
              ],
              [
                -75.75117199341261,
                5.961917505955097
              ],
              [
                -75.75118531847323,
                5.961913638178485
              ],
              [
                -75.75119836926017,
                5.96196522840278
              ],
              [
                -75.75121955352658,
                5.962079935510657
              ],
              [
                -75.75122765853472,
                5.962126475571803
              ],
              [
                -75.75108571210893,
                5.962121451991774
              ],
              [
                -75.75093430901107,
                5.96214449231728
              ],
              [
                -75.7509478850287,
                5.962334949334275
              ],
              [
                -75.75063187933682,
                5.962315398172881
              ],
              [
                -75.75061873584781,
                5.962270926226038
              ],
              [
                -75.7505992100323,
                5.962233161975121
              ],
              [
                -75.75055856929421,
                5.962189318271496
              ],
              [
                -75.75051042890385,
                5.962162048329578
              ],
              [
                -75.75043509370903,
                5.96214083886418
              ]
            ]
          ]
        ]
      }
    },
    {
      "type": "Feature",
      "properties": {
        "OBJECTID_1": 315502,
        "AVALUO_TER": 0,
        "AVALUO_COM": 0,
        "TERRENO_CO": "058610001000000010094000000000",
        "DIMENSION": 0,
        "ETIQUETA": "00094",
        "RELACION_S": 0,
        "ESPACIO_DE": "N",
        "LOCAL_ID": "8612001000000100094",
        "CREATED_US": "GISANT",
        "CREATED_DA": "2024-02-29",
        "LAST_EDITE": "GISANT",
        "LAST_EDI_1": "2024-02-29",
        "GLOBALID": "{29ED9F71-154C-40C9-893A-B2E650773906}",
        "MUNICIPIO": "861",
        "LLAVE_GLOB": "M861{FF61CB26-7F4A-5A4A-E053-E0C8000A951B}",
        "SHAPE_AREA": 491.939322195,
        "SHAPE_LEN": 104.523073402,
        "LABEL_ID": 5
      },
      "geometry": {
        "type": "MultiPolygon",
        "coordinates": [
          [
            [
              [
                -75.74995290180013,
                5.961643119683289
              ],
              [
                -75.74987285883222,
                5.961594460254766
              ],
              [
                -75.75017017337078,
                5.961574737581986
              ],
              [
                -75.75021247908737,
                5.961643210665176
              ],
              [
                -75.74995290180013,
                5.961643119683289
              ]
            ]
          ]
        ]
      }
    },
    {
      "type": "Feature",
      "properties": {
        "OBJECTID_1": 317396,
        "AVALUO_TER": 0,
        "AVALUO_COM": 0,
        "TERRENO_CO": "058610002000000020261000000000",
        "DIMENSION": 0,
        "ETIQUETA": "00261",
        "RELACION_S": 0,
        "ESPACIO_DE": "N",
        "LOCAL_ID": "8612002000000200261",
        "CREATED_US": "GISANT",
        "CREATED_DA": "2024-02-29",
        "LAST_EDITE": "GISANT",
        "LAST_EDI_1": "2024-02-29",
        "GLOBALID": "{48EA3F20-A725-41C5-B6F0-3504A737A429}",
        "MUNICIPIO": "861",
        "LLAVE_GLOB": "M861{FF61CB26-8783-5A4A-E053-E0C8000A951B}",
        "SHAPE_AREA": 39109.788586,
        "SHAPE_LEN": 1708.12134099,
        "LABEL_ID": 4
      },
      "geometry": {
        "type": "MultiPolygon",
        "coordinates": [
          [
            [
              [
                -75.75027520242799,
                5.961642103429959
              ],
              [
                -75.7502596599485,
                5.961614781129263
              ],
              [
                -75.75023375466465,
                5.96157160410745
              ],
              [
                -75.75020713163308,
                5.961529881537835
              ],
              [
                -75.75024429898032,
                5.961521186815241
              ],
              [
                -75.75028034609834,
                5.961517429740073
              ],
              [
                -75.75033228640388,
                5.96152437399823
              ],
              [
                -75.75038191262543,
                5.96154507917438
              ],
              [
                -75.75038960025816,
                5.961548287824797
              ],
              [
                -75.75039696634393,
                5.961551470962406
              ],
              [
                -75.75042274809137,
                5.961562611036573
              ],
              [
                -75.75047152680011,
                5.961579385460242
              ],
              [
                -75.75051853728111,
                5.961588466900198
              ],
              [
                -75.75054950997952,
                5.961595697583988
              ],
              [
                -75.7506126803513,
                5.961599428143058
              ],
              [
                -75.7507021011439,
                5.961599643082346
              ],
              [
                -75.75070826383016,
                5.96159886470984
              ],
              [
                -75.75072979454602,
                5.961633846476114
              ],
              [
                -75.75077443290782,
                5.961635150654247
              ],
              [
                -75.75076871060762,
                5.961636902705662
              ],
              [
                -75.75074052230613,
                5.961641801131895
              ],
              [
                -75.75071195928355,
                5.961643432679471
              ],
              [
                -75.7506723821155,
                5.961643414371006
              ],
              [
                -75.75027726739572,
                5.961643237066405
              ],
              [
                -75.75027520242799,
                5.961642103429959
              ]
            ]
          ]
        ]
      }
    },
    {
      "type": "Feature",
      "properties": {
        "OBJECTID_1": 315503,
        "AVALUO_TER": 0,
        "AVALUO_COM": 0,
        "TERRENO_CO": "058610001000000010066000000000",
        "DIMENSION": 0,
        "ETIQUETA": "00066",
        "RELACION_S": 0,
        "ESPACIO_DE": "N",
        "LOCAL_ID": "8612001000000100066",
        "CREATED_US": "GISANT",
        "CREATED_DA": "2024-02-29",
        "LAST_EDITE": "GISANT",
        "LAST_EDI_1": "2024-02-29",
        "GLOBALID": "{FC4FF465-04C2-4290-B98D-CAF935C6DAB8}",
        "MUNICIPIO": "861",
        "LLAVE_GLOB": "M861{FF61CB26-7F4B-5A4A-E053-E0C8000A951B}",
        "SHAPE_AREA": 105348.039001,
        "SHAPE_LEN": 2091.2771553,
        "LABEL_ID": 3
      },
      "geometry": {
        "type": "MultiPolygon",
        "coordinates": [
          [
            [
              [
                -75.74995290543035,
                5.961643121408166
              ],
              [
                -75.74994969227498,
                5.961643124031143
              ],
              [
                -75.74983694562624,
                5.961643218025128
              ],
              [
                -75.74980231997412,
                5.961645782873002
              ],
              [
                -75.74976055229025,
                5.961653167195165
              ],
              [
                -75.74972597132177,
                5.961664700997217
              ],
              [
                -75.74970093710219,
                5.961674392737454
              ],
              [
                -75.74967174655144,
                5.96168888904059
              ],
              [
                -75.74964851846799,
                5.961701562088704
              ],
              [
                -75.74959627947845,
                5.961729992953931
              ],
              [
                -75.74961970433807,
                5.96171006409838
              ],
              [
                -75.74968245340881,
                5.9616502451215
              ],
              [
                -75.74972381071002,
                5.961613044528699
              ],
              [
                -75.74975582912884,
                5.96159711848559
              ],
              [
                -75.749815790233,
                5.961590596983093
              ],
              [
                -75.74987285611468,
                5.961594458460421
              ],
              [
                -75.74995290543035,
                5.961643121408166
              ]
            ]
          ]
        ]
      }
    },
    {
      "type": "Feature",
      "properties": {
        "OBJECTID_1": 315502,
        "AVALUO_TER": 0,
        "AVALUO_COM": 0,
        "TERRENO_CO": "058610001000000010094000000000",
        "DIMENSION": 0,
        "ETIQUETA": "00094",
        "RELACION_S": 0,
        "ESPACIO_DE": "N",
        "LOCAL_ID": "8612001000000100094",
        "CREATED_US": "GISANT",
        "CREATED_DA": "2024-02-29",
        "LAST_EDITE": "GISANT",
        "LAST_EDI_1": "2024-02-29",
        "GLOBALID": "{29ED9F71-154C-40C9-893A-B2E650773906}",
        "MUNICIPIO": "861",
        "LLAVE_GLOB": "M861{FF61CB26-7F4A-5A4A-E053-E0C8000A951B}",
        "SHAPE_AREA": 491.939322195,
        "SHAPE_LEN": 104.523073402,
        "LABEL_ID": 5
      },
      "geometry": {
        "type": "MultiPolygon",
        "coordinates": [
          [
            [
              [
                -75.75006296326956,
                5.961710026846189
              ],
              [
                -75.75025381444034,
                5.961710113157336
              ],
              [
                -75.75026762007535,
                5.961732457979959
              ],
              [
                -75.75018157989561,
                5.961782135112669
              ],
              [
                -75.75006296326956,
                5.961710026846189
              ]
            ]
          ]
        ]
      }
    },
    {
      "type": "Feature",
      "properties": {
        "OBJECTID_1": 316633,
        "AVALUO_TER": 0,
        "AVALUO_COM": 0,
        "TERRENO_CO": "058610002000000020118000000000",
        "DIMENSION": 0,
        "ETIQUETA": "00118",
        "RELACION_S": 0,
        "ESPACIO_DE": "N",
        "LOCAL_ID": "8612002000000200118",
        "CREATED_US": "GISANT",
        "CREATED_DA": "2024-02-29",
        "LAST_EDITE": "GISANT",
        "LAST_EDI_1": "2024-02-29",
        "GLOBALID": "{04A2C0A5-417C-4AB7-AB34-9F9A82E1380F}",
        "MUNICIPIO": "861",
        "LLAVE_GLOB": "M861{FF61CB26-841A-5A4A-E053-E0C8000A951B}",
        "SHAPE_AREA": 393.564544545,
        "SHAPE_LEN": 97.1293831997,
        "LABEL_ID": 6
      },
      "geometry": {
        "type": "MultiPolygon",
        "coordinates": [
          [
            [
              [
                -75.75095345934129,
                5.961455237469513
              ],
              [
                -75.75093663829507,
                5.961501833395386
              ],
              [
                -75.75092209614041,
                5.961527611298083
              ],
              [
                -75.75090026485765,
                5.961558762650679
              ],
              [
                -75.75088557952415,
                5.961573023809528
              ],
              [
                -75.75085988152236,
                5.961594806772127
              ],
              [
                -75.75084116506875,
                5.961606747698655
              ],
              [
                -75.75083148463784,
                5.961612923164558
              ],
              [
                -75.75080090816598,
                5.961627040443137
              ],
              [
                -75.75077443324368,
                5.961635150734534
              ],
              [
                -75.75072979454602,
                5.961633846476114
              ],
              [
                -75.75070826383016,
                5.96159886470984
              ],
              [
                -75.75078554827955,
                5.961589110743616
              ],
              [
                -75.7508416321763,
                5.961566600132454
              ],
              [
                -75.75087110348412,
                5.961541060408592
              ],
              [
                -75.75090807874493,
                5.961505608240938
              ],
              [
                -75.75095345934129,
                5.961455237469513
              ]
            ]
          ]
        ]
      }
    },
    {
      "type": "Feature",
      "properties": {
        "OBJECTID_1": 316633,
        "AVALUO_TER": 0,
        "AVALUO_COM": 0,
        "TERRENO_CO": "058610002000000020118000000000",
        "DIMENSION": 0,
        "ETIQUETA": "00118",
        "RELACION_S": 0,
        "ESPACIO_DE": "N",
        "LOCAL_ID": "8612002000000200118",
        "CREATED_US": "GISANT",
        "CREATED_DA": "2024-02-29",
        "LAST_EDITE": "GISANT",
        "LAST_EDI_1": "2024-02-29",
        "GLOBALID": "{04A2C0A5-417C-4AB7-AB34-9F9A82E1380F}",
        "MUNICIPIO": "861",
        "LLAVE_GLOB": "M861{FF61CB26-841A-5A4A-E053-E0C8000A951B}",
        "SHAPE_AREA": 393.564544545,
        "SHAPE_LEN": 97.1293831997,
        "LABEL_ID": 6
      },
      "geometry": {
        "type": "MultiPolygon",
        "coordinates": [
          [
            [
              [
                -75.75088024790904,
                5.961638242344612
              ],
              [
                -75.75089515592474,
                5.961628394638115
              ],
              [
                -75.75093976798185,
                5.961592653908876
              ],
              [
                -75.75096111336585,
                5.961567811065315
              ],
              [
                -75.75097384777268,
                5.961547243627847
              ],
              [
                -75.75098289653722,
                5.961523023591917
              ],
              [
                -75.75099097767584,
                5.961488709258446
              ],
              [
                -75.75100563201013,
                5.961407912579798
              ],
              [
                -75.75103170432884,
                5.961615911933308
              ],
              [
                -75.75097004506819,
                5.961628422702398
              ],
              [
                -75.75091086333451,
                5.961639136653071
              ],
              [
                -75.75088024790904,
                5.961638242344612
              ]
            ]
          ]
        ]
      }
    }
  ]
}