{
  "type": "FeatureCollection",
  "name": "Puente_Gabino",
  "crs": {
    "type": "name",
    "properties": {
      "name": "urn:ogc:def:crs:OGC:1.3:CRS84"
    }
  },
  "features": [
    {
      "type": "Feature",
      "properties": {
        "nombre": "Puente Gabino",
        "crs_origen_asumido": "EPSG:3116"
      },
      "geometry": {
        "type": "Polygon",
        "coordinates": [
          [
            [
              -75.20026525,
              6.57077384
            ],
            [
              -75.20026259,
              6.57077433
            ],
            [
              -75.200267,
              6.57079834
            ],
            [
              -75.20017452,
              6.5708153
            ],
            [
              -75.20017011,
              6.5707913
            ],
            [
              -75.20016736,
              6.5707913
            ],
            [
              -75.20039159,
              6.57201359
            ],
            [
              -75.20039426,
              6.5720131
            ],
            [
              -75.20038985,
              6.5719891
            ],
            [
              -75.20048237,
              6.57197212
            ],
            [
              -75.20048538,
              6.57198423
            ],
            [
              -75.20048918,
              6.57199551
            ],
            [
              -75.20049192,
              6.57199506
            ],
            [
              -75.20048798,
              6.57198344
            ],
            [
              -75.2004844,
              6.57196837
            ],
            [
              -75.20026525,
              6.57077384
            ]
          ]
        ]
      }
    }
  ]
}