{
"type": "FeatureCollection",
"name": "Puente",
"crs": { "type": "name", "properties": { "name": "urn:ogc:def:crs:EPSG::9377" } },
"features": [
{ "type": "Feature", "properties": { "Id": 0 }, "geometry": { "type": "MultiPolygon", "coordinates": [ [ [ [ 4695659.424332479946315, 2217503.572509361431003 ], [ 4695659.415999733842909, 2217493.112566666677594 ], [ 4695659.407700001262128, 2217493.479800004512072 ], [ 4695659.358799999579787, 2217493.8224 ], [ 4695659.286399999633431, 2217494.107900001108646 ], [ 4695659.1415, 2217494.486800001934171 ], [ 4695658.950400001369417, 2217494.837099999189377 ], [ 4695658.6563, 2217495.226100001484156 ], [ 4695658.304700002074242, 2217495.561000000685453 ], [ 4695657.984700001776218, 2217495.78690000064671 ], [ 4695657.423899999819696, 2217496.054700000211596 ], [ 4695656.873599998652935, 2217496.193499999120831 ], [ 4695656.307000000961125, 2217496.226200001314282 ], [ 4695607.027700001373887, 2217496.458000002428889 ], [ 4695564.334400000981987, 2217496.690400004386902 ], [ 4695563.577200000174344, 2217496.622199999168515 ], [ 4695562.767700000666082, 2217496.556000001728535 ], [ 4695561.786300000734627, 2217496.443399999290705 ], [ 4695560.534800001420081, 2217496.247700003907084 ], [ 4695559.417293987236917, 2217496.011641010642052 ], [ 4695557.865104435011744, 2217501.07757318392396 ], [ 4695557.953400000929832, 2217501.109400002285838 ], [ 4695562.171761203557253, 2217502.422348087187856 ], [ 4695566.49100000038743, 2217503.351100001484156 ], [ 4695566.769334147684276, 2217503.418820741586387 ], [ 4695567.035136793740094, 2217503.525614699814469 ], [ 4695567.282953778281808, 2217503.669290510006249 ], [ 4695567.5077, 2217503.846900003030896 ], [ 4695567.565700000151992, 2217503.846799999475479 ], [ 4695567.613500000908971, 2217503.909800000488758 ], [ 4695568.0351, 2217504.465099999681115 ], [ 4695568.126199999824166, 2217504.963500000536442 ], [ 4695568.193099999800324, 2217505.329500002786517 ], [ 4695568.45820000115782, 2217506.779100002720952 ], [ 4695571.951300001703203, 2217507.011300001293421 ], [ 4695572.101300000213087, 2217505.843400001525879 ], [ 4695572.110100001096725, 2217505.775100002065301 ], [ 4695572.176914895884693, 2217505.459379210602492 ], [ 4695572.29364095069468, 2217505.158515659160912 ], [ 4695572.457238668575883, 2217504.88034370681271 ], [ 4695572.663448034785688, 2217504.632106832694262 ], [ 4695572.906899445690215, 2217504.420269019436091 ], [ 4695573.181253529153764, 2217504.250346434302628 ], [ 4695573.479366222396493, 2217504.126763787586242 ], [ 4695573.793474798090756, 2217504.052739120554179 ], [ 4695574.11540000140667, 2217504.030200002714992 ], [ 4695574.916600000113249, 2217504.032299999147654 ], [ 4695577.448700001463294, 2217504.018500002101064 ], [ 4695580.649600000120699, 2217504.001099998131394 ], [ 4695594.609000000171363, 2217503.925200002267957 ], [ 4695598.952900001779199, 2217503.901599999517202 ], [ 4695601.078400000929832, 2217503.890000002458692 ], [ 4695602.287400000728667, 2217503.883400000631809 ], [ 4695603.039500001817942, 2217503.879300002008677 ], [ 4695603.594200000166893, 2217503.876299999654293 ], [ 4695604.096599999815226, 2217503.87360000424087 ], [ 4695605.00166667252779, 2217503.868701817467809 ], [ 4695624.450666671618819, 2217503.762801814824343 ], [ 4695654.449000001884997, 2217503.599600000306964 ], [ 4695659.424332479946315, 2217503.572509361431003 ] ] ] ] } }
]
}
