{
"type": "FeatureCollection",
"name": "Localizacion Mi Casita Venecia",
"crs": { "type": "name", "properties": { "name": "urn:ogc:def:crs:OGC:1.3:CRS84" } },
"features": [
{ "type": "Feature", "properties": { "Id": 0 }, "geometry": { "type": "MultiPolygon", "coordinates": [ [ [ [ -75.749514772230171, 5.961798107757841 ], [ -75.749596282332504, 5.961729991168212 ], [ -75.749615809409732, 5.961719582750376 ], [ -75.749648518183832, 5.961701561717435 ], [ -75.74965686103026, 5.961697932414459 ], [ -75.749671746202552, 5.961688888983518 ], [ -75.749700937225484, 5.961674392649366 ], [ -75.749725971719343, 5.961664700587271 ], [ -75.749760552382128, 5.961653167027711 ], [ -75.749802320227019, 5.961645783142337 ], [ -75.749836945572909, 5.961643218441892 ], [ -75.749978247929292, 5.961643100619296 ], [ -75.750169885319707, 5.961643187391637 ], [ -75.750230389167086, 5.961643214773585 ], [ -75.750285715531135, 5.961643239806523 ], [ -75.750440686804922, 5.961643309895297 ], [ -75.750672381813118, 5.961643414602334 ], [ -75.750711959660734, 5.961643432478498 ], [ -75.750740522475638, 5.961641801205034 ], [ -75.750768710342953, 5.961636903083814 ], [ -75.750800908548356, 5.961627040871043 ], [ -75.750831485027518, 5.961612922955539 ], [ -75.750859881601826, 5.961594807062686 ], [ -75.750885579887353, 5.961573023901397 ], [ -75.750900264927509, 5.961558763075129 ], [ -75.750922096297458, 5.96152761161947 ], [ -75.750936638619109, 5.96150183364874 ], [ -75.750953459341289, 5.961455237469513 ], [ -75.751005631120805, 5.961407915296125 ], [ -75.75099097745408, 5.961488709480884 ], [ -75.750982896163862, 5.961523023603396 ], [ -75.750973847635336, 5.96154724404579 ], [ -75.750961113191138, 5.961567810719179 ], [ -75.750939767981123, 5.961592654338849 ], [ -75.750895155494533, 5.961628394802261 ], [ -75.750870207242315, 5.961644875056595 ], [ -75.75086122632483, 5.961650807648307 ], [ -75.750839782786116, 5.961662036450504 ], [ -75.750813103351291, 5.96167432943475 ], [ -75.750781752850685, 5.961682804330912 ], [ -75.750743340988819, 5.961695045249267 ], [ -75.750701303474969, 5.961704422467888 ], [ -75.750698764479637, 5.961705500640481 ], [ -75.7506964191073, 5.961706953394884 ], [ -75.750694322324122, 5.961708746640171 ], [ -75.750692522317962, 5.961710839123215 ], [ -75.750691062514576, 5.961713181524963 ], [ -75.750689974569411, 5.961715718976269 ], [ -75.750689286369877, 5.961718392737483 ], [ -75.750686370738194, 5.961734820659508 ], [ -75.750654844005808, 5.961737076288908 ], [ -75.750653692034732, 5.961728439497795 ], [ -75.750652737028375, 5.96172305794272 ], [ -75.750650885835384, 5.961719024328162 ], [ -75.750648307205637, 5.961715601867398 ], [ -75.750643615557863, 5.961712174724933 ], [ -75.750640918615986, 5.961711070894621 ], [ -75.750635171433544, 5.961710226433663 ], [ -75.750627937808673, 5.96171028240395 ], [ -75.750456832722691, 5.961710204890834 ], [ -75.750419090158232, 5.961710187827488 ], [ -75.75035630625716, 5.961710159437217 ], [ -75.750341684706669, 5.961710152824418 ], [ -75.750253814390092, 5.961710113075942 ], [ -75.750062963044073, 5.961710026695254 ], [ -75.74985076754345, 5.961709930576347 ], [ -75.749814687408119, 5.961709914224906 ], [ -75.749780582615529, 5.961712208285112 ], [ -75.749747096647383, 5.961719079511316 ], [ -75.74971484040789, 5.961730402830208 ], [ -75.749684401120817, 5.961745972055758 ], [ -75.749514772230171, 5.961798107757841 ] ] ] ] } }
]
}
