{
"type": "FeatureCollection",
"name": "Predios afectados venecia",
"crs": { "type": "name", "properties": { "name": "urn:ogc:def:crs:OGC:1.3:CRS84" } },
"features": [
{ "type": "Feature", "properties": { "OBJECTID_1": 315503, "AVALUO_TER": 0.0, "AVALUO_COM": 0.0, "TERRENO_CO": "058610001000000010066000000000", "DIMENSION": 0, "ETIQUETA": "00066", "RELACION_S": 0, "ESPACIO_DE": "N", "LOCAL_ID": "8612001000000100066", "CREATED_US": "GISANT", "CREATED_DA": "2024-02-29", "LAST_EDITE": "GISANT", "LAST_EDI_1": "2024-02-29", "GLOBALID": "{FC4FF465-04C2-4290-B98D-CAF935C6DAB8}", "MUNICIPIO": "861", "LLAVE_GLOB": "M861{FF61CB26-7F4B-5A4A-E053-E0C8000A951B}", "SHAPE_AREA": 105348.039001, "SHAPE_LEN": 2091.2771552999998 }, "geometry": { "type": "MultiPolygon", "coordinates": [ [ [ [ -75.749514772230171, 5.961798107757841 ], [ -75.749684401120817, 5.961745972055758 ], [ -75.74971484040789, 5.961730402830208 ], [ -75.749747096647383, 5.961719079511316 ], [ -75.749780582199435, 5.961712208426658 ], [ -75.749814687350707, 5.961709914656779 ], [ -75.750062963263431, 5.96171002685629 ], [ -75.75018157989561, 5.961782135112669 ], [ -75.750267620075348, 5.961732457979959 ], [ -75.750362156951525, 5.961741268556019 ], [ -75.750401908210847, 5.961791614467127 ], [ -75.750425049685688, 5.961847801634603 ], [ -75.750428462858977, 5.961904029508802 ], [ -75.750421179540993, 5.961960207770882 ], [ -75.750404260648025, 5.962031926387949 ], [ -75.75040417187698, 5.962069004912193 ], [ -75.750405289130711, 5.962103687317862 ], [ -75.750411190019221, 5.962122840953788 ], [ -75.750435093709044, 5.962140838864213 ], [ -75.750510428903866, 5.962162048329578 ], [ -75.750558569294213, 5.962189318271512 ], [ -75.750599210032306, 5.962233161975138 ], [ -75.750618735847794, 5.962270926226056 ], [ -75.750631879336822, 5.962315398172897 ], [ -75.750642178654928, 5.962350240795004 ], [ -75.750685746665056, 5.96241313454993 ], [ -75.750729377008255, 5.962472229510253 ], [ -75.75075965925042, 5.962527493254185 ], [ -75.750769060237346, 5.962588417131741 ], [ -75.75075750717663, 5.962641667977882 ], [ -75.750725023601063, 5.962698669124372 ], [ -75.750671801668318, 5.962831837422819 ], [ -75.750628339482333, 5.962942138984065 ], [ -75.750623354772557, 5.963018934316832 ], [ -75.750587195764311, 5.963107662339913 ], [ -75.7505674239802, 5.963152418092007 ], [ -75.750312350575328, 5.963333761468115 ], [ -75.750233735125732, 5.963451123336618 ], [ -75.750116071556022, 5.963519411316835 ], [ -75.749978824498953, 5.963587652501555 ], [ -75.749875894788218, 5.963636381785848 ], [ -75.749787546887418, 5.963729230537573 ], [ -75.749635483820171, 5.96385131198228 ], [ -75.749596057600669, 5.963958971010086 ], [ -75.749585995793879, 5.96407159979449 ], [ -75.749561280131317, 5.964169498396881 ], [ -75.749477887849395, 5.964237869127699 ], [ -75.749418901522191, 5.964335685850342 ], [ -75.749394233549793, 5.964413992498216 ], [ -75.74913949956931, 5.964477050562937 ], [ -75.74860075059766, 5.96456391314655 ], [ -75.748419499973807, 5.964607557248344 ], [ -75.748248294486018, 5.964671466055782 ], [ -75.748187744334359, 5.964751027665574 ], [ -75.74816346209731, 5.964808937042596 ], [ -75.748117433917031, 5.964874041249598 ], [ -75.748032774969218, 5.964939050925961 ], [ -75.747776723210436, 5.96499398752025 ], [ -75.74735886188104, 5.965070269279677 ], [ -75.747119303750338, 5.96511437053506 ], [ -75.74693157792899, 5.965150724442496 ], [ -75.74680990254457, 5.965160946515001 ], [ -75.74670478345729, 5.965156184851404 ], [ -75.746593688553361, 5.96513788709814 ], [ -75.746449637829514, 5.965084950915395 ], [ -75.746373075414397, 5.965071242861838 ], [ -75.74627243551798, 5.965077009001719 ], [ -75.746153724377166, 5.96510376785389 ], [ -75.746029856163801, 5.965132192227879 ], [ -75.746025208210199, 5.965114972162252 ], [ -75.745985655438588, 5.965031796233881 ], [ -75.745937162687312, 5.964934163394298 ], [ -75.745884948424177, 5.96486539033745 ], [ -75.745827329389684, 5.964809276343916 ], [ -75.74567279298229, 5.964703960923349 ], [ -75.745262238932455, 5.96451705377448 ], [ -75.744773111124672, 5.964310276457984 ], [ -75.744382251899609, 5.964156599632597 ], [ -75.744163502428293, 5.964047083925285 ], [ -75.743922657933609, 5.963905264480347 ], [ -75.743726198427495, 5.963790240655673 ], [ -75.743755320620465, 5.963785703965396 ], [ -75.743798415725209, 5.963785170012142 ], [ -75.743837706744898, 5.963782764812721 ], [ -75.743865791711499, 5.96377535955676 ], [ -75.743892088393991, 5.963752949120891 ], [ -75.743910205361985, 5.963725519927133 ], [ -75.743949326558251, 5.963664101473818 ], [ -75.74397977016551, 5.963609204158825 ], [ -75.744011561273112, 5.963557840086165 ], [ -75.744039819600729, 5.963522665710633 ], [ -75.744080752532554, 5.963488233582438 ], [ -75.744134415216365, 5.963453832901835 ], [ -75.744179696556856, 5.963433234288281 ], [ -75.744261866243519, 5.963412210384879 ], [ -75.744388140505322, 5.963381783093297 ], [ -75.744463574812869, 5.963362408150793 ], [ -75.744583314927993, 5.963337603574693 ], [ -75.744678279289687, 5.963331851719932 ], [ -75.744810690818909, 5.963331657848686 ], [ -75.744849186828745, 5.963334251007456 ], [ -75.744881129453844, 5.963349842526529 ], [ -75.744910085292162, 5.963371405214631 ], [ -75.745011428080957, 5.96346847910922 ], [ -75.745082009109453, 5.9635136466206 ], [ -75.745173470194416, 5.963554868088296 ], [ -75.74526098542475, 5.963588043070734 ], [ -75.745477546284619, 5.963653683198444 ], [ -75.745628006321965, 5.963697596969531 ], [ -75.745761252005792, 5.963740562428314 ], [ -75.745891715003438, 5.963790775312484 ], [ -75.74605524482331, 5.963866751786072 ], [ -75.746148239093998, 5.963921040428129 ], [ -75.746260966023513, 5.963992091456315 ], [ -75.746312822496435, 5.96403598717392 ], [ -75.746379182718229, 5.964101828537851 ], [ -75.746403720433037, 5.964137447309043 ], [ -75.74641459753343, 5.964170312957555 ], [ -75.746428103914681, 5.964237840023208 ], [ -75.746438918442507, 5.964296219674011 ], [ -75.746460681863908, 5.964336415530837 ], [ -75.746481579951521, 5.964367466608659 ], [ -75.746519766954833, 5.964411354571913 ], [ -75.74659676766565, 5.964477932840593 ], [ -75.746705047275242, 5.96455443695567 ], [ -75.746762106501635, 5.964582439212712 ], [ -75.746838289945941, 5.964598750759434 ], [ -75.746907159972963, 5.96459744514848 ], [ -75.746993638264698, 5.964584445543532 ], [ -75.747115378611824, 5.964552488086254 ], [ -75.747163779506451, 5.964536478491175 ], [ -75.747237144297145, 5.964488277703507 ], [ -75.747486778178654, 5.964295344386557 ], [ -75.747585341955855, 5.964225736492165 ], [ -75.747631981208826, 5.964183425605139 ], [ -75.747650682634386, 5.964151391333712 ], [ -75.747672496079502, 5.964105907617656 ], [ -75.747700648854064, 5.96402730602357 ], [ -75.747711147432952, 5.963956970797387 ], [ -75.747704498142099, 5.963793709845533 ], [ -75.747698889484496, 5.963717747367717 ], [ -75.747709477585545, 5.963675717727573 ], [ -75.74772944148215, 5.963639567709742 ], [ -75.747768060154016, 5.963591750117755 ], [ -75.747833620904231, 5.963533507213315 ], [ -75.747965030816161, 5.963429617691054 ], [ -75.748048199395186, 5.963361245564115 ], [ -75.748098459325192, 5.963309924815565 ], [ -75.748157948524934, 5.963238875840054 ], [ -75.748242540966658, 5.963142789007244 ], [ -75.748316549002411, 5.963065181551761 ], [ -75.748393193947379, 5.962976990806538 ], [ -75.748553345796111, 5.962786879907333 ], [ -75.748651786665647, 5.962681441960748 ], [ -75.748735369883448, 5.962592311696106 ], [ -75.748838303740115, 5.962483870019267 ], [ -75.748950225783716, 5.962347191353691 ], [ -75.749172671372335, 5.962113925733242 ], [ -75.749209655950878, 5.962072695393845 ], [ -75.749265827778061, 5.96201379245056 ], [ -75.749333126283432, 5.961949768094658 ], [ -75.749420331977433, 5.96187322106648 ], [ -75.749514772230171, 5.961798107757841 ] ] ] ] } },
{ "type": "Feature", "properties": { "OBJECTID_1": 316634, "AVALUO_TER": 0.0, "AVALUO_COM": 0.0, "TERRENO_CO": "058610002000000020119000000000", "DIMENSION": 0, "ETIQUETA": "00119", "RELACION_S": 0, "ESPACIO_DE": "N", "LOCAL_ID": "8612002000000200119", "CREATED_US": "GISANT", "CREATED_DA": "2024-02-29", "LAST_EDITE": "GISANT", "LAST_EDI_1": "2024-02-29", "GLOBALID": "{5D524160-9688-4B8D-A320-E763DC0ECA84}", "MUNICIPIO": "861", "LLAVE_GLOB": "M861{FF61CB26-841B-5A4A-E053-E0C8000A951B}", "SHAPE_AREA": 1009.24424448, "SHAPE_LEN": 153.43283419100001 }, "geometry": { "type": "MultiPolygon", "coordinates": [ [ [ [ -75.750970045068186, 5.961628422702398 ], [ -75.751031704328852, 5.961615911933274 ], [ -75.751005631120805, 5.961407915296125 ], [ -75.751095622537505, 5.961339134679521 ], [ -75.751089210634589, 5.961379936584754 ], [ -75.751096650471908, 5.961427439996327 ], [ -75.751111904111383, 5.96145003077581 ], [ -75.751123025356478, 5.961470088493831 ], [ -75.7511284915918, 5.961482102034227 ], [ -75.751142005562812, 5.961502186665466 ], [ -75.751149276270013, 5.961514491305709 ], [ -75.751155360111881, 5.961526695208308 ], [ -75.751163359951462, 5.961557940663233 ], [ -75.751171364261879, 5.961596240661946 ], [ -75.751176921805808, 5.961644138564152 ], [ -75.751186498037683, 5.961729896260184 ], [ -75.751184585102294, 5.961756385755486 ], [ -75.75118272342786, 5.961783196807312 ], [ -75.751181659349385, 5.961835074522988 ], [ -75.751181996332178, 5.961887820278077 ], [ -75.751185318473233, 5.961913638178485 ], [ -75.751171993412612, 5.961917505955097 ], [ -75.75115062847108, 5.961921581143937 ], [ -75.751136434755594, 5.961927783690572 ], [ -75.75110118384309, 5.961936586418443 ], [ -75.751086761868507, 5.961938294671485 ], [ -75.751069758256833, 5.961943012479606 ], [ -75.751060295299027, 5.96194554206476 ], [ -75.751014195656651, 5.96196124746453 ], [ -75.750970045068186, 5.961628422702398 ] ] ] ] } },
{ "type": "Feature", "properties": { "OBJECTID_1": 317396, "AVALUO_TER": 0.0, "AVALUO_COM": 0.0, "TERRENO_CO": "058610002000000020261000000000", "DIMENSION": 0, "ETIQUETA": "00261", "RELACION_S": 0, "ESPACIO_DE": "N", "LOCAL_ID": "8612002000000200261", "CREATED_US": "GISANT", "CREATED_DA": "2024-02-29", "LAST_EDITE": "GISANT", "LAST_EDI_1": "2024-02-29", "GLOBALID": "{48EA3F20-A725-41C5-B6F0-3504A737A429}", "MUNICIPIO": "861", "LLAVE_GLOB": "M861{FF61CB26-8783-5A4A-E053-E0C8000A951B}", "SHAPE_AREA": 39109.788586000002, "SHAPE_LEN": 1708.1213409899999 }, "geometry": { "type": "MultiPolygon", "coordinates": [ [ [ [ -75.750326163872757, 5.961449687955697 ], [ -75.750305272387422, 5.961446406955701 ], [ -75.750284566373992, 5.961450631584523 ], [ -75.750256174595904, 5.961456008295469 ], [ -75.7501927525403, 5.961486383878442 ], [ -75.750191353350061, 5.961477737174563 ], [ -75.750189423563569, 5.961467879995013 ], [ -75.750189023901854, 5.961447105172703 ], [ -75.750182856822775, 5.961426165710558 ], [ -75.750165088132448, 5.961404722835485 ], [ -75.750151340098569, 5.961388574308278 ], [ -75.750141651905466, 5.961365652853948 ], [ -75.750141402135327, 5.96136390582586 ], [ -75.750149370315441, 5.961331733548263 ], [ -75.750150803919155, 5.961330617217562 ], [ -75.750165502128269, 5.961325458070213 ], [ -75.750184092111411, 5.961318935281108 ], [ -75.750239850593417, 5.961301596155459 ], [ -75.750292343184711, 5.961276602261265 ], [ -75.750340629388489, 5.961251621240878 ], [ -75.750362705825694, 5.961235234101036 ], [ -75.750370903527411, 5.961212706025915 ], [ -75.750368872390439, 5.961192112918408 ], [ -75.750356541319888, 5.961178211816219 ], [ -75.750329600999194, 5.961165034548107 ], [ -75.750293417993305, 5.961154924510526 ], [ -75.75026644640495, 5.961154859460886 ], [ -75.750228672089321, 5.961155528154908 ], [ -75.750213718362986, 5.961155792683043 ], [ -75.750206302240827, 5.961151626271982 ], [ -75.750173218080519, 5.961133043214043 ], [ -75.750151673235294, 5.961110615790134 ], [ -75.750133234260971, 5.961075869835286 ], [ -75.750122797551342, 5.961056199172379 ], [ -75.75012251684339, 5.96104190069119 ], [ -75.750121866775601, 5.961008739128885 ], [ -75.750121258142798, 5.960977732421282 ], [ -75.750131973964827, 5.960970973257662 ], [ -75.750155121980569, 5.960956373346288 ], [ -75.75012507029335, 5.960916536384572 ], [ -75.750180369421727, 5.960873150811477 ], [ -75.750061141765443, 5.960368820917483 ], [ -75.749932647283984, 5.960057831052591 ], [ -75.749640616370073, 5.959222151371518 ], [ -75.749319722848412, 5.958320553077958 ], [ -75.749098482877372, 5.957671199538798 ], [ -75.748913544355702, 5.957140542004765 ], [ -75.748914035459791, 5.957139624736984 ], [ -75.748936377485435, 5.957152662409259 ], [ -75.748978329686992, 5.957177145025906 ], [ -75.749254560518509, 5.957314515185104 ], [ -75.749520963625727, 5.957381843114908 ], [ -75.749614933028781, 5.95750604145 ], [ -75.749734718660008, 5.957576350036463 ], [ -75.749931084560941, 5.957670182693948 ], [ -75.750090862500571, 5.95773725239277 ], [ -75.750111627967627, 5.957743178204094 ], [ -75.750107300351601, 5.957748393109298 ], [ -75.750081577010789, 5.95777939838845 ], [ -75.750050683725661, 5.957891594139309 ], [ -75.750046327453674, 5.958010714703939 ], [ -75.750081610724393, 5.958221467064064 ], [ -75.750159302721613, 5.958477807260004 ], [ -75.74993655855728, 5.958439641861442 ], [ -75.749972236664661, 5.958621976899143 ], [ -75.750028277559878, 5.958922427703602 ], [ -75.750065699903232, 5.959154384602591 ], [ -75.75010325988282, 5.959329311205429 ], [ -75.750159998273531, 5.959447280575964 ], [ -75.750243284726196, 5.959569112896652 ], [ -75.750334122719082, 5.959717578168134 ], [ -75.75037182870193, 5.95983170302998 ], [ -75.750383068165689, 5.959973727271566 ], [ -75.750418813208796, 5.960057776025859 ], [ -75.750472649761534, 5.960102852009757 ], [ -75.750601460235075, 5.960131482748753 ], [ -75.75072178794936, 5.960158227659412 ], [ -75.750906849772932, 5.960175509139486 ], [ -75.751044839460306, 5.960175841279689 ], [ -75.751031942324943, 5.960600176852178 ], [ -75.750809332209556, 5.960637630318879 ], [ -75.750759874597207, 5.961268510139714 ], [ -75.750821541003077, 5.961273197371923 ], [ -75.750931088940845, 5.961291459803907 ], [ -75.750942894460096, 5.961312587121451 ], [ -75.750988627541034, 5.961343261671122 ], [ -75.750944212684828, 5.96137400246432 ], [ -75.750890793823686, 5.96140986854621 ], [ -75.750850141315325, 5.961456756203122 ], [ -75.750829097414751, 5.961474339574837 ], [ -75.750808563851976, 5.961492510687804 ], [ -75.750742686920645, 5.961512370972264 ], [ -75.750664240933204, 5.961531452453682 ], [ -75.750574562413632, 5.96153042883495 ], [ -75.750432946719016, 5.961490660231484 ], [ -75.750369740162895, 5.961462274985108 ], [ -75.750326163872757, 5.961449687955697 ] ] ], [ [ [ -75.750435093709029, 5.96214083886418 ], [ -75.750411190019236, 5.962122840953805 ], [ -75.750405289130725, 5.962103687317847 ], [ -75.75040417187698, 5.962069004912159 ], [ -75.750404260648025, 5.962031926387932 ], [ -75.750421179540993, 5.961960207770866 ], [ -75.750428462858977, 5.961904029508802 ], [ -75.750425049685703, 5.961847801634585 ], [ -75.750401908210847, 5.961791614467111 ], [ -75.750362156951525, 5.961741268556003 ], [ -75.750328152968535, 5.961710233433033 ], [ -75.750627937808659, 5.96171028240395 ], [ -75.75063517218598, 5.961710226371814 ], [ -75.750638079449459, 5.961710415239251 ], [ -75.750640918615986, 5.961711070894605 ], [ -75.750643615557863, 5.961712174724933 ], [ -75.750646099709243, 5.961713698155789 ], [ -75.750648307672904, 5.961715601729318 ], [ -75.750650180520807, 5.96171783692566 ], [ -75.750651670100467, 5.961720343419493 ], [ -75.750652737274251, 5.961723058128609 ], [ -75.750653354596466, 5.961725908872637 ], [ -75.750654844005808, 5.961737076288891 ], [ -75.750686370738222, 5.961734820659508 ], [ -75.750689286369891, 5.961718392737448 ], [ -75.750689974569411, 5.961715718976269 ], [ -75.750691062514576, 5.961713181524963 ], [ -75.75069252251015, 5.961710839279889 ], [ -75.750694322324122, 5.961708746640171 ], [ -75.750696419770691, 5.96170695353484 ], [ -75.750698764493407, 5.961705500894074 ], [ -75.75070130339131, 5.961704422430033 ], [ -75.750703977002928, 5.961703743750901 ], [ -75.750743340988834, 5.961695045249267 ], [ -75.750781752850699, 5.961682804330895 ], [ -75.750813104118436, 5.961674329366579 ], [ -75.75086122693466, 5.961650807212733 ], [ -75.750880251764698, 5.961638241910094 ], [ -75.750910863334525, 5.961639136653056 ], [ -75.750970045068186, 5.961628422702398 ], [ -75.751014195656651, 5.96196124746453 ], [ -75.751060295299027, 5.96194554206476 ], [ -75.751069758256833, 5.961943012479606 ], [ -75.751086761868507, 5.961938294671485 ], [ -75.75110118384309, 5.961936586418443 ], [ -75.751136434755594, 5.961927783690572 ], [ -75.75115062847108, 5.961921581143937 ], [ -75.751171993412612, 5.961917505955097 ], [ -75.751185318473233, 5.961913638178485 ], [ -75.751198369260166, 5.96196522840278 ], [ -75.751219553526582, 5.962079935510657 ], [ -75.751227658534717, 5.962126475571803 ], [ -75.751085712108932, 5.962121451991774 ], [ -75.750934309011072, 5.96214449231728 ], [ -75.750947885028694, 5.962334949334275 ], [ -75.750631879336822, 5.962315398172881 ], [ -75.750618735847809, 5.962270926226038 ], [ -75.750599210032306, 5.962233161975121 ], [ -75.750558569294213, 5.962189318271496 ], [ -75.750510428903851, 5.962162048329578 ], [ -75.750435093709029, 5.96214083886418 ] ] ] ] } },
{ "type": "Feature", "properties": { "OBJECTID_1": 315502, "AVALUO_TER": 0.0, "AVALUO_COM": 0.0, "TERRENO_CO": "058610001000000010094000000000", "DIMENSION": 0, "ETIQUETA": "00094", "RELACION_S": 0, "ESPACIO_DE": "N", "LOCAL_ID": "8612001000000100094", "CREATED_US": "GISANT", "CREATED_DA": "2024-02-29", "LAST_EDITE": "GISANT", "LAST_EDI_1": "2024-02-29", "GLOBALID": "{29ED9F71-154C-40C9-893A-B2E650773906}", "MUNICIPIO": "861", "LLAVE_GLOB": "M861{FF61CB26-7F4A-5A4A-E053-E0C8000A951B}", "SHAPE_AREA": 491.93932219499999, "SHAPE_LEN": 104.52307340199999 }, "geometry": { "type": "MultiPolygon", "coordinates": [ [ [ [ -75.749952901800128, 5.961643119683289 ], [ -75.749872858832219, 5.961594460254766 ], [ -75.750170173370776, 5.961574737581986 ], [ -75.750212479087367, 5.961643210665176 ], [ -75.749952901800128, 5.961643119683289 ] ] ] ] } },
{ "type": "Feature", "properties": { "OBJECTID_1": 317396, "AVALUO_TER": 0.0, "AVALUO_COM": 0.0, "TERRENO_CO": "058610002000000020261000000000", "DIMENSION": 0, "ETIQUETA": "00261", "RELACION_S": 0, "ESPACIO_DE": "N", "LOCAL_ID": "8612002000000200261", "CREATED_US": "GISANT", "CREATED_DA": "2024-02-29", "LAST_EDITE": "GISANT", "LAST_EDI_1": "2024-02-29", "GLOBALID": "{48EA3F20-A725-41C5-B6F0-3504A737A429}", "MUNICIPIO": "861", "LLAVE_GLOB": "M861{FF61CB26-8783-5A4A-E053-E0C8000A951B}", "SHAPE_AREA": 39109.788586000002, "SHAPE_LEN": 1708.1213409899999 }, "geometry": { "type": "MultiPolygon", "coordinates": [ [ [ [ -75.750275202427986, 5.961642103429959 ], [ -75.750259659948497, 5.961614781129263 ], [ -75.750233754664649, 5.96157160410745 ], [ -75.750207131633076, 5.961529881537835 ], [ -75.75024429898032, 5.961521186815241 ], [ -75.750280346098336, 5.961517429740073 ], [ -75.750332286403875, 5.96152437399823 ], [ -75.750381912625429, 5.96154507917438 ], [ -75.75038960025816, 5.961548287824797 ], [ -75.750396966343928, 5.961551470962406 ], [ -75.750422748091367, 5.961562611036573 ], [ -75.750471526800112, 5.961579385460242 ], [ -75.75051853728111, 5.961588466900198 ], [ -75.750549509979521, 5.961595697583988 ], [ -75.750612680351296, 5.961599428143058 ], [ -75.750702101143901, 5.961599643082346 ], [ -75.750708263830163, 5.96159886470984 ], [ -75.750729794546018, 5.961633846476114 ], [ -75.750774432907818, 5.961635150654247 ], [ -75.750768710607616, 5.961636902705662 ], [ -75.750740522306131, 5.961641801131895 ], [ -75.750711959283549, 5.961643432679471 ], [ -75.750672382115496, 5.961643414371006 ], [ -75.750277267395717, 5.961643237066405 ], [ -75.750275202427986, 5.961642103429959 ] ] ] ] } },
{ "type": "Feature", "properties": { "OBJECTID_1": 315503, "AVALUO_TER": 0.0, "AVALUO_COM": 0.0, "TERRENO_CO": "058610001000000010066000000000", "DIMENSION": 0, "ETIQUETA": "00066", "RELACION_S": 0, "ESPACIO_DE": "N", "LOCAL_ID": "8612001000000100066", "CREATED_US": "GISANT", "CREATED_DA": "2024-02-29", "LAST_EDITE": "GISANT", "LAST_EDI_1": "2024-02-29", "GLOBALID": "{FC4FF465-04C2-4290-B98D-CAF935C6DAB8}", "MUNICIPIO": "861", "LLAVE_GLOB": "M861{FF61CB26-7F4B-5A4A-E053-E0C8000A951B}", "SHAPE_AREA": 105348.039001, "SHAPE_LEN": 2091.2771552999998 }, "geometry": { "type": "MultiPolygon", "coordinates": [ [ [ [ -75.749952905430348, 5.961643121408166 ], [ -75.749949692274981, 5.961643124031143 ], [ -75.749836945626242, 5.961643218025128 ], [ -75.749802319974123, 5.961645782873002 ], [ -75.749760552290255, 5.961653167195165 ], [ -75.749725971321766, 5.961664700997217 ], [ -75.74970093710219, 5.961674392737454 ], [ -75.749671746551442, 5.96168888904059 ], [ -75.749648518467993, 5.961701562088704 ], [ -75.749596279478453, 5.961729992953931 ], [ -75.749619704338073, 5.96171006409838 ], [ -75.749682453408809, 5.9616502451215 ], [ -75.749723810710023, 5.961613044528699 ], [ -75.749755829128844, 5.96159711848559 ], [ -75.749815790233001, 5.961590596983093 ], [ -75.749872856114678, 5.961594458460421 ], [ -75.749952905430348, 5.961643121408166 ] ] ] ] } },
{ "type": "Feature", "properties": { "OBJECTID_1": 315502, "AVALUO_TER": 0.0, "AVALUO_COM": 0.0, "TERRENO_CO": "058610001000000010094000000000", "DIMENSION": 0, "ETIQUETA": "00094", "RELACION_S": 0, "ESPACIO_DE": "N", "LOCAL_ID": "8612001000000100094", "CREATED_US": "GISANT", "CREATED_DA": "2024-02-29", "LAST_EDITE": "GISANT", "LAST_EDI_1": "2024-02-29", "GLOBALID": "{29ED9F71-154C-40C9-893A-B2E650773906}", "MUNICIPIO": "861", "LLAVE_GLOB": "M861{FF61CB26-7F4A-5A4A-E053-E0C8000A951B}", "SHAPE_AREA": 491.93932219499999, "SHAPE_LEN": 104.52307340199999 }, "geometry": { "type": "MultiPolygon", "coordinates": [ [ [ [ -75.750062963269556, 5.961710026846189 ], [ -75.750253814440342, 5.961710113157336 ], [ -75.750267620075348, 5.961732457979959 ], [ -75.75018157989561, 5.961782135112669 ], [ -75.750062963269556, 5.961710026846189 ] ] ] ] } },
{ "type": "Feature", "properties": { "OBJECTID_1": 316633, "AVALUO_TER": 0.0, "AVALUO_COM": 0.0, "TERRENO_CO": "058610002000000020118000000000", "DIMENSION": 0, "ETIQUETA": "00118", "RELACION_S": 0, "ESPACIO_DE": "N", "LOCAL_ID": "8612002000000200118", "CREATED_US": "GISANT", "CREATED_DA": "2024-02-29", "LAST_EDITE": "GISANT", "LAST_EDI_1": "2024-02-29", "GLOBALID": "{04A2C0A5-417C-4AB7-AB34-9F9A82E1380F}", "MUNICIPIO": "861", "LLAVE_GLOB": "M861{FF61CB26-841A-5A4A-E053-E0C8000A951B}", "SHAPE_AREA": 393.56454454499999, "SHAPE_LEN": 97.129383199700001 }, "geometry": { "type": "MultiPolygon", "coordinates": [ [ [ [ -75.750953459341289, 5.961455237469513 ], [ -75.750936638295073, 5.961501833395386 ], [ -75.750922096140414, 5.961527611298083 ], [ -75.750900264857648, 5.961558762650679 ], [ -75.750885579524152, 5.961573023809528 ], [ -75.750859881522359, 5.961594806772127 ], [ -75.750841165068749, 5.961606747698655 ], [ -75.750831484637843, 5.961612923164558 ], [ -75.750800908165985, 5.961627040443137 ], [ -75.750774433243677, 5.961635150734534 ], [ -75.750729794546018, 5.961633846476114 ], [ -75.750708263830163, 5.96159886470984 ], [ -75.750785548279552, 5.961589110743616 ], [ -75.750841632176304, 5.961566600132454 ], [ -75.750871103484116, 5.961541060408592 ], [ -75.750908078744928, 5.961505608240938 ], [ -75.750953459341289, 5.961455237469513 ] ] ] ] } },
{ "type": "Feature", "properties": { "OBJECTID_1": 316633, "AVALUO_TER": 0.0, "AVALUO_COM": 0.0, "TERRENO_CO": "058610002000000020118000000000", "DIMENSION": 0, "ETIQUETA": "00118", "RELACION_S": 0, "ESPACIO_DE": "N", "LOCAL_ID": "8612002000000200118", "CREATED_US": "GISANT", "CREATED_DA": "2024-02-29", "LAST_EDITE": "GISANT", "LAST_EDI_1": "2024-02-29", "GLOBALID": "{04A2C0A5-417C-4AB7-AB34-9F9A82E1380F}", "MUNICIPIO": "861", "LLAVE_GLOB": "M861{FF61CB26-841A-5A4A-E053-E0C8000A951B}", "SHAPE_AREA": 393.56454454499999, "SHAPE_LEN": 97.129383199700001 }, "geometry": { "type": "MultiPolygon", "coordinates": [ [ [ [ -75.750880247909038, 5.961638242344612 ], [ -75.750895155924738, 5.961628394638115 ], [ -75.750939767981848, 5.961592653908876 ], [ -75.750961113365847, 5.961567811065315 ], [ -75.750973847772684, 5.961547243627847 ], [ -75.750982896537224, 5.961523023591917 ], [ -75.750990977675841, 5.961488709258446 ], [ -75.751005632010134, 5.961407912579798 ], [ -75.751031704328838, 5.961615911933308 ], [ -75.750970045068186, 5.961628422702398 ], [ -75.750910863334511, 5.961639136653071 ], [ -75.750880247909038, 5.961638242344612 ] ] ] ] } }
]
}
