{
"type": "FeatureCollection",
"name": "predio 2 puente gavino",
"crs": { "type": "name", "properties": { "name": "urn:ogc:def:crs:EPSG::3116" } },
"features": [
{ "type": "Feature", "properties": { "DPTO": null, "MPIO": null, "CORREG": null, "BARRIO": null, "VEREDA": null, "PREDIO": null, "CODCATAS": null, "MATRICULA": null, "PROP": null, "Shape_Leng": 0.0, "SHAPE_AREA": 2779.4274463299998 }, "geometry": { "type": "MultiPolygon", "coordinates": [ [ [ [ 875815.780000001192093, 1218664.217000000178814 ], [ 875852.494300001300871, 1218608.86260000243783 ], [ 875813.28309999871999, 1218592.602600002661347 ], [ 875798.329400000162423, 1218586.410200003534555 ], [ 875790.782199999317527, 1218631.019100002944469 ], [ 875771.048100000247359, 1218640.84400000423193 ], [ 875807.145000000484288, 1218658.260000003501773 ], [ 875810.894000003114343, 1218660.083000000566244 ], [ 875815.780000001192093, 1218664.217000000178814 ] ], [ [ 875813.250725066289306, 1218642.369748158380389 ], [ 875819.711112535558641, 1218630.94294192455709 ], [ 875819.180998946540058, 1218630.655967362225056 ], [ 875822.599723285064101, 1218624.975849773734808 ], [ 875830.52219545096159, 1218629.56930972263217 ], [ 875827.494994284585118, 1218635.28598015755415 ], [ 875827.407664169557393, 1218635.448628487065434 ], [ 875826.370678594335914, 1218637.432318160310388 ], [ 875827.878125540912151, 1218638.428724521771073 ], [ 875819.663836176507175, 1218652.751766335219145 ], [ 875815.973840458318591, 1218650.678178479894996 ], [ 875815.259280074387789, 1218650.279436428099871 ], [ 875818.052064082585275, 1218644.882743988186121 ], [ 875813.250725066289306, 1218642.369748158380389 ] ], [ [ 875813.253999999724329, 1218627.200999999418855 ], [ 875806.290094588883221, 1218639.31833703443408 ], [ 875801.558000000193715, 1218636.721000000834465 ], [ 875808.730999998748302, 1218624.551000000908971 ], [ 875813.253999999724329, 1218627.200999999418855 ] ] ] ] } }
]
}
