{
"type": "FeatureCollection",
"name": "predio con permiso venecia4",
"crs": { "type": "name", "properties": { "name": "urn:ogc:def:crs:OGC:1.3:CRS84" } },
"features": [
{ "type": "Feature", "properties": { "Id": 0, "area": 496.46369288599999 }, "geometry": { "type": "MultiPolygon", "coordinates": [ [ [ [ -75.749514775195209, 5.96179810674676 ], [ -75.749527228471763, 5.961788202175391 ], [ -75.749536948134804, 5.961780471752034 ], [ -75.749619704338059, 5.961710064098431 ], [ -75.749682453408781, 5.961650245121501 ], [ -75.749723810710009, 5.961613044528665 ], [ -75.749755829128816, 5.961597118485623 ], [ -75.749815790232987, 5.961590596983125 ], [ -75.749872858832234, 5.961594460254799 ], [ -75.749952852192848, 5.961643089115246 ], [ -75.75006296304403, 5.961710026695322 ], [ -75.749859845310709, 5.961709934690097 ], [ -75.74985076754345, 5.961709930576415 ], [ -75.749814687408119, 5.96170991422489 ], [ -75.749780582615514, 5.961712208285112 ], [ -75.749760861016398, 5.961716255190065 ], [ -75.749747096988827, 5.961719079591036 ], [ -75.749714840504652, 5.961730402974814 ], [ -75.749692378556773, 5.961741891715198 ], [ -75.749684400749658, 5.96174597216933 ], [ -75.749514775195209, 5.96179810674676 ] ] ] ] } }
]
}
