{
"type": "FeatureCollection",
"name": "predio con permiso venecia",
"crs": { "type": "name", "properties": { "name": "urn:ogc:def:crs:OGC:1.3:CRS84" } },
"features": [
{ "type": "Feature", "properties": { "OBJECTID_1": 315502, "AVALUO_TER": 0.0, "AVALUO_COM": 0.0, "TERRENO_CO": "058610001000000010094000000000", "DIMENSION": 0, "ETIQUETA": "00094", "RELACION_S": 0, "ESPACIO_DE": "N", "LOCAL_ID": "8612001000000100094", "CREATED_US": "GISANT", "CREATED_DA": "2024-02-29", "LAST_EDITE": "GISANT", "LAST_EDI_1": "2024-02-29", "GLOBALID": "{29ED9F71-154C-40C9-893A-B2E650773906}", "MUNICIPIO": "861", "LLAVE_GLOB": "M861{FF61CB26-7F4A-5A4A-E053-E0C8000A951B}", "SHAPE_AREA": 373.68093719900003, "SHAPE_LEN": 104.52307340199999 }, "geometry": { "type": "MultiPolygon", "coordinates": [ [ [ [ -75.75018157989561, 5.961782135112669 ], [ -75.749872858832219, 5.961594460254766 ], [ -75.750170173370776, 5.961574737581986 ], [ -75.750267620075348, 5.961732457979959 ], [ -75.75018157989561, 5.961782135112669 ] ], [ [ -75.750199039484912, 5.961693385722225 ], [ -75.750146884464201, 5.961610893345697 ], [ -75.750038716617595, 5.961617036464744 ], [ -75.750090867264248, 5.96169952708172 ], [ -75.750199039484912, 5.961693385722225 ] ], [ [ -75.74999470525259, 5.96161661448641 ], [ -75.749994795337031, 5.961634693415101 ], [ -75.750017368675074, 5.961634582919856 ], [ -75.750017276321529, 5.961616501742912 ], [ -75.74999470525259, 5.96161661448641 ] ] ] ] } }
]
}
