{
"type": "FeatureCollection",
"name": "Puente_Verdun",
"crs": { "type": "name", "properties": { "name": "urn:ogc:def:crs:EPSG::9377" } },
"features": [
{ "type": "Feature", "properties": { "Id": 0 }, "geometry": { "type": "MultiPolygon", "coordinates": [ [ [ [ 4684236.248986147344112, 2176705.674432136118412 ], [ 4684234.997213480994105, 2176704.703056549653411 ], [ 4684232.75819001160562, 2176702.965574339032173 ], [ 4684230.188964057713747, 2176706.288812257349491 ], [ 4684229.21154113765806, 2176708.885964581742883 ], [ 4684228.876424708403647, 2176711.148000478744507 ], [ 4684229.071909291669726, 2176713.856858281418681 ], [ 4684233.28879102319479, 2176739.325706886127591 ], [ 4684234.51755126286298, 2176748.066660413518548 ], [ 4684234.62925674021244, 2176759.823661796748638 ], [ 4684239.460518591105938, 2176759.767809059470892 ], [ 4684238.874064840376377, 2176745.10646528750658 ], [ 4684238.538948412053287, 2176738.515842182561755 ], [ 4684234.489624894224107, 2176713.186625422909856 ], [ 4684234.964373169466853, 2176709.472418334335089 ], [ 4684236.248986147344112, 2176705.674432136118412 ] ] ] ] } }
]
}
