{"type": "FeatureCollection", "name": "Area_Intervenidas_Visor", "crs": {"type": "name", "properties": {"name": "urn:ogc:def:crs:OGC:1.3:CRS84"}}, "features": [{"type": "Feature", "properties": {"Proyecto": "Granada 0+900", "Municipio": "El Santuario", "Sector": "R", "Matricula": "018-92739", "Terreno_Codigo": "056970001000000070241000000000", "Propietario": "AVICOLA SAN MARTIN S.A", "Area_Total": 38922.0, "Area_Requerida": 1947.73, "Area_Sobrante": 36974.27, "Etiqueta": "241", "Fuente_Financiacion": "Recursos Propios", "Permiso_Intervencion": "NO"}, "geometry": {"type": "Polygon", "coordinates": [[[-75.244835053, 6.126455303], [-75.244828562, 6.126528018], [-75.244801274, 6.126518292], [-75.244748858, 6.12650615], [-75.24470385, 6.126488317], [-75.244663358, 6.126467915], [-75.244622817, 6.126447631], [-75.244581288, 6.126429825], [-75.244542531, 6.126414474], [-75.244505897, 6.126395388], [-75.244465847, 6.126387512], [-75.244424987, 6.12638722], [-75.244384578, 6.126388029], [-75.244344203, 6.126388584], [-75.244303915, 6.126392711], [-75.244263614, 6.126398776], [-75.244224013, 6.126409044], [-75.24418805, 6.126428786], [-75.244153772, 6.12645051], [-75.244118886, 6.126470702], [-75.244085831, 6.12649392], [-75.244053951, 6.12651902], [-75.244024105, 6.126546784], [-75.243990567, 6.126572598], [-75.243965315, 6.126605841], [-75.243943152, 6.12664139], [-75.243925622, 6.126679475], [-75.243909272, 6.126718227], [-75.243900332, 6.12675933], [-75.243897312, 6.126801202], [-75.243891482, 6.126842416], [-75.243891262, 6.126885952], [-75.243889646, 6.126931134], [-75.243890564, 6.126970025], [-75.243846651, 6.126977293], [-75.243806997, 6.126983855], [-75.243791754, 6.126986311], [-75.243789451, 6.126986683], [-75.243788938, 6.126974352], [-75.243793257, 6.126929226], [-75.243797316, 6.126884094], [-75.243795782, 6.126836748], [-75.243808858, 6.126788506], [-75.243825298, 6.126742078], [-75.24383581, 6.126694745], [-75.243849334, 6.126647869], [-75.243868153, 6.126602709], [-75.243894089, 6.126561234], [-75.243916801, 6.126517345], [-75.243946345, 6.126477722], [-75.24397842, 6.126439746], [-75.24401277, 6.126403182], [-75.244055377, 6.126376784], [-75.244095223, 6.126346158], [-75.244139237, 6.126321793], [-75.244184676, 6.126299493], [-75.244230813, 6.126276198], [-75.244280996, 6.126265462], [-75.244332027, 6.126260722], [-75.244383034, 6.126255876], [-75.244434467, 6.126254985], [-75.244486618, 6.126254434], [-75.244540414, 6.126253168], [-75.244588695, 6.12627581], [-75.244627597, 6.126313521], [-75.244678776, 6.126307087], [-75.244683909, 6.126308672], [-75.244714758, 6.126352223], [-75.244739032, 6.126386492], [-75.244741677, 6.126389797], [-75.24474469, 6.126392771], [-75.244748029, 6.126395372], [-75.244835053, 6.126455303]]]}}, {"type": "Feature", "properties": {"Proyecto": "Granada 0+900", "Municipio": "El Santuario", "Sector": "R", "Matricula": "018-13343", "Terreno_Codigo": "056970001000000070270000000000", "Propietario": "MARY ZULUAGA CARDONA", "Area_Total": 31192.0, "Area_Requerida": 655.53, "Area_Sobrante": 30536.47, "Etiqueta": "270", "Fuente_Financiacion": "Recursos Propios", "Permiso_Intervencion": "NO"}, "geometry": {"type": "Polygon", "coordinates": [[[-75.239469503, 6.129529587], [-75.23934962, 6.129582889], [-75.239335179, 6.129590729], [-75.239286942, 6.129508738], [-75.239240611, 6.129419685], [-75.239173627, 6.129300963], [-75.23914127, 6.129267144], [-75.239101322, 6.129243062], [-75.239049586, 6.129229512], [-75.23902964, 6.129230607], [-75.23896293, 6.129239757], [-75.238904337, 6.129255015], [-75.238880676, 6.129266165], [-75.238833869, 6.12929384], [-75.238737431, 6.129363992], [-75.238637657, 6.129437668], [-75.238585171, 6.129465361], [-75.238532005, 6.129474455], [-75.238519536, 6.129472129], [-75.238530246, 6.12946359], [-75.238572524, 6.129445114], [-75.238610198, 6.129420139], [-75.238647446, 6.129394567], [-75.238684686, 6.129368984], [-75.238722, 6.129343505], [-75.238758306, 6.129316602], [-75.238793667, 6.129288366], [-75.238814648, 6.129239843], [-75.238877403, 6.129251538], [-75.238878007, 6.129251108], [-75.238919127, 6.129224123], [-75.238968147, 6.129205116], [-75.239020258, 6.129198182], [-75.239072533, 6.129203763], [-75.239133895, 6.12919773], [-75.239174752, 6.129240005], [-75.239207698, 6.129284617], [-75.239244012, 6.129320812], [-75.239277975, 6.129353432], [-75.239309303, 6.129387562], [-75.239330983, 6.129420924], [-75.239352042, 6.129455078], [-75.239421566, 6.129458153], [-75.239445911, 6.129495399], [-75.239460984, 6.129519768], [-75.239469503, 6.129529587]]]}}, {"type": "Feature", "properties": {"Proyecto": "Granada 0+900", "Municipio": "El Santuario", "Sector": "R", "Matricula": "018-SM", "Terreno_Codigo": "056970001000000200321000000000", "Propietario": "LA NACIÓN", "Area_Total": 73920.0, "Area_Requerida": 849.09, "Area_Sobrante": 73070.91, "Etiqueta": "321", "Fuente_Financiacion": "Recursos Propios", "Permiso_Intervencion": "NO"}, "geometry": {"type": "Polygon", "coordinates": [[[-75.243638369, 6.127773652], [-75.243639441, 6.127747198], [-75.243650844, 6.127703265], [-75.24367105, 6.1276625], [-75.243678186, 6.127617032], [-75.243694035, 6.127574698], [-75.24371092, 6.127532737], [-75.243727884, 6.127490805], [-75.243749428, 6.127450519], [-75.243764499, 6.127410007], [-75.24377401, 6.127369114], [-75.243782017, 6.127328012], [-75.243787654, 6.127286539], [-75.243790819, 6.127244798], [-75.243792493, 6.127200488], [-75.243793184, 6.127155288], [-75.243792822, 6.127110069], [-75.243792323, 6.127064846], [-75.243790821, 6.127019603], [-75.243789451, 6.126986683], [-75.243791754, 6.126986311], [-75.243806997, 6.126983855], [-75.243846651, 6.126977293], [-75.243890564, 6.126970025], [-75.243890714, 6.126976366], [-75.24388968, 6.12702156], [-75.243889057, 6.127026828], [-75.243884351, 6.127066667], [-75.24385996, 6.127216137], [-75.24385667, 6.12732051], [-75.243854402, 6.127392435], [-75.243851028, 6.127403812], [-75.243793585, 6.1275975], [-75.243739839, 6.127690249], [-75.243707806, 6.127785998], [-75.243704905, 6.12779282], [-75.243638369, 6.127773652]]]}}, {"type": "Feature", "properties": {"Proyecto": "Granada 0+900", "Municipio": "El Santuario", "Sector": "R", "Matricula": "018-21496", "Terreno_Codigo": "056970001000000070238000000000", "Propietario": "ARACELLY ZULUAGA GOMEZ", "Area_Total": 16906.0, "Area_Requerida": 131.39, "Area_Sobrante": 16774.61, "Etiqueta": "238", "Fuente_Financiacion": "Recursos Propios", "Permiso_Intervencion": "NO"}, "geometry": {"type": "MultiPolygon", "coordinates": [[[[-75.244926451, 6.126408297], [-75.244911788, 6.126403752], [-75.244941632, 6.126405307], [-75.244980429, 6.126399531], [-75.245017011, 6.126385268], [-75.24505138, 6.126366462], [-75.24508264, 6.126343046], [-75.245110894, 6.126316322], [-75.245126986, 6.126297643], [-75.24509256, 6.126344436], [-75.245075418, 6.126361016], [-75.245040381, 6.126385569], [-75.245021728, 6.126393663], [-75.245008047, 6.1263996], [-75.245000294, 6.126402964], [-75.244993385, 6.126403981], [-75.244974997, 6.126406688], [-75.244965175, 6.126408135], [-75.244926451, 6.126408297]]], [[[-75.245874923, 6.125552535], [-75.245880222, 6.125548653], [-75.245877971, 6.125553154], [-75.24583728, 6.125594828], [-75.245830261, 6.125602018], [-75.245801345, 6.125623598], [-75.245791644, 6.125630838], [-75.245698718, 6.125700188], [-75.245657895, 6.125729321], [-75.245537842, 6.125814992], [-75.245533985, 6.125818559], [-75.245496161, 6.125853541], [-75.245467958, 6.125879625], [-75.245461877, 6.125885249], [-75.2454555, 6.125891148], [-75.245376966, 6.125963781], [-75.245375679, 6.125964972], [-75.245311857, 6.126041905], [-75.2452732, 6.126088502], [-75.245254376, 6.126111193], [-75.245247064, 6.126122241], [-75.245203125, 6.126188629], [-75.245193114, 6.126203755], [-75.245167525, 6.126242418], [-75.245166721, 6.126243634], [-75.245150115, 6.126266205], [-75.24514392, 6.126274626], [-75.245158209, 6.126251806], [-75.245182469, 6.126213671], [-75.245207407, 6.126175984], [-75.245232425, 6.126138348], [-75.245255939, 6.126099725], [-75.245282415, 6.126061128], [-75.245310944, 6.126022695], [-75.245341874, 6.125986195], [-75.245374407, 6.125951178], [-75.245409105, 6.125918359], [-75.24544448, 6.125886353], [-75.245480631, 6.125855156], [-75.245515569, 6.125826366], [-75.245550999, 6.125798331], [-75.24558674, 6.125770695], [-75.245622728, 6.12574338], [-75.24565925, 6.125716753], [-75.245695164, 6.125689343], [-75.245730465, 6.125661142], [-75.245766344, 6.125633685], [-75.245802051, 6.125606007], [-75.245838356, 6.1255791], [-75.245874923, 6.125552535]]]]}}, {"type": "Feature", "properties": {"Proyecto": "Granada 0+900", "Municipio": "El Santuario", "Sector": "R", "Matricula": "018-74899", "Terreno_Codigo": "056970001000000200014000000000", "Propietario": "ISAMAR ADRIANA QUINTERO QUINTERO", "Area_Total": 5506.0, "Area_Requerida": 327.89, "Area_Sobrante": 5178.11, "Etiqueta": "14", "Fuente_Financiacion": "Recursos Propios", "Permiso_Intervencion": "NO"}, "geometry": {"type": "Polygon", "coordinates": [[[-75.239335179, 6.129590729], [-75.23934962, 6.129582889], [-75.239469503, 6.129529587], [-75.239480183, 6.129541896], [-75.239502551, 6.129562175], [-75.23952402, 6.12961034], [-75.23955967, 6.129641446], [-75.239597246, 6.129668187], [-75.23961378, 6.129675315], [-75.239595105, 6.129685127], [-75.239541154, 6.129712547], [-75.239516588, 6.129725032], [-75.239492307, 6.1297172], [-75.239466953, 6.129709022], [-75.239434519, 6.129693084], [-75.239429774, 6.129689283], [-75.239392615, 6.129659515], [-75.239355609, 6.129614853], [-75.239335179, 6.129590729]]]}}, {"type": "Feature", "properties": {"Proyecto": "Granada 0+900", "Municipio": "El Santuario", "Sector": "R", "Matricula": "018-73794", "Terreno_Codigo": "056970001000000200013000000000", "Propietario": "JOSE ALONSO GIRALDO ARISTIZABAL", "Area_Total": 6209.0, "Area_Requerida": 732.93, "Area_Sobrante": 5476.07, "Etiqueta": "13", "Fuente_Financiacion": "Recursos Propios", "Permiso_Intervencion": "NO"}, "geometry": {"type": "Polygon", "coordinates": [[[-75.24296154, 6.12844685], [-75.243058254, 6.128515385], [-75.243057007, 6.128516431], [-75.243028577, 6.128552741], [-75.242996771, 6.128585081], [-75.242963655, 6.128612968], [-75.242935281, 6.128643401], [-75.242909077, 6.128675558], [-75.242884244, 6.1287086], [-75.242859973, 6.128742012], [-75.242835635, 6.128779425], [-75.242811842, 6.128817857], [-75.242788123, 6.128856336], [-75.242770747, 6.128883038], [-75.242767814, 6.128879061], [-75.242714853, 6.128797884], [-75.242699598, 6.128774502], [-75.242689359, 6.128758807], [-75.242688352, 6.128757002], [-75.242696229, 6.128743127], [-75.242720182, 6.1287048], [-75.242745596, 6.128666609], [-75.242772468, 6.128624444], [-75.242803392, 6.128585109], [-75.242837322, 6.12854834], [-75.2428736, 6.128513927], [-75.242910168, 6.128483265], [-75.242947081, 6.128456928], [-75.24296154, 6.12844685]]]}}, {"type": "Feature", "properties": {"Proyecto": "Granada 0+900", "Municipio": "El Santuario", "Sector": "R", "Matricula": "018-153855", "Terreno_Codigo": "056970001000000200282000000000", "Propietario": "VICTOR EDUARDO ARISTIZABAL ARISTIZABAL", "Area_Total": 9451.0, "Area_Requerida": 131.61, "Area_Sobrante": 9319.39, "Etiqueta": "282", "Fuente_Financiacion": "Recursos Propios", "Permiso_Intervencion": "SI"}, "geometry": {"type": "Polygon", "coordinates": [[[-75.243851028, 6.127403812], [-75.243854402, 6.127392435], [-75.24385667, 6.12732051], [-75.24385996, 6.127216137], [-75.243879121, 6.127098713], [-75.243884351, 6.127066667], [-75.243890094, 6.127111993], [-75.243908085, 6.127157563], [-75.243909672, 6.127202806], [-75.24390701, 6.127249123], [-75.243901929, 6.127298459], [-75.243890221, 6.127346659], [-75.243858621, 6.127389587], [-75.243855372, 6.127407488], [-75.243851028, 6.127403812]]]}}, {"type": "Feature", "properties": {"Proyecto": "Granada 0+900", "Municipio": "El Santuario", "Sector": "R", "Matricula": "018-51823", "Terreno_Codigo": "056970001000000200032000000000", "Propietario": "DUVER OSVALDO BOTERO RAMIREZ", "Area_Total": 25689.0, "Area_Requerida": 350.17, "Area_Sobrante": 25338.83, "Etiqueta": "32", "Fuente_Financiacion": "Recursos Propios", "Permiso_Intervencion": "NO"}, "geometry": {"type": "Polygon", "coordinates": [[[-75.238454673, 6.129530149], [-75.238484921, 6.129557492], [-75.238491311, 6.129564994], [-75.23850848, 6.129585149], [-75.238534385, 6.129632391], [-75.238493553, 6.129646188], [-75.238455597, 6.129670764], [-75.238417791, 6.129695551], [-75.238378954, 6.129718881], [-75.238339253, 6.129740994], [-75.238301545, 6.129765918], [-75.238262, 6.129792589], [-75.238218064, 6.129817756], [-75.238217322, 6.12981813], [-75.238202405, 6.129788478], [-75.238207208, 6.129783938], [-75.238233385, 6.129759195], [-75.238276078, 6.129718839], [-75.238324498, 6.129673071], [-75.238339017, 6.129655936], [-75.23837359, 6.129615132], [-75.238413088, 6.129559096], [-75.238423042, 6.129544973], [-75.238432022, 6.129532233], [-75.238438922, 6.129522444], [-75.238449532, 6.129525502], [-75.238454673, 6.129530149]]]}}, {"type": "Feature", "properties": {"Proyecto": "Granada 0+900", "Municipio": "El Santuario", "Sector": "R", "Matricula": "018-64771", "Terreno_Codigo": "056970001000000200012000000000", "Propietario": "FRANCISCO DE PAULA GIRALDO ARISTIZABAL", "Area_Total": 12335.0, "Area_Requerida": 1153.56, "Area_Sobrante": 11181.44, "Etiqueta": "12", "Fuente_Financiacion": "Recursos Propios", "Permiso_Intervencion": "NO"}, "geometry": {"type": "Polygon", "coordinates": [[[-75.24296154, 6.12844685], [-75.242984319, 6.128430974], [-75.243021656, 6.128405138], [-75.243059176, 6.128379516], [-75.24309548, 6.128352466], [-75.243127031, 6.128319827], [-75.243165386, 6.128295186], [-75.243205066, 6.128272107], [-75.243242726, 6.128246649], [-75.243271384, 6.128210607], [-75.243304309, 6.128179584], [-75.243337236, 6.128148564], [-75.243370794, 6.128118282], [-75.243405861, 6.128089778], [-75.243441782, 6.128062275], [-75.243477983, 6.128035103], [-75.243511554, 6.128010414], [-75.243542217, 6.127982978], [-75.243568079, 6.127950827], [-75.24358321, 6.127912148], [-75.243589468, 6.127870869], [-75.24359885, 6.127828666], [-75.243637522, 6.127794541], [-75.243638369, 6.127773652], [-75.243704905, 6.12779282], [-75.24370547, 6.127792982], [-75.243702643, 6.127798142], [-75.243687263, 6.12783431], [-75.243614208, 6.128006116], [-75.243592125, 6.128057216], [-75.243569299, 6.128068218], [-75.243535677, 6.128102933], [-75.243501472, 6.12813245], [-75.243466393, 6.128160944], [-75.243430933, 6.128188984], [-75.243401019, 6.128223549], [-75.243389878, 6.128280185], [-75.243364142, 6.128319659], [-75.243322204, 6.128340086], [-75.243278284, 6.128358186], [-75.2432341, 6.128375971], [-75.243189662, 6.12839346], [-75.243158673, 6.12842676], [-75.243125177, 6.128457114], [-75.243091611, 6.128487382], [-75.243058254, 6.128515385], [-75.24296154, 6.12844685]]]}}, {"type": "Feature", "properties": {"Proyecto": "Granada 0+900", "Municipio": "El Santuario", "Sector": "R", "Matricula": "018-109482", "Terreno_Codigo": "056970001000000200287000000000", "Propietario": "LUIS DANILO BOTERO ARISTIZABAL", "Area_Total": 8708.0, "Area_Requerida": 814.43, "Area_Sobrante": 7893.57, "Etiqueta": "287", "Fuente_Financiacion": "Recursos Propios", "Permiso_Intervencion": "NO"}, "geometry": {"type": "Polygon", "coordinates": [[[-75.242483909, 6.129305436], [-75.242482427, 6.129305225], [-75.24247508, 6.12930417], [-75.242382238, 6.129290829], [-75.242382088, 6.129239614], [-75.242408029, 6.12920257], [-75.242434943, 6.129166156], [-75.242465239, 6.129131929], [-75.242495537, 6.129097702], [-75.242527984, 6.129064865], [-75.242553985, 6.129027859], [-75.242570162, 6.128984505], [-75.242586863, 6.128941489], [-75.242605205, 6.128899536], [-75.242627452, 6.128860104], [-75.242650488, 6.128821184], [-75.242673188, 6.128783639], [-75.242745545, 6.128894546], [-75.242751726, 6.128902927], [-75.242754675, 6.128906925], [-75.242752687, 6.128909926], [-75.242739309, 6.128930114], [-75.24272646, 6.128949506], [-75.242721616, 6.128960624], [-75.242701317, 6.128986841], [-75.242684441, 6.12901128], [-75.242664141, 6.129040551], [-75.242639306, 6.129076225], [-75.242611826, 6.129121662], [-75.242581469, 6.129171856], [-75.242570372, 6.129205303], [-75.242559489, 6.129238107], [-75.242542892, 6.129288129], [-75.242537851, 6.129300297], [-75.24253281, 6.129312464], [-75.242529039, 6.129311811], [-75.242483909, 6.129305436]]]}}, {"type": "Feature", "properties": {"Proyecto": "Granada 0+900", "Municipio": "El Santuario", "Sector": "R", "Matricula": "018-8690", "Terreno_Codigo": "056970001000000070237000000000", "Propietario": "EDGAR NICOLAS ECHEVERRY HOYOS", "Area_Total": 21782.0, "Area_Requerida": 114.82, "Area_Sobrante": 21667.18, "Etiqueta": "237", "Fuente_Financiacion": "Recursos Propios", "Permiso_Intervencion": "NO"}, "geometry": {"type": "Polygon", "coordinates": [[[-75.24552574, 6.125921738], [-75.245589822, 6.125873761], [-75.245618025, 6.125852646], [-75.245697078, 6.125793461], [-75.24590527, 6.125638968], [-75.245915801, 6.125635682], [-75.245915834, 6.125635675], [-75.245926727, 6.125634166], [-75.245928712, 6.125634218], [-75.245898591, 6.125656926], [-75.245862758, 6.125684439], [-75.24582694, 6.125711976], [-75.245791144, 6.125739538], [-75.245755345, 6.125767099], [-75.245720439, 6.125795812], [-75.245688186, 6.125827952], [-75.245654462, 6.125858191], [-75.245619653, 6.125887029], [-75.245584189, 6.125915021], [-75.245547408, 6.125941178], [-75.245532346, 6.125961011], [-75.24552574, 6.125921738]]]}}, {"type": "Feature", "properties": {"Proyecto": "Granada 0+900", "Municipio": "El Santuario", "Sector": "R", "Matricula": "018-99233", "Terreno_Codigo": "6972001000002000163", "Propietario": "WILFER SALAZAR RAMIREZ", "Area_Total": 15914.0, "Area_Requerida": 2265.33, "Area_Sobrante": 13648.67, "Etiqueta": "163", "Fuente_Financiacion": "Recursos Propios", "Permiso_Intervencion": "NO"}, "geometry": {"type": "Polygon", "coordinates": [[[-75.23961378, 6.129675315], [-75.239638726, 6.12968607], [-75.239679691, 6.129705124], [-75.239722678, 6.129719592], [-75.239769697, 6.129724911], [-75.239811404, 6.129742284], [-75.239853413, 6.129758967], [-75.239893872, 6.129779167], [-75.239937215, 6.129792824], [-75.239981586, 6.129804154], [-75.240031546, 6.129802805], [-75.240075285, 6.129815566], [-75.240107386, 6.12985472], [-75.240139674, 6.129878457], [-75.240173123, 6.129898201], [-75.240209537, 6.129915092], [-75.240248778, 6.129928141], [-75.240289314, 6.129926718], [-75.240329472, 6.129920516], [-75.240368062, 6.129907878], [-75.240404629, 6.129890625], [-75.240437356, 6.129867115], [-75.240467447, 6.129841218], [-75.240504345, 6.129811913], [-75.240546638, 6.129784398], [-75.240595308, 6.129769686], [-75.240640539, 6.129749196], [-75.240683047, 6.129712965], [-75.240731541, 6.129683156], [-75.240785665, 6.129686194], [-75.240838838, 6.12968949], [-75.240890655, 6.129701204], [-75.240940286, 6.129718753], [-75.240989576, 6.129735146], [-75.241029172, 6.129763447], [-75.24106541, 6.12977094], [-75.241065763, 6.12977213], [-75.241135171, 6.129892935], [-75.241161054, 6.129924044], [-75.241119528, 6.129920733], [-75.241073809, 6.129902781], [-75.241027812, 6.129886718], [-75.240986046, 6.12986421], [-75.240943866, 6.129853158], [-75.240904698, 6.129847536], [-75.24086574, 6.129846617], [-75.240827864, 6.129846502], [-75.240790658, 6.129851874], [-75.24075306, 6.129847708], [-75.240712745, 6.129839821], [-75.240669887, 6.129834915], [-75.240630343, 6.129846115], [-75.240597062, 6.129870507], [-75.240561775, 6.129890727], [-75.240525809, 6.129915438], [-75.240483536, 6.129941552], [-75.240439504, 6.129963897], [-75.240394084, 6.129983063], [-75.240346896, 6.129997651], [-75.240298057, 6.130005054], [-75.240248789, 6.130010125], [-75.240198572, 6.130013602], [-75.240146526, 6.130016086], [-75.240095152, 6.130007209], [-75.240048337, 6.129988645], [-75.240013199, 6.129956376], [-75.239976064, 6.12992864], [-75.239935204, 6.129909347], [-75.239893797, 6.129891301], [-75.239852352, 6.129873332], [-75.239810705, 6.129855829], [-75.239769151, 6.129838113], [-75.239727607, 6.129820373], [-75.239686119, 6.129802507], [-75.239644876, 6.129784085], [-75.239603493, 6.129765982], [-75.239562626, 6.129746704], [-75.239521796, 6.129727347], [-75.239516588, 6.129725032], [-75.239596028, 6.129684641], [-75.239605039, 6.129679907], [-75.23961378, 6.129675315]]]}}, {"type": "Feature", "properties": {"Proyecto": "Granada 0+900", "Municipio": "El Santuario", "Sector": "R", "Matricula": "018-175053", "Terreno_Codigo": "6972001000002000016", "Propietario": "WILFER SALAZAR RAMIREZ", "Area_Total": 15232.0, "Area_Requerida": 730.17, "Area_Sobrante": 14501.83, "Etiqueta": "16", "Fuente_Financiacion": "Recursos Propios", "Permiso_Intervencion": "SI"}, "geometry": {"type": "Polygon", "coordinates": [[[-75.241161054, 6.129924044], [-75.241135171, 6.129892935], [-75.241065763, 6.12977213], [-75.24106541, 6.12977094], [-75.241071904, 6.129772282], [-75.241110237, 6.129787203], [-75.241149136, 6.129801222], [-75.241189127, 6.129812205], [-75.241229899, 6.129820447], [-75.241271009, 6.129830182], [-75.241313001, 6.129833], [-75.241355111, 6.129831952], [-75.241396855, 6.12982635], [-75.241437895, 6.129817217], [-75.241478134, 6.129805528], [-75.241522291, 6.129797449], [-75.24156672, 6.12978872], [-75.241610544, 6.129777756], [-75.241631799, 6.129771486], [-75.24163183, 6.129771502], [-75.241689303, 6.129799418], [-75.241704884, 6.129820913], [-75.241715963, 6.129845641], [-75.241678835, 6.129857071], [-75.24163496, 6.129867842], [-75.241592239, 6.129882879], [-75.241548879, 6.129895555], [-75.241504638, 6.129906496], [-75.241456927, 6.12991395], [-75.241409764, 6.12992373], [-75.24136189, 6.129929537], [-75.241313672, 6.129930144], [-75.241265609, 6.129927362], [-75.241217191, 6.129927672], [-75.24116862, 6.129924647], [-75.241161054, 6.129924044]]]}}, {"type": "Feature", "properties": {"Proyecto": "Granada 0+900", "Municipio": "El Santuario", "Sector": "R", "Matricula": "018-99234", "Terreno_Codigo": "6972001000002000015", "Propietario": "WILFER SALAZAR RAMIREZ", "Area_Total": 23929.0, "Area_Requerida": 1067.88, "Area_Sobrante": 22861.12, "Etiqueta": "15", "Fuente_Financiacion": "Recursos Propios", "Permiso_Intervencion": "NO"}, "geometry": {"type": "Polygon", "coordinates": [[[-75.241631799, 6.129771486], [-75.241653875, 6.129764974], [-75.241697295, 6.129752515], [-75.241740797, 6.129740368], [-75.241784332, 6.129728342], [-75.241827866, 6.129716309], [-75.241871392, 6.129704243], [-75.241914746, 6.129691546], [-75.241958086, 6.129678798], [-75.242005063, 6.129679465], [-75.242047483, 6.129666552], [-75.242085213, 6.129652325], [-75.242120879, 6.129633642], [-75.24215391, 6.129610728], [-75.242184632, 6.129584804], [-75.242210994, 6.129554467], [-75.242234731, 6.12952104], [-75.242259697, 6.129483367], [-75.242286571, 6.129446927], [-75.242309941, 6.129408223], [-75.242332204, 6.129368802], [-75.242356964, 6.129330995], [-75.242382246, 6.129293526], [-75.242382238, 6.129290829], [-75.24247508, 6.12930417], [-75.242482427, 6.129305225], [-75.242483909, 6.129305436], [-75.2424574, 6.129342103], [-75.24243717, 6.129382838], [-75.242416506, 6.129423292], [-75.242391568, 6.129460981], [-75.242362351, 6.129495908], [-75.242334713, 6.129531855], [-75.242307879, 6.12956832], [-75.242282597, 6.129611795], [-75.242249122, 6.129650819], [-75.242205236, 6.129677995], [-75.242160669, 6.129701571], [-75.242115722, 6.129722906], [-75.242069034, 6.129739805], [-75.242028138, 6.129764608], [-75.241984246, 6.129775321], [-75.241940322, 6.129785911], [-75.241896488, 6.129796846], [-75.241853256, 6.129809987], [-75.241809834, 6.129822435], [-75.241766413, 6.129834883], [-75.241722027, 6.129843774], [-75.241715963, 6.129845641], [-75.241704884, 6.129820913], [-75.241689303, 6.129799418], [-75.24163183, 6.129771502], [-75.241631799, 6.129771486]]]}}, {"type": "Feature", "properties": {"Proyecto": "Granada 0+900", "Municipio": "El Santuario", "Sector": "R", "Matricula": "018-12539", "Terreno_Codigo": "6970001000000200031", "Propietario": "MARGARITA N. SALAZAR DE MONTOYA", "Area_Total": 5172.0, "Area_Requerida": 418.87, "Area_Sobrante": 4753.13, "Etiqueta": "31", "Fuente_Financiacion": "Recursos Propios", "Permiso_Intervencion": "SI"}, "geometry": {"type": "Polygon", "coordinates": [[[-75.238903303, 6.129364915], [-75.238892798, 6.129372246], [-75.238866253, 6.129390767], [-75.23882826, 6.129415291], [-75.238789994, 6.129439428], [-75.238754212, 6.129467069], [-75.238709724, 6.129482428], [-75.238670481, 6.129505187], [-75.238637068, 6.129536169], [-75.238624962, 6.129597213], [-75.238590364, 6.129626523], [-75.238538226, 6.129631093], [-75.238534386, 6.12963239], [-75.238508479, 6.129585149], [-75.238491311, 6.129564994], [-75.23848492, 6.129557492], [-75.238454672, 6.129530148], [-75.238449532, 6.129525502], [-75.238438922, 6.129522444], [-75.238451739, 6.129501661], [-75.238464344, 6.129504786], [-75.23847716, 6.12951], [-75.238500318, 6.129519421], [-75.238536411, 6.129520985], [-75.238588875, 6.129506504], [-75.238626152, 6.12948672], [-75.238688409, 6.129449642], [-75.238778568, 6.129372424], [-75.238817523, 6.12934556], [-75.238902652, 6.129300479], [-75.238938869, 6.129291823], [-75.238918773, 6.129308619], [-75.238918207, 6.129309103], [-75.238903303, 6.129364915]]]}}, {"type": "Feature", "properties": {"Proyecto": "Granada 0+900", "Municipio": "El Santuario", "Sector": "R", "Matricula": "018-154200", "Terreno_Codigo": "6970001000000070409", "Propietario": "AURA NELLY ARISTIZABAL DE ARISTIZABAL", "Area_Total": 7249.0, "Area_Requerida": 392.76, "Area_Sobrante": 6856.24, "Etiqueta": "409", "Fuente_Financiacion": "Recursos Propios", "Permiso_Intervencion": "NO"}, "geometry": {"type": "Polygon", "coordinates": [[[-75.245504367, 6.125988232], [-75.245487496, 6.126000824], [-75.2454533, 6.126026269], [-75.245422832, 6.126055883], [-75.245398564, 6.126090797], [-75.245376987, 6.126127324], [-75.245359059, 6.126167392], [-75.245339496, 6.126208606], [-75.245310009, 6.126243309], [-75.245279262, 6.126277187], [-75.245248101, 6.126310791], [-75.245217562, 6.126349299], [-75.245183559, 6.126388088], [-75.245144027, 6.126421064], [-75.245101981, 6.126450555], [-75.245055905, 6.126473129], [-75.245007744, 6.126490454], [-75.244958142, 6.126503285], [-75.244908014, 6.126529695], [-75.244853416, 6.126536877], [-75.244828561, 6.126528019], [-75.244835053, 6.126455303], [-75.244837599, 6.126456905], [-75.244843386, 6.126459569], [-75.244889759, 6.126476039], [-75.244907373, 6.126482294], [-75.244911852, 6.126483567], [-75.244916458, 6.126484252], [-75.244921113, 6.126484339], [-75.244972737, 6.126481969], [-75.244977506, 6.126481431], [-75.244981912, 6.126480344], [-75.245042073, 6.12646143], [-75.245043745, 6.126460859], [-75.245049676, 6.126458031], [-75.245108567, 6.126422476], [-75.245113245, 6.126419114], [-75.245116642, 6.126415833], [-75.245171609, 6.126355308], [-75.245172647, 6.126354113], [-75.245173471, 6.126353085], [-75.245231246, 6.126278191], [-75.245232233, 6.126276849], [-75.245294255, 6.126188301], [-75.24529489, 6.126187363], [-75.245349101, 6.126104558], [-75.245352288, 6.126099691], [-75.245369941, 6.126078038], [-75.245416233, 6.126021256], [-75.245425639, 6.126011942], [-75.245488796, 6.125949398], [-75.245505579, 6.125936833], [-75.24552574, 6.125921738], [-75.245532346, 6.125961011], [-75.245521237, 6.125975639], [-75.245504367, 6.125988232]]]}}, {"type": "Feature", "properties": {"Proyecto": "San Antonio de Prado", "Municipio": "Medellin", "Sector": "U", "Matricula": "001-507922", "Terreno_Codigo": "050010080000400000041", "Propietario": "OLIVIA RESTREPO Y OTROS", "Area_Total": 4845.0, "Area_Requerida": 10.28, "Area_Sobrante": 4834.72, "Etiqueta": "41", "Fuente_Financiacion": "Regalías", "Permiso_Intervencion": "SI"}, "geometry": {"type": "Polygon", "coordinates": [[[-75.664346717, 6.189923319], [-75.664343488, 6.189949199], [-75.664318893, 6.1899576], [-75.664309651, 6.18993049], [-75.664346717, 6.189923319]]]}}, {"type": "Feature", "properties": {"Proyecto": "San Antonio de Prado", "Municipio": "Medellin", "Sector": "U", "Matricula": "001-507923", "Terreno_Codigo": "050010008800400000238", "Propietario": "LUIS FERNANDO ESTRADA G.", "Area_Total": 2368.0, "Area_Requerida": 34.73, "Area_Sobrante": 2333.27, "Etiqueta": "238", "Fuente_Financiacion": "Regalías", "Permiso_Intervencion": "SI"}, "geometry": {"type": "Polygon", "coordinates": [[[-75.664346717, 6.189923319], [-75.664394711, 6.189907306], [-75.664426281, 6.189892856], [-75.664454692, 6.189875923], [-75.664457936, 6.189873302], [-75.664468342, 6.189892898], [-75.664396589, 6.189931061], [-75.664343488, 6.189949199], [-75.664346717, 6.189923319]]]}}, {"type": "Feature", "properties": {"Proyecto": "Mi Casita Venecia", "Municipio": "Venecia", "Sector": "R", "Matricula": "010-15312", "Terreno_Codigo": "058612002000000200261000000000", "Propietario": "RAMON ALBERTO AGUDELO VERGARA", "Area_Total": 27198.0, "Area_Requerida": 222.02, "Area_Sobrante": 26975.98, "Etiqueta": "261", "Fuente_Financiacion": "Regalías", "Permiso_Intervencion": "NO"}, "geometry": {"type": "Polygon", "coordinates": [[[-75.750292952, 5.961600248], [-75.750285295, 5.961583664], [-75.75025627, 5.961552026], [-75.750238398, 5.961534499], [-75.750254228, 5.961529108], [-75.750268346, 5.961524301], [-75.750310264, 5.961515449], [-75.750337273, 5.961517001], [-75.750354951, 5.961520519], [-75.750366618, 5.96152388], [-75.750419293, 5.961549189], [-75.750460575, 5.961561703], [-75.750494313, 5.96156873], [-75.750522186, 5.961574923], [-75.750561327, 5.96158187], [-75.750637116, 5.96158958], [-75.750656562, 5.961593113], [-75.750692006, 5.96159302], [-75.750704875, 5.961592395], [-75.750705506, 5.961593569], [-75.750654995, 5.961600396], [-75.750643706, 5.961600731], [-75.750591481, 5.961602282], [-75.750501202, 5.961603505], [-75.750410927, 5.961598132], [-75.750403603, 5.961608751], [-75.750402033, 5.961610754], [-75.750401764, 5.961610997], [-75.750400142, 5.961612459], [-75.750397988, 5.961613812], [-75.750395632, 5.961614774], [-75.750393148, 5.961615318], [-75.750391671, 5.961615382], [-75.750391438, 5.96160037], [-75.750391364, 5.961600293], [-75.750376492, 5.961600286], [-75.750292952, 5.961600248]]]}}, {"type": "Feature", "properties": {"Proyecto": "Mi Casita Venecia", "Municipio": "Venecia", "Sector": "R", "Matricula": "010-12231", "Terreno_Codigo": "058612001000000100084000000000", "Propietario": "LIBARDO ERNESTO VELASQUEZ ZAPATA", "Area_Total": 11000.0, "Area_Requerida": 73.33, "Area_Sobrante": 10926.67, "Etiqueta": "84", "Fuente_Financiacion": "Regalías", "Permiso_Intervencion": "SI"}, "geometry": {"type": "Polygon", "coordinates": [[[-75.750000443, 5.961492845], [-75.750006028, 5.961491956], [-75.750007797, 5.961491975], [-75.750008947, 5.961526905], [-75.750042004, 5.961526921], [-75.750151108, 5.961526969], [-75.750144193, 5.961529925], [-75.750106835, 5.961548503], [-75.750086068, 5.961551615], [-75.75004917, 5.961550553], [-75.750041168, 5.961550113], [-75.750016452, 5.961548754], [-75.749968476, 5.961545851], [-75.749926693, 5.961541641], [-75.749887349, 5.961540626], [-75.749885596, 5.961539575], [-75.749949361, 5.961520461], [-75.74999011, 5.961497355], [-75.749990193, 5.96149731], [-75.749995085, 5.961494663], [-75.750000443, 5.961492845]]]}}, {"type": "Feature", "properties": {"Proyecto": "Mi Casita Venecia", "Municipio": "Venecia", "Sector": "R", "Matricula": "010-2244", "Terreno_Codigo": "058610001000000010094000000000", "Propietario": "MIGUEL ZAPATA", "Area_Total": 10000.0, "Area_Requerida": 58.97, "Area_Sobrante": 9941.03, "Etiqueta": "94", "Fuente_Financiacion": "Regalías", "Permiso_Intervencion": "SI"}, "geometry": {"type": "Polygon", "coordinates": [[[-75.750049806, 5.961611255], [-75.749979184, 5.961595667], [-75.750015796, 5.961593722], [-75.750059527, 5.961595067], [-75.750091512, 5.961593493], [-75.750107253, 5.961591202], [-75.750134405, 5.961585171], [-75.750147909, 5.961584595], [-75.75016183, 5.961584002], [-75.750181972, 5.961565091], [-75.750197473, 5.961550538], [-75.750204967, 5.961563418], [-75.750213912, 5.961578792], [-75.750214628, 5.961579864], [-75.75021493, 5.961580317], [-75.750216078, 5.961582035], [-75.750216743, 5.961583029], [-75.750217407, 5.961584024], [-75.750218555, 5.961585743], [-75.750218856, 5.961586194], [-75.750222178, 5.961591169], [-75.750224291, 5.961594333], [-75.750227979, 5.961599854], [-75.750228223, 5.961600219], [-75.750147761, 5.961600183], [-75.750130202, 5.961600175], [-75.750130223, 5.961617694], [-75.750128778, 5.961617696], [-75.750049806, 5.961611255]]]}}, {"type": "Feature", "properties": {"Proyecto": "Concordia Majagual", "Municipio": "Betulia", "Sector": "R", "Matricula": "005-27111", "Terreno_Codigo": "056420004000000080039000000000", "Propietario": "JOSE FABIAN RESTREPO CADAVID", "Area_Total": 194582.0, "Area_Requerida": 61649.16, "Area_Sobrante": 132932.84, "Etiqueta": "39", "Fuente_Financiacion": "Recursos Propios", "Permiso_Intervencion": "SI"}, "geometry": {"type": "Polygon", "coordinates": [[[-75.958806167, 6.045723312], [-75.958626923, 6.045697629], [-75.958404813, 6.045710355], [-75.958111103, 6.045740068], [-75.957678896, 6.045784607], [-75.95737076, 6.045788064], [-75.957220197, 6.045767064], [-75.957083859, 6.045714927], [-75.956956978, 6.045634062], [-75.956731647, 6.045405279], [-75.956699843, 6.045373064], [-75.9566046, 6.04527659], [-75.956501653, 6.04520999], [-75.956434655, 6.045176742], [-75.956310377, 6.045158043], [-75.956271543, 6.045153081], [-75.956164598, 6.045139418], [-75.956061809, 6.04511825], [-75.955961327, 6.045073163], [-75.955817626, 6.044963661], [-75.955749171, 6.044923724], [-75.955698973, 6.044913855], [-75.955614394, 6.044908408], [-75.955515441, 6.044891532], [-75.955437933, 6.044858801], [-75.955341656, 6.044780892], [-75.955307459, 6.044736124], [-75.95518915, 6.044652336], [-75.955117357, 6.044614324], [-75.954985872, 6.044583692], [-75.954895085, 6.044579222], [-75.954715964, 6.044589407], [-75.954536903, 6.044616329], [-75.954390209, 6.044608706], [-75.954237225, 6.044578626], [-75.954072633, 6.044506499], [-75.953965412, 6.044447566], [-75.953854711, 6.044409068], [-75.953813775, 6.044406726], [-75.953716873, 6.044415883], [-75.953626592, 6.044406802], [-75.953460317, 6.044363387], [-75.953528854, 6.044284429], [-75.953537905, 6.044274001], [-75.953628872, 6.044275712], [-75.953663101, 6.044276356], [-75.953766217, 6.044227436], [-75.95384641, 6.04418939], [-75.953891431, 6.04418406], [-75.954016038, 6.04416931], [-75.954168948, 6.044140932], [-75.95431914, 6.044132058], [-75.954444194, 6.044092638], [-75.954527545, 6.044061717], [-75.954481188, 6.044008608], [-75.954454229, 6.043977725], [-75.954356708, 6.043820304], [-75.954522829, 6.043819401], [-75.954593918, 6.043713794], [-75.954687831, 6.043411975], [-75.954849094, 6.04319588], [-75.955130157, 6.043046088], [-75.955287215, 6.042935231], [-75.955462706, 6.042699926], [-75.955590915, 6.042555749], [-75.955777053, 6.042521257], [-75.956011639, 6.042610851], [-75.956170306, 6.042796512], [-75.956166723, 6.043016533], [-75.956006316, 6.043390454], [-75.955888518, 6.043692403], [-75.955913993, 6.043739392], [-75.955908922, 6.04389365], [-75.956006148, 6.044069925], [-75.956265749, 6.044274954], [-75.956669809, 6.044527836], [-75.956833223, 6.044637823], [-75.957049349, 6.044789446], [-75.957130333, 6.04485952], [-75.957262659, 6.045093839], [-75.957340254, 6.045165215], [-75.957376366, 6.045249231], [-75.957411448, 6.045317749], [-75.957494719, 6.045339285], [-75.957552084, 6.0453315], [-75.957576219, 6.045328225], [-75.957731858, 6.04528457], [-75.957833425, 6.045273438], [-75.957958454, 6.045327564], [-75.95802274, 6.045289613], [-75.958143116, 6.045329761], [-75.958184776, 6.045361214], [-75.958299949, 6.045369354], [-75.958411974, 6.045324016], [-75.958472318, 6.045236864], [-75.958539812, 6.045212565], [-75.958596755, 6.045260943], [-75.958709956, 6.045347721], [-75.958772984, 6.045379605], [-75.958969722, 6.045392594], [-75.959015462, 6.045415178], [-75.95907631, 6.045355637], [-75.95915536, 6.0453435], [-75.959265489, 6.045560791], [-75.959487276, 6.045775635], [-75.959463299, 6.045790383], [-75.959375033, 6.045824168], [-75.959253227, 6.045829373], [-75.959023936, 6.045746885], [-75.958806167, 6.045723312]]]}}, {"type": "Feature", "properties": {"Proyecto": "Tamesis la Oculta", "Municipio": "Tamesis", "Sector": "R", "Matricula": "032-18347", "Terreno_Codigo": "057890002000000010213000000000", "Propietario": "MONICA AGUDELO HERNANDEZ Y OTROS", "Area_Total": 72203.0, "Area_Requerida": 68.87, "Area_Sobrante": 72134.13, "Etiqueta": "213", "Fuente_Financiacion": "Regalías", "Permiso_Intervencion": "SI"}, "geometry": {"type": "Polygon", "coordinates": [[[-75.67896248, 5.751818208], [-75.678993856, 5.751772551], [-75.678996793, 5.75177461], [-75.679023975, 5.751734605], [-75.67903885, 5.75170768], [-75.679052011, 5.75168005], [-75.679061885, 5.751663998], [-75.679073771, 5.751641235], [-75.679067264, 5.751690617], [-75.679041391, 5.751759655], [-75.679019806, 5.751808929], [-75.678973887, 5.751844497], [-75.678970282, 5.751846604], [-75.678970155, 5.751846678], [-75.67896403, 5.751850253], [-75.6789634, 5.751823801], [-75.678965236, 5.751820475], [-75.67896248, 5.751818208]]]}}, {"type": "Feature", "properties": {"Proyecto": "Tamesis la Oculta", "Municipio": "Tamesis", "Sector": "R", "Matricula": "032-17880", "Terreno_Codigo": "057890002000000010211000000000", "Propietario": "ISMAEL ALBERTO RESTREPO CORREA", "Area_Total": 156538.0, "Area_Requerida": 500.12, "Area_Sobrante": 156037.88, "Etiqueta": "211", "Fuente_Financiacion": "Regalías", "Permiso_Intervencion": "SI"}, "geometry": {"type": "Polygon", "coordinates": [[[-75.675780247, 5.754470261], [-75.675820336, 5.754376528], [-75.675882662, 5.754264175], [-75.67590954, 5.754191538], [-75.675961857, 5.754059855], [-75.676072745, 5.753961002], [-75.676092095, 5.753913626], [-75.676138627, 5.753855715], [-75.676135799, 5.753958333], [-75.676051723, 5.754014226], [-75.676020325, 5.754100412], [-75.675985797, 5.754184796], [-75.675965437, 5.754277329], [-75.675921124, 5.754351473], [-75.675876169, 5.754421344], [-75.675789187, 5.754485932], [-75.675780247, 5.754470261]]]}}, {"type": "Feature", "properties": {"Proyecto": "Tamesis la Oculta", "Municipio": "Tamesis", "Sector": "R", "Matricula": "032-11300", "Terreno_Codigo": "057890002000000010031000000000", "Propietario": "LUZ ELENA CEBALLOS ABAD", "Area_Total": 118000.0, "Area_Requerida": 183.17, "Area_Sobrante": 117816.83, "Etiqueta": "31", "Fuente_Financiacion": "Regalías", "Permiso_Intervencion": "SI"}, "geometry": {"type": "Polygon", "coordinates": [[[-75.675052426, 5.759111809], [-75.675068023, 5.759068084], [-75.675085637, 5.759002193], [-75.675089393, 5.758988141], [-75.675100724, 5.758882373], [-75.67511312, 5.758841803], [-75.675123199, 5.758808815], [-75.675135443, 5.75876874], [-75.675163417, 5.758818791], [-75.675166551, 5.758871525], [-75.675154285, 5.758915796], [-75.675143376, 5.758963469], [-75.67513309, 5.759010769], [-75.675119249, 5.759054521], [-75.675052426, 5.759111809]]]}}, {"type": "Feature", "properties": {"Proyecto": "Tamesis la Oculta", "Municipio": "Tamesis", "Sector": "R", "Matricula": "032-5160", "Terreno_Codigo": "057890002000000010138000000000", "Propietario": "ANA LUCIA SIERRA ESCOBAR", "Area_Total": 660000.0, "Area_Requerida": 4.07, "Area_Sobrante": 659995.93, "Etiqueta": "138", "Fuente_Financiacion": "Regalías", "Permiso_Intervencion": "SI"}, "geometry": {"type": "Polygon", "coordinates": [[[-75.67935872, 5.747785651], [-75.679371366, 5.747826366], [-75.679373286, 5.747830897], [-75.679367096, 5.747833174], [-75.679351277, 5.747787821], [-75.67935872, 5.747785651]]]}}, {"type": "Feature", "properties": {"Proyecto": "Tamesis la Oculta", "Municipio": "Tamesis", "Sector": "R", "Matricula": "032-13815", "Terreno_Codigo": "057890002000000010024000000000", "Propietario": "CARLOS HORACIO TRUJILLO ARISTIZABAL", "Area_Total": 2088532.0, "Area_Requerida": 95.88, "Area_Sobrante": 2088436.12, "Etiqueta": "24", "Fuente_Financiacion": "Regalías", "Permiso_Intervencion": "SI"}, "geometry": {"type": "Polygon", "coordinates": [[[-75.677049702, 5.767723513], [-75.677067916, 5.767716164], [-75.677137474, 5.767762974], [-75.677235534, 5.767809528], [-75.67728727, 5.767823372], [-75.677445907, 5.767887845], [-75.677514685, 5.767929317], [-75.677503663, 5.767932617], [-75.677470967, 5.767913352], [-75.677421014, 5.767891354], [-75.677359122, 5.767867414], [-75.677289326, 5.767841104], [-75.677229626, 5.767820096], [-75.677161732, 5.767797431], [-75.677130975, 5.767784826], [-75.677104172, 5.767768596], [-75.677081846, 5.767752378], [-75.677061281, 5.767735829], [-75.677049702, 5.767723513]]]}}, {"type": "Feature", "properties": {"Proyecto": "Tamesis la Oculta", "Municipio": "Tamesis", "Sector": "R", "Matricula": "032-13817", "Terreno_Codigo": "057890002000000010057000000000", "Propietario": "HERNANDEZ S. A. PATHERNA", "Area_Total": 39825.0, "Area_Requerida": 20.8, "Area_Sobrante": 39804.2, "Etiqueta": "57", "Fuente_Financiacion": "Regalías", "Permiso_Intervencion": "SI"}, "geometry": {"type": "Polygon", "coordinates": [[[-75.677015195, 5.767643416], [-75.677055014, 5.767707482], [-75.677067918, 5.767716166], [-75.677049705, 5.767723515], [-75.677039666, 5.767712742], [-75.677023526, 5.767698554], [-75.677001967, 5.767671281], [-75.677015195, 5.767643416]]]}}, {"type": "Feature", "properties": {"Proyecto": "Tamesis la Oculta", "Municipio": "Tamesis", "Sector": "R", "Matricula": "032-17902", "Terreno_Codigo": "057890002000000010153000000000", "Propietario": "DORA DEL SOCORRO HURTADO LOPEZ", "Area_Total": 619900.0, "Area_Requerida": 31.41, "Area_Sobrante": 619868.59, "Etiqueta": "153", "Fuente_Financiacion": "Regalías", "Permiso_Intervencion": "SI"}, "geometry": {"type": "Polygon", "coordinates": [[[-75.684649765, 5.731539302], [-75.68463905, 5.731558136], [-75.68461992, 5.731630965], [-75.684609263, 5.731677553], [-75.684603589, 5.731703587], [-75.684601806, 5.731724667], [-75.684588192, 5.731723512], [-75.684594366, 5.731674134], [-75.684605233, 5.731626152], [-75.684620497, 5.731580061], [-75.684640886, 5.731534236], [-75.684649765, 5.731539302]]]}}, {"type": "Feature", "properties": {"Proyecto": "Tamesis la Oculta", "Municipio": "Tamesis", "Sector": "R", "Matricula": "032-17880", "Terreno_Codigo": "057890002000000010211000000000", "Propietario": "ISMAEL ALBERTO RESTREPO CORREA", "Area_Total": 156538.0, "Area_Requerida": 26.13, "Area_Sobrante": 156511.87, "Etiqueta": "211", "Fuente_Financiacion": "Regalías", "Permiso_Intervencion": "SI"}, "geometry": {"type": "Polygon", "coordinates": [[[-75.677990878, 5.752678619], [-75.67808444, 5.752643149], [-75.678134611, 5.752608982], [-75.678134706, 5.752608917], [-75.678144325, 5.752620042], [-75.678069895, 5.752667735], [-75.678032207, 5.752678721], [-75.677990878, 5.752678619]]]}}, {"type": "Feature", "properties": {"Proyecto": "Tamesis la Oculta", "Municipio": "Tamesis", "Sector": "R", "Matricula": "032-18347", "Terreno_Codigo": "057890002000000010213000000000", "Propietario": "MONICA AGUDELO HERNANDEZ Y OTROS", "Area_Total": 72203.0, "Area_Requerida": 29.63, "Area_Sobrante": 72173.37, "Etiqueta": "213", "Fuente_Financiacion": "Regalías", "Permiso_Intervencion": "SI"}, "geometry": {"type": "Polygon", "coordinates": [[[-75.678134703, 5.752608919], [-75.678157613, 5.752593317], [-75.678219532, 5.752544367], [-75.678274682, 5.752512845], [-75.678246911, 5.752544148], [-75.678195746, 5.752587093], [-75.678144325, 5.752620042], [-75.678134703, 5.752608919]]]}}, {"type": "Feature", "properties": {"Proyecto": "Tamesis la Oculta", "Municipio": "Tamesis", "Sector": "R", "Matricula": "032-5160", "Terreno_Codigo": "057890002000000010138000000000", "Propietario": "ANA LUCIA SIERRA ESCOBAR", "Area_Total": 660000.0, "Area_Requerida": 4.72, "Area_Sobrante": 659995.28, "Etiqueta": "138", "Fuente_Financiacion": "Regalías", "Permiso_Intervencion": "SI"}, "geometry": {"type": "Polygon", "coordinates": [[[-75.679330574, 5.747599314], [-75.679335729, 5.747665223], [-75.67933954, 5.747690072], [-75.679332317, 5.747690553], [-75.679329091, 5.747643535], [-75.679330157, 5.74759689], [-75.679330574, 5.747599314]]]}}, {"type": "Feature", "properties": {"Proyecto": "Tamesis la Oculta", "Municipio": "Tamesis", "Sector": "R", "Matricula": "032-5926", "Terreno_Codigo": "057890002000000010048000000000", "Propietario": "INVERSIONES GONZALEZ SANIN S.C.A", "Area_Total": 24761.0, "Area_Requerida": 7.33, "Area_Sobrante": 24753.67, "Etiqueta": "48", "Fuente_Financiacion": "Regalías", "Permiso_Intervencion": "SI"}, "geometry": {"type": "Polygon", "coordinates": [[[-75.685143806, 5.736591063], [-75.685139609, 5.736617795], [-75.685135782, 5.736642403], [-75.685135074, 5.736647014], [-75.685128762, 5.736666124], [-75.685118237, 5.736697991], [-75.685105702, 5.736735467], [-75.685092348, 5.736724839], [-75.685114617, 5.736695901], [-75.685128368, 5.736665997], [-75.685135291, 5.736644332], [-75.685139538, 5.736590789], [-75.685143806, 5.736591063]]]}}, {"type": "Feature", "properties": {"Proyecto": "Tamesis la Oculta", "Municipio": "Tamesis", "Sector": "R", "Matricula": "032-17905", "Terreno_Codigo": "057890002000000010154000000000", "Propietario": "INVERSIONES GONZALEZ SANIN S.C.A", "Area_Total": 619900.0, "Area_Requerida": 4.92, "Area_Sobrante": 619895.08, "Etiqueta": "154", "Fuente_Financiacion": "Regalías", "Permiso_Intervencion": "SI"}, "geometry": {"type": "Polygon", "coordinates": [[[-75.686720748, 5.730503842], [-75.686707145, 5.730515056], [-75.686693747, 5.730531242], [-75.686683834, 5.730534438], [-75.6866815, 5.73053519], [-75.686661899, 5.730540075], [-75.686660773, 5.730537197], [-75.68669096, 5.730522622], [-75.686718035, 5.730500698], [-75.686720748, 5.730503842]]]}}, {"type": "Feature", "properties": {"Proyecto": "Tamesis la Oculta", "Municipio": "Tamesis", "Sector": "R", "Matricula": "032-5361", "Terreno_Codigo": "057890002000000010047000000000", "Propietario": "INVERSIONES GONZALEZ SANIN S.C.A", "Area_Total": 6128.0, "Area_Requerida": 22.26, "Area_Sobrante": 6105.74, "Etiqueta": "47", "Fuente_Financiacion": "Regalías", "Permiso_Intervencion": "SI"}, "geometry": {"type": "Polygon", "coordinates": [[[-75.682922938, 5.73857991], [-75.682889644, 5.738600962], [-75.682845077, 5.738605374], [-75.682840692, 5.738590472], [-75.682874008, 5.738579538], [-75.682910742, 5.738558877], [-75.682922938, 5.73857991]]]}}, {"type": "Feature", "properties": {"Proyecto": "Tamesis la Oculta", "Municipio": "Tamesis", "Sector": "R", "Matricula": "032-17902", "Terreno_Codigo": "057890002000000010153000000000", "Propietario": "DORA DEL SOCORRO HURTADO LOPEZ", "Area_Total": 619900.0, "Area_Requerida": 11.31, "Area_Sobrante": 619888.69, "Etiqueta": "153", "Fuente_Financiacion": "Regalías", "Permiso_Intervencion": "SI"}, "geometry": {"type": "Polygon", "coordinates": [[[-75.684602334, 5.732085598], [-75.684602385, 5.732095728], [-75.684597151, 5.732118347], [-75.684580335, 5.732150091], [-75.684553157, 5.732201396], [-75.684547989, 5.732204331], [-75.684538452, 5.732190729], [-75.684561632, 5.732170421], [-75.684578026, 5.732149061], [-75.684591482, 5.732116897], [-75.684596364, 5.732085419], [-75.684602334, 5.732085598]]]}}, {"type": "Feature", "properties": {"Proyecto": "Tamesis la Oculta", "Municipio": "Tamesis", "Sector": "R", "Matricula": "032-5926", "Terreno_Codigo": "057890002000000010048000000000", "Propietario": "INVERSIONES GONZALEZ SANIN S.C.A", "Area_Total": 24761.0, "Area_Requerida": 31.28, "Area_Sobrante": 24729.72, "Etiqueta": "48", "Fuente_Financiacion": "Regalías", "Permiso_Intervencion": "SI"}, "geometry": {"type": "Polygon", "coordinates": [[[-75.683854872, 5.737939815], [-75.683856889, 5.73793929], [-75.68389989, 5.73791101], [-75.683930681, 5.737873169], [-75.683962493, 5.737896785], [-75.683916275, 5.737923652], [-75.683870681, 5.737954261], [-75.683855803, 5.737940881], [-75.683854872, 5.737939815]]]}}, {"type": "Feature", "properties": {"Proyecto": "Tamesis la Oculta", "Municipio": "Tamesis", "Sector": "R", "Matricula": "032-5361", "Terreno_Codigo": "057890002000000010047000000000", "Propietario": "INVERSIONES GONZALEZ SANIN S.C.A", "Area_Total": 6128.0, "Area_Requerida": 17.27, "Area_Sobrante": 6110.73, "Etiqueta": "47", "Fuente_Financiacion": "Regalías", "Permiso_Intervencion": "SI"}, "geometry": {"type": "Polygon", "coordinates": [[[-75.683854875, 5.737939814], [-75.683855803, 5.737940881], [-75.683870681, 5.737954261], [-75.683811446, 5.737971284], [-75.683786212, 5.737957914], [-75.683785009, 5.737952358], [-75.683833158, 5.737944844], [-75.683854875, 5.737939814]]]}}, {"type": "Feature", "properties": {"Proyecto": "Tamesis la Oculta", "Municipio": "Tamesis", "Sector": "R", "Matricula": "032-17905", "Terreno_Codigo": "057890002000000010154000000000", "Propietario": "INVERSIONES GONZALEZ SANIN S.C.A", "Area_Total": 619900.0, "Area_Requerida": 5.42, "Area_Sobrante": 619894.58, "Etiqueta": "154", "Fuente_Financiacion": "Regalías", "Permiso_Intervencion": "SI"}, "geometry": {"type": "Polygon", "coordinates": [[[-75.684761274, 5.734403435], [-75.684762928, 5.734407125], [-75.684786735, 5.734419306], [-75.684774205, 5.734435105], [-75.684793471, 5.73448651], [-75.684758211, 5.734404761], [-75.684761274, 5.734403435]]]}}, {"type": "Feature", "properties": {"Proyecto": "Tamesis la Oculta", "Municipio": "Tamesis", "Sector": "R", "Matricula": "032-5926", "Terreno_Codigo": "057890002000000010048000000000", "Propietario": "INVERSIONES GONZALEZ SANIN S.C.A", "Area_Total": 24761.0, "Area_Requerida": 1.56, "Area_Sobrante": 24759.44, "Etiqueta": "48", "Fuente_Financiacion": "Regalías", "Permiso_Intervencion": "SI"}, "geometry": {"type": "Polygon", "coordinates": [[[-75.684504998, 5.737097658], [-75.684496077, 5.737122397], [-75.684490075, 5.737133712], [-75.68448547, 5.737130921], [-75.684504998, 5.737097658]]]}}, {"type": "Feature", "properties": {"Proyecto": "Tamesis la Oculta", "Municipio": "Tamesis", "Sector": "R", "Matricula": null, "Terreno_Codigo": "057890002000000010154000000000", "Propietario": "INVERSIONES GONZALEZ SANIN S.C.A", "Area_Total": 619900.0, "Area_Requerida": 3.31, "Area_Sobrante": 619896.69, "Etiqueta": "154", "Fuente_Financiacion": "Regalías", "Permiso_Intervencion": "SI"}, "geometry": {"type": "Polygon", "coordinates": [[[-75.687491283, 5.730085848], [-75.687491279, 5.730085254], [-75.687578866, 5.730084693], [-75.687590758, 5.73008372], [-75.687569049, 5.730088618], [-75.687509132, 5.730088011], [-75.687491283, 5.730085848]]]}}, {"type": "Feature", "properties": {"Proyecto": "Tamesis la Oculta", "Municipio": "Tamesis", "Sector": "R", "Matricula": "032-17905", "Terreno_Codigo": "057890002000000010154000000000", "Propietario": "INVERSIONES GONZALEZ SANIN S.C.A", "Area_Total": 619900.0, "Area_Requerida": 20.77, "Area_Sobrante": 619879.23, "Etiqueta": "154", "Fuente_Financiacion": "Regalías", "Permiso_Intervencion": "SI"}, "geometry": {"type": "Polygon", "coordinates": [[[-75.685083007, 5.735257872], [-75.685083202, 5.735257027], [-75.685087294, 5.735218869], [-75.685082446, 5.73515449], [-75.685091193, 5.735152611], [-75.685094102, 5.735160507], [-75.685109318, 5.735259871], [-75.685083007, 5.735257872]]]}}, {"type": "Feature", "properties": {"Proyecto": "Tamesis la Oculta", "Municipio": "Tamesis", "Sector": "R", "Matricula": "032-5908", "Terreno_Codigo": "057890002000000010028000000000", "Propietario": "HINCAPIE GAVIRIA Y CIA S EN C", "Area_Total": 64000.0, "Area_Requerida": 7.71, "Area_Sobrante": 63992.29, "Etiqueta": "138", "Fuente_Financiacion": "Regalías", "Permiso_Intervencion": "SI"}, "geometry": {"type": "Polygon", "coordinates": [[[-75.681052321, 5.739546354], [-75.681019054, 5.739549555], [-75.681010547, 5.739551233], [-75.680958034, 5.739561591], [-75.680916758, 5.739563507], [-75.680916432, 5.739559256], [-75.68095775, 5.739555178], [-75.681023388, 5.7395487], [-75.681037261, 5.739545964], [-75.68104823, 5.739546247], [-75.681099854, 5.739541152], [-75.681099838, 5.739547588], [-75.681052321, 5.739546354]]]}}, {"type": "Feature", "properties": {"Proyecto": "Tamesis la Oculta", "Municipio": "Tamesis", "Sector": "R", "Matricula": "032-5926", "Terreno_Codigo": "057890002000000010048000000000", "Propietario": "INVERSIONES GONZALEZ SANIN S.C.A", "Area_Total": 24761.0, "Area_Requerida": 37.75, "Area_Sobrante": 24723.25, "Etiqueta": "48", "Fuente_Financiacion": "Regalías", "Permiso_Intervencion": "SI"}, "geometry": {"type": "Polygon", "coordinates": [[[-75.684244527, 5.737564782], [-75.684240197, 5.737574535], [-75.684203137, 5.737628814], [-75.684168676, 5.737672799], [-75.684118083, 5.737723074], [-75.684105832, 5.737737341], [-75.684099907, 5.73773238], [-75.684156501, 5.737662935], [-75.684207783, 5.737594843], [-75.684232703, 5.737557151], [-75.684244527, 5.737564782]]]}}, {"type": "Feature", "properties": {"Proyecto": "Tamesis la Oculta", "Municipio": "Tamesis", "Sector": "R", "Matricula": "032-17905", "Terreno_Codigo": "057890002000000010154000000000", "Propietario": "INVERSIONES GONZALEZ SANIN S.C.A", "Area_Total": 619900.0, "Area_Requerida": 4.14, "Area_Sobrante": 619895.86, "Etiqueta": "154", "Fuente_Financiacion": "Regalías", "Permiso_Intervencion": "SI"}, "geometry": {"type": "Polygon", "coordinates": [[[-75.684443767, 5.733382193], [-75.684462207, 5.733419239], [-75.684454975, 5.73342221], [-75.684436062, 5.733386218], [-75.684443767, 5.733382193]]]}}, {"type": "Feature", "properties": {"Proyecto": "Tamesis la Oculta", "Municipio": "Tamesis", "Sector": "R", "Matricula": "032-9647", "Terreno_Codigo": "057890002000000010061000000000", "Propietario": "HINCAPIE GAVIRIA Y CIA S EN C", "Area_Total": 19832.0, "Area_Requerida": 57.32, "Area_Sobrante": 19774.68, "Etiqueta": "61", "Fuente_Financiacion": "Regalías", "Permiso_Intervencion": "SI"}, "geometry": {"type": "Polygon", "coordinates": [[[-75.682459629, 5.738566266], [-75.68244352, 5.738565513], [-75.682310738, 5.738580475], [-75.682266033, 5.738604618], [-75.682260337, 5.73859262], [-75.682309515, 5.738572639], [-75.682362052, 5.738562442], [-75.682411448, 5.738560987], [-75.682457789, 5.738565227], [-75.682505727, 5.73856843], [-75.682606567, 5.738585087], [-75.682682879, 5.73859585], [-75.682728865, 5.738588271], [-75.68277248, 5.738594908], [-75.682807287, 5.738594993], [-75.682840695, 5.738590471], [-75.682845077, 5.738605374], [-75.682818987, 5.738607927], [-75.682800776, 5.738609754], [-75.682783292, 5.738611485], [-75.682774704, 5.738612335], [-75.682726476, 5.738607324], [-75.682609457, 5.738586336], [-75.682459629, 5.738566266]]]}}, {"type": "Feature", "properties": {"Proyecto": "Tamesis la Oculta", "Municipio": "Tamesis", "Sector": "R", "Matricula": "032-5926", "Terreno_Codigo": "057890002000000010048000000000", "Propietario": "INVERSIONES GONZALEZ SANIN S.C.A", "Area_Total": 24761.0, "Area_Requerida": 29.69, "Area_Sobrante": 24731.31, "Etiqueta": "48", "Fuente_Financiacion": "Regalías", "Permiso_Intervencion": "SI"}, "geometry": {"type": "Polygon", "coordinates": [[[-75.68492651, 5.736817343], [-75.684819009, 5.736837572], [-75.684749301, 5.736866937], [-75.684743642, 5.736851677], [-75.684790362, 5.736834626], [-75.684834998, 5.736823183], [-75.684923533, 5.736803224], [-75.68492651, 5.736817343]]]}}, {"type": "Feature", "properties": {"Proyecto": "Tamesis la Oculta", "Municipio": "Tamesis", "Sector": "R", "Matricula": "032-5926", "Terreno_Codigo": "057890002000000010048000000000", "Propietario": "INVERSIONES GONZALEZ SANIN S.C.A", "Area_Total": 24761.0, "Area_Requerida": 122.21, "Area_Sobrante": 24638.79, "Etiqueta": "48", "Fuente_Financiacion": "Regalías", "Permiso_Intervencion": "SI"}, "geometry": {"type": "Polygon", "coordinates": [[[-75.685022772, 5.735573058], [-75.685023692, 5.735563193], [-75.685027386, 5.735523587], [-75.685037752, 5.735476155], [-75.685059894, 5.735386451], [-75.685073585, 5.735298912], [-75.685083006, 5.73525788], [-75.685097106, 5.735258992], [-75.685109318, 5.735259871], [-75.685110725, 5.735269056], [-75.685082096, 5.735392565], [-75.685054708, 5.73549854], [-75.685047479, 5.735557491], [-75.685047536, 5.735562723], [-75.685047653, 5.735573675], [-75.685048654, 5.735579487], [-75.68504818, 5.735617733], [-75.685049045, 5.735648207], [-75.685049978, 5.735679615], [-75.685051656, 5.735702897], [-75.685052703, 5.735717449], [-75.685050098, 5.73571615], [-75.685035035, 5.735656353], [-75.685031106, 5.735637827], [-75.685029465, 5.735612986], [-75.68502692, 5.735587997], [-75.685022772, 5.735573058]]]}}, {"type": "Feature", "properties": {"Proyecto": "Tamesis la Oculta", "Municipio": "Tamesis", "Sector": "R", "Matricula": "032-4259", "Terreno_Codigo": "057890002000000040147000000000", "Propietario": "MAGOMEZA S.A.S.", "Area_Total": 106191.0, "Area_Requerida": 123.65, "Area_Sobrante": 106067.35, "Etiqueta": "147", "Fuente_Financiacion": "Regalías", "Permiso_Intervencion": "SI"}, "geometry": {"type": "Polygon", "coordinates": [[[-75.690866673, 5.728803556], [-75.690870892, 5.728835501], [-75.690787444, 5.728901394], [-75.690710463, 5.728928062], [-75.690662731, 5.728996619], [-75.69062749, 5.728999181], [-75.690589497, 5.729016319], [-75.690641637, 5.728963566], [-75.690735676, 5.728879792], [-75.690763757, 5.728867304], [-75.690835898, 5.728821419], [-75.690852467, 5.728810954], [-75.690866673, 5.728803556]]]}}, {"type": "Feature", "properties": {"Proyecto": "Tamesis la Oculta", "Municipio": "Tamesis", "Sector": "R", "Matricula": "032-17879", "Terreno_Codigo": "057890002000000010210000000000", "Propietario": "AM URREA Y CIA SCA", "Area_Total": 93325.0, "Area_Requerida": 104.2, "Area_Sobrante": 93220.8, "Etiqueta": "210", "Fuente_Financiacion": "Regalías", "Permiso_Intervencion": "SI"}, "geometry": {"type": "Polygon", "coordinates": [[[-75.679697246, 5.748527714], [-75.679706552, 5.748526705], [-75.679714672, 5.748526063], [-75.679714776, 5.748526055], [-75.679716666, 5.74853176], [-75.679722522, 5.748533959], [-75.679725044, 5.748550949], [-75.679721891, 5.748585411], [-75.679717436, 5.748620837], [-75.679713138, 5.748634879], [-75.679705651, 5.748653679], [-75.679694372, 5.748681549], [-75.679664306, 5.748721202], [-75.679651334, 5.748738215], [-75.679625304, 5.748763789], [-75.67960145, 5.748786729], [-75.679577854, 5.748801911], [-75.679569794, 5.748807101], [-75.679552999, 5.748777265], [-75.67958008, 5.748767229], [-75.67962776, 5.748722473], [-75.679664473, 5.748680892], [-75.679686114, 5.748642052], [-75.679692104, 5.748611993], [-75.679701545, 5.748550822], [-75.679697287, 5.74852921], [-75.679697246, 5.748527714]]]}}, {"type": "Feature", "properties": {"Proyecto": "Tamesis la Oculta", "Municipio": "Tamesis", "Sector": "R", "Matricula": "032-17905", "Terreno_Codigo": "057890002000000010154000000000", "Propietario": "INVERSIONES GONZALEZ SANIN S.C.A", "Area_Total": 619900.0, "Area_Requerida": 14.29, "Area_Sobrante": 619885.71, "Etiqueta": "154", "Fuente_Financiacion": "Regalías", "Permiso_Intervencion": "SI"}, "geometry": {"type": "Polygon", "coordinates": [[[-75.690578865, 5.72888681], [-75.690546382, 5.728923585], [-75.690512188, 5.728965248], [-75.690474967, 5.729003217], [-75.690442236, 5.729030125], [-75.69049222, 5.728972751], [-75.690555376, 5.728906063], [-75.690578865, 5.72888681]]]}}, {"type": "Feature", "properties": {"Proyecto": "Tamesis la Oculta", "Municipio": "Tamesis", "Sector": "R", "Matricula": "032-17905", "Terreno_Codigo": "057890002000000010154000000000", "Propietario": "INVERSIONES GONZALEZ SANIN S.C.A", "Area_Total": 619900.0, "Area_Requerida": 73.05, "Area_Sobrante": 619826.95, "Etiqueta": "154", "Fuente_Financiacion": "Regalías", "Permiso_Intervencion": "SI"}, "geometry": {"type": "Polygon", "coordinates": [[[-75.689927187, 5.729134578], [-75.689970415, 5.729138441], [-75.690059714, 5.729145007], [-75.690139747, 5.729160027], [-75.690219828, 5.729150492], [-75.690298731, 5.729129353], [-75.690371474, 5.729091916], [-75.690418498, 5.729052466], [-75.690393638, 5.729081396], [-75.690358663, 5.729112838], [-75.690311983, 5.729130523], [-75.690262744, 5.729150794], [-75.69020312, 5.729166472], [-75.690076865, 5.72917256], [-75.690033955, 5.729163789], [-75.689982337, 5.72914911], [-75.689929959, 5.729135375], [-75.689927187, 5.729134578]]]}}, {"type": "Feature", "properties": {"Proyecto": "Tamesis la Oculta", "Municipio": "Tamesis", "Sector": "R", "Matricula": "032-17578", "Terreno_Codigo": "057890002000000010202000000000", "Propietario": "ESTILO EJECUTIVO SUITES S.A.", "Area_Total": 63592.0, "Area_Requerida": 464.05, "Area_Sobrante": 63127.95, "Etiqueta": "202", "Fuente_Financiacion": "Regalías", "Permiso_Intervencion": "SI"}, "geometry": {"type": "Polygon", "coordinates": [[[-75.690081024, 5.729252583], [-75.690084287, 5.729276629], [-75.690061467, 5.729294066], [-75.690022068, 5.729287312], [-75.689962894, 5.729279159], [-75.689875504, 5.729257401], [-75.689785765, 5.729245482], [-75.68969828, 5.72922311], [-75.689624572, 5.729216206], [-75.689561361, 5.72922139], [-75.689499476, 5.72925583], [-75.689450237, 5.729306816], [-75.689413648, 5.729388225], [-75.689377989, 5.729474863], [-75.689316769, 5.729544092], [-75.689258159, 5.729614033], [-75.689196754, 5.729683345], [-75.689194123, 5.72968201], [-75.68919415, 5.729681972], [-75.689205853, 5.729665222], [-75.689236861, 5.729614058], [-75.689276858, 5.729563068], [-75.689309839, 5.729521265], [-75.689332484, 5.729487419], [-75.689362242, 5.72944173], [-75.689372981, 5.729416154], [-75.689413786, 5.729314768], [-75.689436258, 5.729285063], [-75.689493783, 5.729233998], [-75.689567837, 5.729184782], [-75.68964924, 5.729161204], [-75.689804461, 5.729193148], [-75.689884853, 5.729210836], [-75.68992058, 5.729223461], [-75.689981832, 5.729247367], [-75.690007285, 5.729250565], [-75.690081024, 5.729252583]]]}}, {"type": "Feature", "properties": {"Proyecto": "Tamesis la Oculta", "Municipio": "Tamesis", "Sector": "R", "Matricula": "032-5908", "Terreno_Codigo": "057890002000000010028000000000", "Propietario": "HINCAPIE GAVIRIA Y CIA S EN C", "Area_Total": 19200.0, "Area_Requerida": 43.98, "Area_Sobrante": 19156.02, "Etiqueta": "28", "Fuente_Financiacion": "Regalías", "Permiso_Intervencion": "SI"}, "geometry": {"type": "Polygon", "coordinates": [[[-75.681846923, 5.738812928], [-75.681847964, 5.738812542], [-75.681847277, 5.738811441], [-75.68185343, 5.738808594], [-75.681908271, 5.738783227], [-75.682005518, 5.738762256], [-75.681976565, 5.738782414], [-75.681947473, 5.738802745], [-75.68193061, 5.738811898], [-75.681912075, 5.73882506], [-75.681909806, 5.738826908], [-75.68190846, 5.738826666], [-75.681893617, 5.738823997], [-75.681859813, 5.738815983], [-75.681846923, 5.738812928]]]}}, {"type": "Feature", "properties": {"Proyecto": "Tamesis la Oculta", "Municipio": "Tamesis", "Sector": "R", "Matricula": "032-5160", "Terreno_Codigo": "057890002000000010138000000000", "Propietario": "ANA LUCIA SIERRA ESCOBAR", "Area_Total": 660000.0, "Area_Requerida": 19.57, "Area_Sobrante": 659980.43, "Etiqueta": "138", "Fuente_Financiacion": "Regalías", "Permiso_Intervencion": "SI"}, "geometry": {"type": "Polygon", "coordinates": [[[-75.67968398, 5.748431504], [-75.679690072, 5.74845003], [-75.67969818, 5.748475173], [-75.679705692, 5.748498266], [-75.679711951, 5.748517524], [-75.679714741, 5.748525948], [-75.679714776, 5.748526055], [-75.679706552, 5.748526705], [-75.679697247, 5.748527718], [-75.679696993, 5.748521593], [-75.679667501, 5.748436331], [-75.67968398, 5.748431504]]]}}, {"type": "Feature", "properties": {"Proyecto": "Tamesis la Oculta", "Municipio": "Tamesis", "Sector": "R", "Matricula": "032-17905", "Terreno_Codigo": "057890002000000010154000000000", "Propietario": "INVERSIONES GONZALEZ SANIN S.C.A", "Area_Total": 619900.0, "Area_Requerida": 67.87, "Area_Sobrante": 619832.13, "Etiqueta": "154", "Fuente_Financiacion": "Regalías", "Permiso_Intervencion": "SI"}, "geometry": {"type": "Polygon", "coordinates": [[[-75.691051192, 5.728605215], [-75.691005518, 5.728635216], [-75.690902254, 5.728678733], [-75.690862554, 5.728704518], [-75.690828093, 5.728728758], [-75.690771628, 5.728765239], [-75.690726244, 5.728786915], [-75.690686944, 5.728812548], [-75.690647489, 5.728832793], [-75.690708466, 5.728790624], [-75.690779793, 5.728732118], [-75.690813803, 5.728704461], [-75.690853821, 5.728691082], [-75.690908376, 5.728665686], [-75.690946024, 5.728654161], [-75.691026165, 5.728613817], [-75.691051192, 5.728605215]]]}}, {"type": "Feature", "properties": {"Proyecto": "Tamesis la Oculta", "Municipio": "Tamesis", "Sector": "R", "Matricula": "032-17905", "Terreno_Codigo": "057890002000000010154000000000", "Propietario": "INVERSIONES GONZALEZ SANIN S.C.A", "Area_Total": 619900.0, "Area_Requerida": 76.59, "Area_Sobrante": 619823.41, "Etiqueta": "154", "Fuente_Financiacion": "Regalías", "Permiso_Intervencion": "SI"}, "geometry": {"type": "Polygon", "coordinates": [[[-75.689315824, 5.729305181], [-75.689305445, 5.729338828], [-75.689281607, 5.729388738], [-75.689247277, 5.729434758], [-75.689216722, 5.729480861], [-75.689184491, 5.729526744], [-75.68914378, 5.729579673], [-75.689117584, 5.729609027], [-75.689148155, 5.729560798], [-75.689191984, 5.729481986], [-75.689234242, 5.729400569], [-75.689294706, 5.729330984], [-75.689315824, 5.729305181]]]}}, {"type": "Feature", "properties": {"Proyecto": "Tamesis la Oculta", "Municipio": "Tamesis", "Sector": "R", "Matricula": "032-21113", "Terreno_Codigo": "057890002000000010212000000000", "Propietario": "ESTILO EJECUTIVO SUITES S.A.", "Area_Total": 70080.0, "Area_Requerida": 1.52, "Area_Sobrante": 70078.48, "Etiqueta": "212", "Fuente_Financiacion": "Regalías", "Permiso_Intervencion": "SI"}, "geometry": {"type": "Polygon", "coordinates": [[[-75.684943567, 5.734605816], [-75.684959324, 5.734625253], [-75.684960773, 5.734628498], [-75.68495479, 5.734633726], [-75.684943567, 5.734605816]]]}}, {"type": "Feature", "properties": {"Proyecto": "Tamesis la Oculta", "Municipio": "Tamesis", "Sector": "R", "Matricula": "032-17578", "Terreno_Codigo": "057890002000000010202000000000", "Propietario": "ESTILO EJECUTIVO SUITES S.A.", "Area_Total": 63592.0, "Area_Requerida": 7.35, "Area_Sobrante": 63584.65, "Etiqueta": "202", "Fuente_Financiacion": "Regalías", "Permiso_Intervencion": "SI"}, "geometry": {"type": "Polygon", "coordinates": [[[-75.689144104, 5.729724988], [-75.689129974, 5.729744292], [-75.689080493, 5.729777852], [-75.689057168, 5.72979297], [-75.689098423, 5.729755553], [-75.689144104, 5.729724988]]]}}, {"type": "Feature", "properties": {"Proyecto": "Tamesis la Oculta", "Municipio": "Tamesis", "Sector": "R", "Matricula": "032-4259", "Terreno_Codigo": "057890002000000040147000000000", "Propietario": "MAGOMEZA S.A.S.", "Area_Total": 106191.0, "Area_Requerida": 76.29, "Area_Sobrante": 106114.71, "Etiqueta": "147", "Fuente_Financiacion": "Regalías", "Permiso_Intervencion": "SI"}, "geometry": {"type": "Polygon", "coordinates": [[[-75.690081022, 5.729252581], [-75.69010322, 5.729252828], [-75.690111946, 5.729251218], [-75.690281557, 5.729219924], [-75.690327743, 5.729205325], [-75.690336656, 5.729202508], [-75.690338904, 5.729209644], [-75.690261151, 5.729250772], [-75.690161428, 5.729273161], [-75.690084287, 5.729276629], [-75.690081022, 5.729252581]]]}}, {"type": "Feature", "properties": {"Proyecto": "Tamesis la Oculta", "Municipio": "Tamesis", "Sector": "R", "Matricula": "032-21113", "Terreno_Codigo": "057890002000000010212000000000", "Propietario": "ESTILO EJECUTIVO SUITES S.A.", "Area_Total": 70080.0, "Area_Requerida": 2.86, "Area_Sobrante": 70077.14, "Etiqueta": "212", "Fuente_Financiacion": "Regalías", "Permiso_Intervencion": "SI"}, "geometry": {"type": "Polygon", "coordinates": [[[-75.684309465, 5.732498726], [-75.684314541, 5.732501854], [-75.684311568, 5.732536937], [-75.684306028, 5.732567522], [-75.684305961, 5.73256788], [-75.684309465, 5.732498726]]]}}, {"type": "Feature", "properties": {"Proyecto": "Tamesis la Oculta", "Municipio": "Tamesis", "Sector": "R", "Matricula": "032-21113", "Terreno_Codigo": "057890002000000010212000000000", "Propietario": "ESTILO EJECUTIVO SUITES S.A.", "Area_Total": 70080.0, "Area_Requerida": 29.48, "Area_Sobrante": 70050.52, "Etiqueta": "212", "Fuente_Financiacion": "Regalías", "Permiso_Intervencion": "SI"}, "geometry": {"type": "Polygon", "coordinates": [[[-75.684701979, 5.73408135], [-75.684728961, 5.734135477], [-75.68476743, 5.734217599], [-75.684806692, 5.734299006], [-75.684844712, 5.734380449], [-75.684853896, 5.73441437], [-75.684817996, 5.734349475], [-75.684801422, 5.7343023], [-75.684766932, 5.734233276], [-75.684728565, 5.734151694], [-75.684701979, 5.73408135]]]}}, {"type": "Feature", "properties": {"Proyecto": "Tamesis la Oculta", "Municipio": "Tamesis", "Sector": "R", "Matricula": "032-13818", "Terreno_Codigo": "057890002000000010113000000000", "Propietario": "HERNANDEZ S. A. PATHERNA", "Area_Total": 48555.0, "Area_Requerida": 27.01, "Area_Sobrante": 48527.99, "Etiqueta": "113", "Fuente_Financiacion": "Regalías", "Permiso_Intervencion": "SI"}, "geometry": {"type": "Polygon", "coordinates": [[[-75.676347333, 5.766474598], [-75.67640704, 5.766503146], [-75.676487667, 5.766544061], [-75.676540524, 5.766572432], [-75.676597508, 5.766627378], [-75.676541604, 5.766582543], [-75.676464933, 5.766544808], [-75.676385795, 5.766501772], [-75.676351608, 5.766481632], [-75.676347333, 5.766474598]]]}}, {"type": "Feature", "properties": {"Proyecto": "Tamesis la Oculta", "Municipio": "Tamesis", "Sector": "R", "Matricula": "032-13818", "Terreno_Codigo": "057890002000000010113000000000", "Propietario": "HERNANDEZ S. A. PATHERNA", "Area_Total": 48555.0, "Area_Requerida": 29.44, "Area_Sobrante": 48525.56, "Etiqueta": "113", "Fuente_Financiacion": "Regalías", "Permiso_Intervencion": "SI"}, "geometry": {"type": "Polygon", "coordinates": [[[-75.676614714, 5.766644738], [-75.676672268, 5.766700556], [-75.676703308, 5.766744793], [-75.676743415, 5.766819889], [-75.676765389, 5.766869586], [-75.676757936, 5.766863612], [-75.67673807, 5.76683697], [-75.676725779, 5.766807156], [-75.676704037, 5.766770821], [-75.676681329, 5.766735485], [-75.676659462, 5.766699845], [-75.676614714, 5.766644738]]]}}, {"type": "Feature", "properties": {"Proyecto": "Tamesis la Oculta", "Municipio": "Tamesis", "Sector": "R", "Matricula": "032-1829", "Terreno_Codigo": "057890002000000010032000000000", "Propietario": "INVERSIONES CHORRITOS S A", "Area_Total": 10000.0, "Area_Requerida": 187.82, "Area_Sobrante": 9812.18, "Etiqueta": "32", "Fuente_Financiacion": "Regalías", "Permiso_Intervencion": "SI"}, "geometry": {"type": "Polygon", "coordinates": [[[-75.674660962, 5.760327572], [-75.674655374, 5.760246866], [-75.674671941, 5.760217725], [-75.674684902, 5.76012195], [-75.674691997, 5.760071822], [-75.674705355, 5.760024701], [-75.674721182, 5.759968656], [-75.674731111, 5.759933559], [-75.674818397, 5.759754871], [-75.674801145, 5.759803128], [-75.674787668, 5.759845737], [-75.674773789, 5.759894273], [-75.674751649, 5.759982478], [-75.674737174, 5.760041124], [-75.674724324, 5.760093697], [-75.674702234, 5.760184133], [-75.674690473, 5.760237474], [-75.674683278, 5.760275072], [-75.674673948, 5.760335719], [-75.674668969, 5.760376403], [-75.674665794, 5.760407859], [-75.674662297, 5.760452974], [-75.674660962, 5.760327572]]]}}, {"type": "Feature", "properties": {"Proyecto": "Tamesis la Oculta", "Municipio": "Tamesis", "Sector": "R", "Matricula": "032-5160", "Terreno_Codigo": "057890002000000010138000000000", "Propietario": "ANA LUCIA SIERRA ESCOBAR", "Area_Total": 660000.0, "Area_Requerida": 43.2, "Area_Sobrante": 659956.8, "Etiqueta": "138", "Fuente_Financiacion": "Regalías", "Permiso_Intervencion": "SI"}, "geometry": {"type": "Polygon", "coordinates": [[[-75.67952566, 5.748090006], [-75.67952727, 5.748093086], [-75.679536798, 5.748111312], [-75.679542664, 5.748123346], [-75.679555352, 5.748151134], [-75.67955585, 5.748152262], [-75.679560437, 5.748162411], [-75.679567351, 5.74818385], [-75.679574372, 5.748205492], [-75.679585459, 5.748226618], [-75.679587114, 5.748230376], [-75.679587146, 5.748230375], [-75.679565031, 5.748242831], [-75.679533286, 5.748166132], [-75.679512593, 5.748095817], [-75.67952566, 5.748090006]]]}}, {"type": "Feature", "properties": {"Proyecto": "Puente Gabino", "Municipio": "Santo Domingo", "Sector": "R", "Matricula": "026-23008", "Terreno_Codigo": "056900004000000010063000000000", "Propietario": "MICHELLE MARIA NAVARRO GRAU DYER", "Area_Total": 39300.0, "Area_Requerida": 3510.03, "Area_Sobrante": 35789.97, "Etiqueta": "63", "Fuente_Financiacion": "Regalías", "Permiso_Intervencion": "SI"}, "geometry": {"type": "Polygon", "coordinates": [[[-75.200327634, 6.570335957], [-75.200489593, 6.571077827], [-75.200406666, 6.571101326], [-75.200323257, 6.571110816], [-75.200218367, 6.571139592], [-75.200161203, 6.571181271], [-75.200096289, 6.571206099], [-75.1999517, 6.570579397], [-75.200327634, 6.570335957]]]}}, {"type": "Feature", "properties": {"Proyecto": "Puente Gabino", "Municipio": "Santa Rosa de Osos", "Sector": "R", "Matricula": "025-26288", "Terreno_Codigo": "056860004000000020028000000000", "Propietario": "MARIA EUGENIA MARTINEZ", "Area_Total": 14017.0, "Area_Requerida": 3008.94, "Area_Sobrante": 11008.06, "Etiqueta": "28", "Fuente_Financiacion": "Regalías", "Permiso_Intervencion": "NO"}, "geometry": {"type": "Polygon", "coordinates": [[[-75.200741256, 6.572072902], [-75.200735086, 6.572076364], [-75.200674723, 6.572102199], [-75.200626007, 6.57212816], [-75.200623375, 6.572129562], [-75.200623099, 6.572129709], [-75.20061975, 6.572131495], [-75.200600213, 6.572140607], [-75.200579785, 6.572150134], [-75.200535353, 6.572180886], [-75.200488065, 6.57219908], [-75.200451049, 6.572216727], [-75.200418439, 6.572235529], [-75.200375706, 6.572256207], [-75.200330287, 6.572278029], [-75.200327642, 6.572273636], [-75.20027396, 6.572184465], [-75.200271631, 6.572180635], [-75.20023845, 6.572126076], [-75.200227136, 6.572109993], [-75.20021793, 6.572096905], [-75.200199024, 6.572069993], [-75.200178246, 6.572032739], [-75.200172898, 6.57202315], [-75.200154421, 6.571990371], [-75.200067317, 6.571879451], [-75.200043011, 6.571850797], [-75.200021531, 6.571823659], [-75.200000445, 6.571794496], [-75.199998168, 6.57179162], [-75.199975488, 6.571762966], [-75.199998812, 6.571749], [-75.199998644, 6.571749155], [-75.199998668, 6.57174918], [-75.199998688, 6.571749209], [-75.199998702, 6.57174924], [-75.199998712, 6.571749274], [-75.200023181, 6.571742944], [-75.200072215, 6.571730279], [-75.200080097, 6.571728242], [-75.200164938, 6.57170632], [-75.200164933, 6.571706285], [-75.200164934, 6.571706249], [-75.200164941, 6.571706214], [-75.200164953, 6.571706181], [-75.20016497, 6.571706149], [-75.200164991, 6.571706121], [-75.200165158, 6.571706272], [-75.200165369, 6.571706191], [-75.200173016, 6.571703136], [-75.200255225, 6.57167032], [-75.20025893, 6.571668839], [-75.200261984, 6.571667457], [-75.200261969, 6.571667538], [-75.200261984, 6.57166762], [-75.200262028, 6.571667691], [-75.200262056, 6.571667716], [-75.200262087, 6.571667737], [-75.200262122, 6.571667751], [-75.200262158, 6.571667761], [-75.200262195, 6.571667763], [-75.200262228, 6.571667761], [-75.200262261, 6.571667754], [-75.200262292, 6.571667742], [-75.200262321, 6.571667725], [-75.200262347, 6.571667705], [-75.200262373, 6.571667677], [-75.200262394, 6.571667645], [-75.200262409, 6.57166761], [-75.200262418, 6.571667573], [-75.200262421, 6.571667535], [-75.200262417, 6.571667498], [-75.200262408, 6.571667461], [-75.200262392, 6.571667426], [-75.20027571, 6.571659946], [-75.200290812, 6.571651463], [-75.200291009, 6.571651352], [-75.200291235, 6.571651354], [-75.200316707, 6.571651779], [-75.200322147, 6.571651869], [-75.200339531, 6.571652157], [-75.200340901, 6.57165218], [-75.200347078, 6.571652284], [-75.200352864, 6.571652705], [-75.200353016, 6.571652537], [-75.200353183, 6.571652384], [-75.200353335, 6.571652217], [-75.200353359, 6.571652243], [-75.200353379, 6.571652272], [-75.200353394, 6.571652304], [-75.200353404, 6.571652338], [-75.200409927, 6.571639936], [-75.200497017, 6.571620833], [-75.200559075, 6.571982707], [-75.200741256, 6.572072902]]]}}, {"type": "Feature", "properties": {"Proyecto": "Puente Cisneros", "Municipio": "Cisneros", "Sector": "U", "Matricula": "038-12732", "Terreno_Codigo": "051900100001700060008900000000", "Propietario": "GLORIA AMPARO GONZALEZ GONZALEZ", "Area_Total": 72.0, "Area_Requerida": 72.0, "Area_Sobrante": 0.0, "Etiqueta": "8", "Fuente_Financiacion": "Regalías", "Permiso_Intervencion": "NO"}, "geometry": {"type": "Polygon", "coordinates": [[[-75.078109473, 6.536997588], [-75.078113527, 6.536956741], [-75.078114832, 6.53694359], [-75.07812234, 6.536944337], [-75.078196959, 6.536951754], [-75.078209125, 6.536952964], [-75.078221894, 6.536954233], [-75.078222936, 6.536954336], [-75.078222929, 6.5369544], [-75.078221918, 6.53696294], [-75.078221749, 6.536964361], [-75.078216876, 6.537005525], [-75.078216557, 6.537008218], [-75.078215851, 6.537008148], [-75.078109473, 6.536997588]]]}}, {"type": "Feature", "properties": {"Proyecto": "Puente Cisneros", "Municipio": "Cisneros", "Sector": "U", "Matricula": "038-4956", "Terreno_Codigo": "051900100001700060009000000000", "Propietario": "ALEXA MARIA ALVAREZ LONDOÑO", "Area_Total": 72.0, "Area_Requerida": 72.0, "Area_Sobrante": 0.0, "Etiqueta": "9", "Fuente_Financiacion": "Regalías", "Permiso_Intervencion": "NO"}, "geometry": {"type": "Polygon", "coordinates": [[[-75.078114832, 6.53694359], [-75.078119093, 6.536900717], [-75.078120196, 6.536889589], [-75.078216526, 6.536899176], [-75.078220061, 6.536899528], [-75.078223584, 6.536899878], [-75.078227936, 6.536900312], [-75.078228885, 6.536900406], [-75.078229316, 6.536900449], [-75.078228728, 6.536905422], [-75.07822846, 6.536907679], [-75.078227911, 6.536912318], [-75.078227562, 6.536915266], [-75.078225868, 6.536929572], [-75.07822498, 6.53693707], [-75.078223087, 6.536953062], [-75.078222936, 6.536954336], [-75.078221894, 6.536954233], [-75.078209125, 6.536952964], [-75.078196959, 6.536951754], [-75.07812234, 6.536944337], [-75.078114832, 6.53694359]]]}}, {"type": "Feature", "properties": {"Proyecto": "Puente Cisneros", "Municipio": "Cisneros", "Sector": "U", "Matricula": "038-4957", "Terreno_Codigo": "051900100001700060010000000000", "Propietario": "RUTH MERY GOMEZ CATAÑO", "Area_Total": 72.0, "Area_Requerida": 72.0, "Area_Sobrante": 0.0, "Etiqueta": "10", "Fuente_Financiacion": "Regalías", "Permiso_Intervencion": "NO"}, "geometry": {"type": "Polygon", "coordinates": [[[-75.078120196, 6.536889589], [-75.078124417, 6.536847142], [-75.078125566, 6.536835592], [-75.078137002, 6.53683666], [-75.078139494, 6.536836893], [-75.078140887, 6.536837023], [-75.078153868, 6.536838236], [-75.078157234, 6.53683855], [-75.078180396, 6.536840713], [-75.078213781, 6.536843831], [-75.078218037, 6.536844229], [-75.078229426, 6.536845292], [-75.078234053, 6.536845725], [-75.078234422, 6.536845759], [-75.078230361, 6.536889253], [-75.078230162, 6.536891386], [-75.078229621, 6.536897177], [-75.078229454, 6.536898967], [-75.078229439, 6.536899131], [-75.078229402, 6.536899522], [-75.078229316, 6.536900449], [-75.078228885, 6.536900406], [-75.078227936, 6.536900312], [-75.078223584, 6.536899878], [-75.078220061, 6.536899528], [-75.078216526, 6.536899176], [-75.078120196, 6.536889589]]]}}, {"type": "Feature", "properties": {"Proyecto": "Puente Cisneros", "Municipio": "Cisneros", "Sector": "U", "Matricula": "038-19832", "Terreno_Codigo": "051900100001700070001000000000", "Propietario": "MUNICIPIO DE CISNEROS", "Area_Total": 22751.94, "Area_Requerida": 250.92, "Area_Sobrante": 22501.02, "Etiqueta": "1", "Fuente_Financiacion": "Regalías", "Permiso_Intervencion": "SI"}, "geometry": {"type": "Polygon", "coordinates": [[[-75.078033102, 6.536984192], [-75.078084915, 6.536993281], [-75.07807858, 6.537062259], [-75.078101097, 6.537064319], [-75.07809986, 6.537077759], [-75.078266207, 6.537093067], [-75.078263224, 6.537125479], [-75.078089742, 6.537109513], [-75.078088166, 6.537118986], [-75.078082497, 6.537118466], [-75.078069931, 6.537255306], [-75.078056727, 6.537245074], [-75.078045828, 6.537235182], [-75.07803059, 6.537219088], [-75.078022525, 6.537211397], [-75.078013579, 6.537204511], [-75.078011371, 6.537203443], [-75.078033102, 6.536984192]]]}}, {"type": "Feature", "properties": {"Proyecto": "Puente Cisneros", "Municipio": "Cisneros", "Sector": "R", "Matricula": "038-20295", "Terreno_Codigo": "051900001000000050033000000000", "Propietario": "MUNICIPIO DE CISNEROS", "Area_Total": 4400.0, "Area_Requerida": 144.66, "Area_Sobrante": 4255.34, "Etiqueta": "33", "Fuente_Financiacion": "Regalías", "Permiso_Intervencion": "SI"}, "geometry": {"type": "Polygon", "coordinates": [[[-75.078045135, 6.537367036], [-75.078059573, 6.537368108], [-75.0780418, 6.537561656], [-75.078031663, 6.53755941], [-75.077979708, 6.537547897], [-75.077995754, 6.537371316], [-75.078006452, 6.537369736], [-75.078029667, 6.537367416], [-75.078045135, 6.537367036]]]}}, {"type": "Feature", "properties": {"Proyecto": "Puente Cisneros", "Municipio": "Cisneros", "Sector": "R", "Matricula": "038-7348", "Terreno_Codigo": "051900099000099990001400000000", "Propietario": "EL INVIAS", "Area_Total": 129761.0, "Area_Requerida": 335.62, "Area_Sobrante": 129425.38, "Etiqueta": "14", "Fuente_Financiacion": "Regalías", "Permiso_Intervencion": "SI"}, "geometry": {"type": "Polygon", "coordinates": [[[-75.078029546, 6.537695111], [-75.078028759, 6.537703677], [-75.078000293, 6.538016099], [-75.077998193, 6.538015151], [-75.077977021, 6.53801046], [-75.077968133, 6.53800849], [-75.077952953, 6.538005127], [-75.077949283, 6.538004314], [-75.077948262, 6.537959532], [-75.077959105, 6.537817523], [-75.077965743, 6.53769789], [-75.077979708, 6.537547895], [-75.078031663, 6.53755941], [-75.0780418, 6.537561656], [-75.078030903, 6.537680329], [-75.078029546, 6.537695111]]]}}, {"type": "Feature", "properties": {"Proyecto": "Puente Cisneros", "Municipio": "Cisneros", "Sector": "U", "Matricula": "038-12731", "Terreno_Codigo": "051900100001700060008900000000", "Propietario": "BERTA OLIVA ARENAS OSPINA", "Area_Total": 91.0, "Area_Requerida": 71.75, "Area_Sobrante": 19.25, "Etiqueta": "89", "Fuente_Financiacion": "Regalías", "Permiso_Intervencion": "NO"}, "geometry": {"type": "Polygon", "coordinates": [[[-75.078109473, 6.536997588], [-75.078113527, 6.536956741], [-75.078114832, 6.53694359], [-75.07812234, 6.536944337], [-75.078196959, 6.536951754], [-75.078209125, 6.536952964], [-75.078221894, 6.536954233], [-75.078222936, 6.536954336], [-75.078222929, 6.5369544], [-75.078221918, 6.53696294], [-75.078221749, 6.536964361], [-75.078216876, 6.537005525], [-75.078216557, 6.537008218], [-75.078215851, 6.537008148], [-75.078109473, 6.536997588]]]}}, {"type": "Feature", "properties": {"Proyecto": "Puente El Volcan", "Municipio": "Urrao", "Sector": "R", "Matricula": "035-5624", "Terreno_Codigo": "058470001000000220011000000000", "Propietario": "PJDC S.A.S Y OTROS", "Area_Total": 593481.0, "Area_Requerida": 4051.95, "Area_Sobrante": 589429.05, "Etiqueta": "11", "Fuente_Financiacion": "Regalías", "Permiso_Intervencion": "SI"}, "geometry": {"type": "Polygon", "coordinates": [[[-76.129516643, 6.284887405], [-76.129515968, 6.2848853], [-76.129503137, 6.284836707], [-76.129498331, 6.284818505], [-76.129490058, 6.284753024], [-76.129487438, 6.284720602], [-76.1294834, 6.284670643], [-76.129478764, 6.284613291], [-76.129476678, 6.284587482], [-76.129476169, 6.28457546], [-76.12946725, 6.284364905], [-76.130293276, 6.284517217], [-76.13027941, 6.284580653], [-76.130241677, 6.284664083], [-76.130192013, 6.284751476], [-76.130176467, 6.284778832], [-76.130169222, 6.284791581], [-76.13016142, 6.284805309], [-76.130117342, 6.284882873], [-76.130091454, 6.284917694], [-76.129872009, 6.284871503], [-76.129516643, 6.284887405]]]}}, {"type": "Feature", "properties": {"Proyecto": "Puente El Volcan", "Municipio": "Urrao", "Sector": "R", "Matricula": "035-4921", "Terreno_Codigo": "058470001000000230021000000000", "Propietario": "GEORGINA COSSIO Y OTROS", "Area_Total": 1996780.0, "Area_Requerida": 4074.65, "Area_Sobrante": 1992705.35, "Etiqueta": "21", "Fuente_Financiacion": "Regalías", "Permiso_Intervencion": "SI"}, "geometry": {"type": "Polygon", "coordinates": [[[-76.130268307, 6.285068746], [-76.1303145, 6.285007808], [-76.130385275, 6.284957603], [-76.130399611, 6.284943991], [-76.130399819, 6.284943794], [-76.130411703, 6.284932511], [-76.130425583, 6.284919333], [-76.130432793, 6.284912488], [-76.13044599, 6.284895777], [-76.130459113, 6.284879161], [-76.130480224, 6.28485243], [-76.130530516, 6.284771435], [-76.130854666, 6.284935793], [-76.131387795, 6.284904587], [-76.131368063, 6.284922408], [-76.131221214, 6.285062162], [-76.13113361, 6.285145533], [-76.131081133, 6.285195475], [-76.131047965, 6.285227041], [-76.13100478, 6.285268139], [-76.130909071, 6.285361897], [-76.130595744, 6.285293211], [-76.130268307, 6.285068746]]]}}, {"type": "Feature", "properties": {"Proyecto": "PAP El Tres - San Pedro", "Municipio": "Turbo", "Sector": "R", "Matricula": "034-13299", "Terreno_Codigo": "058370010000000190062000000000", "Propietario": "RUBEN ANTONIO AGUDELO AGUDELO", "Area_Total": 10000.0, "Area_Requerida": 29.03, "Area_Sobrante": 9970.97, "Etiqueta": "62", "Fuente_Financiacion": "Regalías", "Permiso_Intervencion": "NO"}, "geometry": {"type": "Polygon", "coordinates": [[[-76.608402679, 8.110238299], [-76.6082626, 8.110261939], [-76.608172593, 8.110272971], [-76.608171333, 8.110259479], [-76.608218677, 8.110252367], [-76.608316413, 8.110243305], [-76.608356046, 8.110239972], [-76.608402679, 8.110238299]]]}}, {"type": "Feature", "properties": {"Proyecto": "PAP El Tres - San Pedro", "Municipio": "Turbo", "Sector": "R", "Matricula": "034-3534", "Terreno_Codigo": "058370010000000190032000000000", "Propietario": "GUILLERMO DE JESUS GRANADA ARCILA", "Area_Total": 2400000.0, "Area_Requerida": 296.36, "Area_Sobrante": 2399703.64, "Etiqueta": "32", "Fuente_Financiacion": "Regalías", "Permiso_Intervencion": "NO"}, "geometry": {"type": "Polygon", "coordinates": [[[-76.608887134, 8.110403523], [-76.608867949, 8.110402645], [-76.608848585, 8.110402627], [-76.608828128, 8.110400939], [-76.608811869, 8.110402673], [-76.608800897, 8.110403107], [-76.608793738, 8.110402418], [-76.608768606, 8.11039821], [-76.608749577, 8.110394301], [-76.608661296, 8.110387862], [-76.608616294, 8.110381678], [-76.608520328, 8.110358894], [-76.608472, 8.110350012], [-76.608414968, 8.110343754], [-76.608280016, 8.110342311], [-76.60858467, 8.110293937], [-76.608761555, 8.110352112], [-76.608887134, 8.110403523]]]}}, {"type": "Feature", "properties": {"Proyecto": "Puente San Fermín - Briceño", "Municipio": "Briceño", "Sector": "R", "Matricula": "N/A", "Terreno_Codigo": "051070001000000070012000000000", "Propietario": "GUILLERMO LEON MONTOYA RAMIREZ", "Area_Total": 130459.0, "Area_Requerida": 543.5, "Area_Sobrante": 129915.5, "Etiqueta": "12", "Fuente_Financiacion": "Regalías", "Permiso_Intervencion": "SI"}, "geometry": {"type": "Polygon", "coordinates": [[[-75.504878118, 7.099161401], [-75.504833476, 7.099140848], [-75.504673997, 7.09902327], [-75.504671827, 7.098973556], [-75.504751766, 7.098927015], [-75.50488317, 7.09882405], [-75.504885215, 7.098884072], [-75.504899865, 7.098931911], [-75.504900641, 7.099075389], [-75.504878118, 7.099161401]]]}}, {"type": "Feature", "properties": {"Proyecto": "Puente La Loma Urrao", "Municipio": "Urrao", "Sector": "R", "Matricula": "035-5037", "Terreno_Codigo": "058470001000000470018000000000", "Propietario": "RECAREDO DE JESUS HERRERA", "Area_Total": 20000.0, "Area_Requerida": 318.35, "Area_Sobrante": 19681.65, "Etiqueta": "18", "Fuente_Financiacion": "Regalías", "Permiso_Intervencion": "NO"}, "geometry": {"type": "Polygon", "coordinates": [[[-76.206797337, 6.371152902], [-76.206837996, 6.371132134], [-76.206910251, 6.371195438], [-76.206956836, 6.371229453], [-76.20702814, 6.37130882], [-76.20705476, 6.371347559], [-76.207102296, 6.371386297], [-76.207124163, 6.371420312], [-76.207145079, 6.371443933], [-76.207158316, 6.3714906], [-76.207121693, 6.371468734], [-76.207087164, 6.371444187], [-76.207051823, 6.371419062], [-76.206990364, 6.37136386], [-76.206931936, 6.371301907], [-76.206871529, 6.371238152], [-76.206868819, 6.371235291], [-76.206797337, 6.371152902]]]}}, {"type": "Feature", "properties": {"Proyecto": "Puente La Loma Urrao", "Municipio": "Urrao", "Sector": "R", "Matricula": "035-11464", "Terreno_Codigo": "058470001000000470019000000000", "Propietario": "AVELINO DE JESUS SERNA", "Area_Total": 170000.0, "Area_Requerida": 881.95, "Area_Sobrante": 169118.05, "Etiqueta": "19", "Fuente_Financiacion": "Regalías", "Permiso_Intervencion": "NO"}, "geometry": {"type": "Polygon", "coordinates": [[[-76.206831651, 6.37127487], [-76.206806381, 6.371278821], [-76.206695389, 6.371267483], [-76.206536423, 6.371295197], [-76.206511421, 6.371222535], [-76.206455805, 6.371151916], [-76.206436347, 6.371127209], [-76.206427065, 6.371049542], [-76.206432424, 6.370982302], [-76.206447971, 6.370973316], [-76.206476856, 6.37096735], [-76.206498083, 6.370967218], [-76.206498673, 6.370967214], [-76.206520597, 6.370973991], [-76.206540348, 6.37098249], [-76.206569737, 6.371000944], [-76.206596449, 6.371019405], [-76.206664612, 6.37108263], [-76.206677665, 6.371097674], [-76.206821012, 6.371262896], [-76.206828673, 6.371271726], [-76.206831651, 6.37127487]]]}}, {"type": "Feature", "properties": {"Proyecto": "Puente La Loma Urrao", "Municipio": "Urrao", "Sector": "R", "Matricula": "035-10276", "Terreno_Codigo": "058470001000000470137000000000", "Propietario": "EDISON IVAN QUICENO Y OTROS", "Area_Total": 80000.0, "Area_Requerida": 385.77, "Area_Sobrante": 79614.23, "Etiqueta": "137", "Fuente_Financiacion": "Regalías", "Permiso_Intervencion": "NO"}, "geometry": {"type": "Polygon", "coordinates": [[[-76.206233041, 6.371255131], [-76.20611024, 6.371275987], [-76.206033473, 6.371291017], [-76.205868857, 6.371338946], [-76.205736951, 6.371414289], [-76.205710347, 6.371428289], [-76.2057163, 6.371396944], [-76.206030316, 6.371214724], [-76.206163449, 6.371137772], [-76.206185993, 6.371175791], [-76.206233041, 6.371255131]]]}}, {"type": "Feature", "properties": {"Proyecto": "Puente La Loma Urrao", "Municipio": "Urrao", "Sector": "R", "Matricula": "035-3460", "Terreno_Codigo": "058470001000000470140000000000", "Propietario": "JORGE IVAN HIGUITA", "Area_Total": 10000.0, "Area_Requerida": 152.03, "Area_Sobrante": 9847.97, "Etiqueta": "140", "Fuente_Financiacion": "Regalías", "Permiso_Intervencion": "NO"}, "geometry": {"type": "Polygon", "coordinates": [[[-76.206084687, 6.371030373], [-76.206135799, 6.371091142], [-76.205927147, 6.371206203], [-76.205927797, 6.371201101], [-76.205951993, 6.371161424], [-76.205980515, 6.371107095], [-76.206084687, 6.371030373]]]}}, {"type": "Feature", "properties": {"Proyecto": "Puente Churimbo", "Municipio": "Santa Fe de Antioquia", "Sector": "R", "Matricula": "024-5689", "Terreno_Codigo": "050420001000000340116000000000", "Propietario": "MISAELA DAVID QUIRO", "Area_Total": 200000.0, "Area_Requerida": 254.488601598, "Area_Sobrante": 199745.511398, "Etiqueta": "116", "Fuente_Financiacion": "Regalías", "Permiso_Intervencion": "NO"}, "geometry": {"type": "Polygon", "coordinates": [[[-75.976912956, 6.599886436], [-75.976751164, 6.599911437], [-75.976704103, 6.599887354], [-75.976715512, 6.599847689], [-75.976736117, 6.599766893], [-75.97674696, 6.599766747], [-75.976813911, 6.599793857], [-75.976882363, 6.599815106], [-75.9769191, 6.599820019], [-75.976919441, 6.599823606], [-75.976912311, 6.599883104], [-75.976912956, 6.599886436]]]}}, {"type": "Feature", "properties": {"Proyecto": "Puente Churimbo", "Municipio": "Santa Fe de Antioquia", "Sector": "R", "Matricula": "024-12770", "Terreno_Codigo": "050420001000000340065000000000", "Propietario": "JOSE ANGEL ROLDAN GOMEZ", "Area_Total": 116332.0, "Area_Requerida": 138.978017435, "Area_Sobrante": 116193.021983, "Etiqueta": "65", "Fuente_Financiacion": "Regalías", "Permiso_Intervencion": "NO"}, "geometry": {"type": "Polygon", "coordinates": [[[-75.976736117, 6.599766893], [-75.976742607, 6.599741441], [-75.976766851, 6.599693276], [-75.976813911, 6.599720192], [-75.976882363, 6.599764107], [-75.976933702, 6.59977969], [-75.9769191, 6.599820019], [-75.976882363, 6.599815106], [-75.976813911, 6.599793857], [-75.97674696, 6.599766747], [-75.976736117, 6.599766893]]]}}, {"type": "Feature", "properties": {"Proyecto": "Puente La Florida Toledo", "Municipio": "Toledo", "Sector": "R", "Matricula": "037-48916", "Terreno_Codigo": "058190001000000110055000000000", "Propietario": "MARTA CONSUELO VALBUENA", "Area_Total": 10000.0, "Area_Requerida": 687.32, "Area_Sobrante": 9312.68, "Etiqueta": "55", "Fuente_Financiacion": "Regalías", "Permiso_Intervencion": "NO"}, "geometry": {"type": "Polygon", "coordinates": [[[-75.708764952, 7.023219274], [-75.708852564, 7.023176354], [-75.708965462, 7.023151585], [-75.709054592, 7.023149226], [-75.709102128, 7.023161021], [-75.709133026, 7.023161021], [-75.709172244, 7.023155124], [-75.70920433, 7.023157483], [-75.70922691, 7.023162201], [-75.709271401, 7.023168304], [-75.709264506, 7.023183195], [-75.709258312, 7.02319657], [-75.709249543, 7.023234691], [-75.709206394, 7.023302452], [-75.709187516, 7.023358386], [-75.709029636, 7.023291944], [-75.70892268, 7.0232542], [-75.708764952, 7.023219274]]]}}, {"type": "Feature", "properties": {"Proyecto": "Puente La Florida Toledo", "Municipio": "Toledo", "Sector": "R", "Matricula": "037-37853", "Terreno_Codigo": "058190001000000110019000000000", "Propietario": "JOSE DE JESUS DUQUE ZAPATA", "Area_Total": 477760.0, "Area_Requerida": 981.67, "Area_Sobrante": 476778.33, "Etiqueta": "19", "Fuente_Financiacion": "Regalías", "Permiso_Intervencion": "NO"}, "geometry": {"type": "Polygon", "coordinates": [[[-75.709264506, 7.023183195], [-75.709271401, 7.023168304], [-75.70940517, 7.023210559], [-75.709488358, 7.023280149], [-75.709578676, 7.023457071], [-75.70947172, 7.023523122], [-75.70935288, 7.023480661], [-75.709187516, 7.023358386], [-75.709206394, 7.023302452], [-75.709249543, 7.023234691], [-75.709258312, 7.02319657], [-75.709264506, 7.023183195]]]}}, {"type": "Feature", "properties": {"Proyecto": "Puente El Verdun Jardin", "Municipio": "Jardin", "Sector": "R", "Matricula": "004-14015", "Terreno_Codigo": "053640001000000100104000000000", "Propietario": "ARALI PALACIO MACHADO", "Area_Total": 32783.0, "Area_Requerida": 460.15, "Area_Sobrante": 32322.85, "Etiqueta": "104", "Fuente_Financiacion": "Regalías", "Permiso_Intervencion": "SI"}, "geometry": {"type": "Polygon", "coordinates": [[[-75.851109845, 5.592453896], [-75.851125222, 5.592369464], [-75.851110301, 5.592297083], [-75.851132274, 5.592270009], [-75.851165293, 5.592249041], [-75.851198375, 5.592248941], [-75.851245059, 5.592290538], [-75.851280684, 5.592365027], [-75.851262825, 5.59254267], [-75.851210951, 5.592529553], [-75.85115263, 5.592496933], [-75.851109845, 5.592453896]]]}}, {"type": "Feature", "properties": {"Proyecto": "Puente El Verdun Jardin", "Municipio": "Jardin", "Sector": "R", "Matricula": "004-12937", "Terreno_Codigo": "053640001000000110112000000000", "Propietario": "NORELA ZAPATA GOMEZ", "Area_Total": 22868.0, "Area_Requerida": 44.96, "Area_Sobrante": 22823.04, "Etiqueta": "112", "Fuente_Financiacion": "Regalías", "Permiso_Intervencion": "SI"}, "geometry": {"type": "Polygon", "coordinates": [[[-75.851083799, 5.59257468], [-75.851108731, 5.592593813], [-75.851093667, 5.592687199], [-75.851081499, 5.592714359], [-75.851068512, 5.592743341], [-75.851069039, 5.592673138], [-75.851072813, 5.592624416], [-75.851083799, 5.59257468]]]}}, {"type": "Feature", "properties": {"Proyecto": "Puente El Verdun Jardin", "Municipio": "Jardin", "Sector": "R", "Matricula": "004-7628", "Terreno_Codigo": "053640001000000110142000000000", "Propietario": "CRUZ ELISA MARIN AGUDELO", "Area_Total": 215290.0, "Area_Requerida": 301.42, "Area_Sobrante": 214988.58, "Etiqueta": "142", "Fuente_Financiacion": "Regalías", "Permiso_Intervencion": "SI"}, "geometry": {"type": "Polygon", "coordinates": [[[-75.851077239, 5.592803087], [-75.85106807, 5.592757361], [-75.851068512, 5.592743339], [-75.851081499, 5.592714359], [-75.851093667, 5.592687199], [-75.851108731, 5.592593815], [-75.851171795, 5.59263997], [-75.851217245, 5.592665829], [-75.851209515, 5.592730285], [-75.851201683, 5.592796176], [-75.851188697, 5.59281683], [-75.851171677, 5.592831464], [-75.851123002, 5.59283312], [-75.851098382, 5.59282364], [-75.851077239, 5.592803087]]]}}, {"type": "Feature", "properties": {"Proyecto": "PAP Ituango y Carolina", "Municipio": "Ituango", "Sector": "R", "Matricula": "013-7579", "Terreno_Codigo": "053610001000000140095000000000", "Propietario": "YANETH PATRICIA OQUENDO SALDARRIAGA Y OTRO", "Area_Total": 6517.0, "Area_Requerida": 725.74, "Area_Sobrante": 5791.26, "Etiqueta": "95", "Fuente_Financiacion": "Regalías", "Permiso_Intervencion": "NO"}, "geometry": {"type": "Polygon", "coordinates": [[[-75.749419122, 7.166197074], [-75.749341767, 7.166240399], [-75.74928264, 7.166255593], [-75.749165892, 7.166269427], [-75.749162508, 7.166136813], [-75.749184086, 7.166073889], [-75.749241467, 7.166024079], [-75.749307189, 7.165989979], [-75.749380081, 7.165973604], [-75.749416003, 7.165971829], [-75.749416467, 7.166034032], [-75.749419122, 7.166197074]]]}}]}
